{"type":"FeatureCollection","name":"caminos","title":"Caminos, ferrocarril, tranvía y telégrafo","features":[{"type":"Feature","properties":{"anio":1859,"tipo":"CAMINO","nombre":"CAMINO DE LAS TROPAS","origen":"MENSURA 24","km":10.2},"geometry":{"type":"LineString","coordinates":[[-59.72003,-34.423206],[-59.707277,-34.425896],[-59.698004,-34.427314],[-59.683716,-34.427438],[-59.660742,-34.426736],[-59.652636,-34.425753],[-59.645112,-34.424292],[-59.637587,-34.42331],[-59.634498,-34.423301],[-59.631406,-34.423771],[-59.627732,-34.42504],[-59.622898,-34.426785],[-59.619611,-34.427735],[-59.616713,-34.428046],[-59.611125,-34.428794]]}},{"type":"Feature","properties":{"anio":1859,"tipo":"CAMINO","nombre":"CAMINO DE LAS POSTAS","origen":"MENSURA 24","km":6.2},"geometry":{"type":"LineString","coordinates":[[-59.679882,-34.403273],[-59.676827,-34.403468],[-59.674871,-34.403918],[-59.672548,-34.40457],[-59.670836,-34.40497],[-59.669063,-34.405522],[-59.666495,-34.406174],[-59.664477,-34.406776],[-59.662521,-34.407125],[-59.660442,-34.407777],[-59.656525,-34.40969],[-59.655606,-34.410244],[-59.653771,-34.410947],[-59.650531,-34.411698],[-59.644473,-34.41411],[-59.642821,-34.414915],[-59.637927,-34.41647],[-59.631075,-34.41893],[-59.62728,-34.420589],[-59.625076,-34.421747],[-59.623727,-34.422907],[-59.621768,-34.423762],[-59.618281,-34.424814]]}},{"type":"Feature","properties":{"anio":1859,"tipo":"CAMINO","nombre":"CAMINO BUENOS AYRES A PROV","origen":"MENSURA 24","km":13.84},"geometry":{"type":"LineString","coordinates":[[-59.751545,-34.440683],[-59.74763,-34.441935],[-59.745565,-34.442381],[-59.741541,-34.443903],[-59.732084,-34.445952],[-59.722191,-34.448],[-59.708933,-34.449409],[-59.701216,-34.45038],[-59.695671,-34.451537],[-59.685997,-34.453042],[-59.676323,-34.454277],[-59.669908,-34.45534],[-59.666319,-34.45641],[-59.658378,-34.458908],[-59.655331,-34.460069],[-59.652501,-34.461231],[-59.649566,-34.461583],[-59.645431,-34.463011],[-59.638683,-34.465691],[-59.631173,-34.468368],[-59.625948,-34.470422],[-59.620286,-34.473015],[-59.617782,-34.473997],[-59.608103,-34.475586]]}},{"type":"Feature","properties":{"anio":1859,"tipo":"CAMINO","nombre":"CAMINO FORTIN ARECO A MERCEDES","origen":"MENSURA 24","km":12.68},"geometry":{"type":"LineString","coordinates":[[-59.741106,-34.444172],[-59.739252,-34.446598],[-59.736747,-34.448392],[-59.731189,-34.45387],[-59.72857,-34.457644],[-59.725842,-34.461058],[-59.721695,-34.466538],[-59.720171,-34.467434],[-59.713204,-34.471108],[-59.70689,-34.474513],[-59.698945,-34.477644],[-59.692194,-34.481227],[-59.686862,-34.483193],[-59.680767,-34.485517],[-59.672714,-34.488196],[-59.668037,-34.488903],[-59.65999,-34.489871],[-59.652377,-34.491109],[-59.646608,-34.493073],[-59.636263,-34.497542],[-59.630493,-34.499505],[-59.626574,-34.500663]]}},{"type":"Feature","properties":{"anio":1860,"tipo":"CAMINO","nombre":"CAMINO ANTIGUO A PROVINCIAS","origen":"MENSURA 27","km":12.28},"geometry":{"type":"LineString","coordinates":[[-59.187509,-34.373391],[-59.191137,-34.371646],[-59.194027,-34.369759],[-59.197906,-34.367471],[-59.199882,-34.366736],[-59.202679,-34.366006],[-59.206049,-34.365347],[-59.210163,-34.364149],[-59.214451,-34.361863],[-59.218249,-34.359302],[-59.222468,-34.355654],[-59.227509,-34.351672],[-59.230645,-34.34965],[-59.241151,-34.339985],[-59.246356,-34.335799],[-59.250991,-34.3312],[-59.255544,-34.326465],[-59.258691,-34.322946],[-59.262167,-34.319428],[-59.266383,-34.315507],[-59.270096,-34.312944],[-59.274225,-34.309498],[-59.285942,-34.300925]]}},{"type":"Feature","properties":{"anio":1860,"tipo":"CAMINO","nombre":"CAMINO NUEVO A PROVINCIAS","origen":"MENSURA 27","km":8.2},"geometry":{"type":"LineString","coordinates":[[-59.233056,-34.34742],[-59.235351,-34.346345],[-59.243168,-34.34374],[-59.251963,-34.341821],[-59.256561,-34.341237],[-59.262059,-34.341066],[-59.267727,-34.340147],[-59.272663,-34.338476],[-59.277601,-34.336668],[-59.282368,-34.335471],[-59.291978,-34.333962],[-59.300934,-34.332176],[-59.302826,-34.331438],[-59.305785,-34.330707],[-59.310054,-34.330186],[-59.314817,-34.329465],[-59.318679,-34.32867]]}},{"type":"Feature","properties":{"anio":1860,"tipo":"CAMINO","nombre":"A GILES","origen":"MENSURA 27","km":2.97},"geometry":{"type":"LineString","coordinates":[[-59.272663,-34.338476],[-59.274878,-34.338489],[-59.276841,-34.339113],[-59.279375,-34.340216],[-59.283774,-34.343848],[-59.287522,-34.346864],[-59.289721,-34.348714],[-59.291516,-34.349881],[-59.295854,-34.351131],[-59.299207,-34.352375]]}},{"type":"Feature","properties":{"anio":1860,"tipo":"CAMINO","nombre":"CAMINO ZÁRATE A MERCEDES","origen":"MENSURA 27","km":6.47},"geometry":{"type":"LineString","coordinates":[[-59.251141,-34.306072],[-59.254383,-34.310447],[-59.255672,-34.312972],[-59.256722,-34.314884],[-59.262312,-34.322606],[-59.264583,-34.325614],[-59.266445,-34.328415],[-59.268062,-34.33101],[-59.269509,-34.334421],[-59.271571,-34.338846],[-59.272241,-34.34097],[-59.273697,-34.343428],[-59.27613,-34.346708],[-59.278396,-34.35026],[-59.283008,-34.35784]]}},{"type":"Feature","properties":{"anio":1866,"tipo":"CAMINO","nombre":"CAMINO DE LAS ARREAS","origen":"MENSURA 38","km":0.0},"geometry":{"type":"LineString","coordinates":[[-59.567719,-34.364698],[-59.566509,-34.364944],[-59.565145,-34.365878],[-59.563632,-34.366374],[-59.562043,-34.367057],[-59.560076,-34.367739],[-59.559168,-34.367923],[-59.558487,-34.368297],[-59.555006,-34.369662],[-59.554173,-34.370097],[-59.553563,-34.37116],[-59.55235,-34.371907],[-59.551066,-34.37209],[-59.549779,-34.372523],[-59.548265,-34.373332],[-59.545991,-34.374701],[-59.545078,-34.37595],[-59.543859,-34.377887],[-59.542568,-34.37926],[-59.541881,-34.380635],[-59.541643,-34.382638],[-59.541033,-34.383763],[-59.539059,-34.385572],[-59.537916,-34.387321],[-59.536847,-34.389383],[-59.535775,-34.392134],[-59.535617,-34.393324],[-59.534778,-34.394761],[-59.533028,-34.397071],[-59.532418,-34.398008],[-59.53135,-34.399945],[-59.530438,-34.400944],[-59.528379,-34.40438],[-59.528299,-34.405131],[-59.527677,-34.408197]]}},{"type":"Feature","properties":{"anio":1870,"tipo":"CAMINO","nombre":"CAMINO ARRECIFES A GILES","origen":"MENSURA 58","km":0.0},"geometry":{"type":"LineString","coordinates":[[-59.528256,-34.402491],[-59.526633,-34.403231],[-59.525282,-34.403598],[-59.521855,-34.40515],[-59.520044,-34.405823],[-59.518877,-34.406448],[-59.517509,-34.406945],[-59.516393,-34.407444],[-59.515429,-34.407943],[-59.513143,-34.409444],[-59.511065,-34.410148],[-59.509746,-34.41073],[-59.505379,-34.413438],[-59.504518,-34.413686],[-59.502285,-34.414809],[-59.500355,-34.416017],[-59.495786,-34.418598],[-59.49421,-34.419892],[-59.489385,-34.422765],[-59.487506,-34.423931],[-59.484917,-34.425262],[-59.481667,-34.427219],[-59.480042,-34.428051],[-59.478671,-34.428883],[-59.477047,-34.429547],[-59.475274,-34.429959],[-59.473551,-34.430245],[-59.471326,-34.430026],[-59.469658,-34.429767],[-59.467637,-34.429297],[-59.466625,-34.429209],[-59.464904,-34.429369],[-59.463079,-34.429738],[-59.461711,-34.430068]]}},{"type":"Feature","properties":{"anio":1870,"tipo":"CAMINO","nombre":"CAMINO CARMEN DE ARECO A GILES","origen":"MENSURA 58","km":0.0},"geometry":{"type":"LineString","coordinates":[[-59.513613,-34.433179],[-59.510877,-34.433755],[-59.509004,-34.433789],[-59.50698,-34.433697],[-59.505359,-34.434026],[-59.503078,-34.43473],[-59.50181,-34.435186],[-59.501101,-34.435225],[-59.498769,-34.435928],[-59.496081,-34.436881],[-59.492278,-34.438123],[-59.488677,-34.439366],[-59.48599,-34.440068],[-59.482289,-34.441226],[-59.478182,-34.442383],[-59.476054,-34.442709],[-59.472757,-34.443869],[-59.470221,-34.444823],[-59.468446,-34.445402],[-59.466671,-34.445897],[-59.464544,-34.446014],[-59.462419,-34.445963],[-59.460902,-34.445788],[-59.457822,-34.444642],[-59.456257,-34.444007],[-59.454438,-34.443495],[-59.452009,-34.443443]]}},{"type":"Feature","properties":{"anio":1870,"tipo":"CAMINO","nombre":"CAMINO A GILES","origen":"MENSURA 59","km":0.0},"geometry":{"type":"LineString","coordinates":[[-59.339976,-34.500356],[-59.341967,-34.499843],[-59.343508,-34.499029],[-59.345051,-34.498065],[-59.34677,-34.497701],[-59.348314,-34.496587],[-59.349584,-34.495847],[-59.351846,-34.49526],[-59.353118,-34.494295],[-59.354575,-34.492658],[-59.356299,-34.491695],[-59.358833,-34.490961],[-59.362455,-34.489634],[-59.364542,-34.488299],[-59.365719,-34.487856],[-59.367257,-34.48749],[-59.371793,-34.484747],[-59.373333,-34.484082],[-59.379211,-34.482841],[-59.380836,-34.482849],[-59.382372,-34.482708],[-59.38373,-34.482266],[-59.384723,-34.482271],[-59.385713,-34.482724],[-59.39122,-34.482827],[-59.393389,-34.482613],[-59.396108,-34.481131],[-59.398191,-34.480319],[-59.403885,-34.479525]]}},{"type":"Feature","properties":{"anio":1872,"tipo":"CAMINO","nombre":"CAMINO LUJAN A ARECO","origen":"MENSURA 62","km":0.0},"geometry":{"type":"LineString","coordinates":[[-59.414443,-34.319167],[-59.416267,-34.315382],[-59.417875,-34.313173],[-59.420205,-34.310499],[-59.421913,-34.308674],[-59.425231,-34.304256],[-59.426373,-34.302471],[-59.426793,-34.301236],[-59.427111,-34.299788],[-59.427075,-34.297486],[-59.427545,-34.29638],[-59.428636,-34.294467],[-59.429521,-34.292766],[-59.43004,-34.291916]]}},{"type":"Feature","properties":{"anio":1875,"tipo":"CAMINO","nombre":"CAMINO","origen":"MENSURA 69","km":0.0},"geometry":{"type":"LineString","coordinates":[[-59.318679,-34.32867],[-59.324017,-34.327174],[-59.328998,-34.325053],[-59.334414,-34.322575],[-59.339611,-34.320455],[-59.342564,-34.319754],[-59.345968,-34.319067],[-59.34961,-34.319087]]}},{"type":"Feature","properties":{"anio":1875,"tipo":"CAMINO","nombre":"CAMINO","origen":"MENSURA 69","km":0.0},"geometry":{"type":"LineString","coordinates":[[-59.366032,-34.330958],[-59.363616,-34.329334],[-59.361439,-34.328215],[-59.359144,-34.326591],[-59.353835,-34.322332],[-59.351661,-34.32081],[-59.34961,-34.319087],[-59.348288,-34.317367],[-59.346727,-34.315143],[-59.343233,-34.3118],[-59.340459,-34.309468],[-59.338048,-34.307239],[-59.334182,-34.304901],[-59.325611,-34.299012],[-59.321383,-34.29647],[-59.314858,-34.292908],[-59.309781,-34.290362],[-59.304335,-34.288518],[-59.301066,-34.287592],[-59.297559,-34.286162],[-59.29308,-34.284827]]}},{"type":"Feature","properties":{"anio":1876,"tipo":"CAMINO","nombre":"CAMINO A SANTA FE","origen":"MENSURA 81","km":0.0},"geometry":{"type":"LineString","coordinates":[[-59.203339,-34.360256],[-59.205382,-34.36041],[-59.206615,-34.360701],[-59.207722,-34.360814],[-59.20999,-34.35984],[-59.212594,-34.359291],[-59.215242,-34.358637],[-59.21785,-34.357699],[-59.221522,-34.35691],[-59.223275,-34.356214],[-59.225793,-34.355806],[-59.228866,-34.355225],[-59.231344,-34.354428],[-59.234117,-34.354092],[-59.236895,-34.353084],[-59.23946,-34.352217],[-59.241592,-34.351983],[-59.245175,-34.35151]]}},{"type":"Feature","properties":{"anio":1877,"tipo":"CAMINO","nombre":"CAMINO ZARATE A GILES","origen":"MENSURA 83","km":0.0},"geometry":{"type":"LineString","coordinates":[[-59.390901,-34.384634],[-59.396783,-34.390154],[-59.401272,-34.394715],[-59.405826,-34.399013]]}},{"type":"Feature","properties":{"anio":1877,"tipo":"CAMINO","nombre":"CAMINO A GILES","origen":"MENSURA 83","km":0.0},"geometry":{"type":"LineString","coordinates":[[-59.379455,-34.394689],[-59.382454,-34.396041],[-59.384559,-34.397239],[-59.38681,-34.398052],[-59.390094,-34.399642],[-59.392021,-34.400691],[-59.39491,-34.402427],[-59.400084,-34.405244]]}},{"type":"Feature","properties":{"anio":1877,"tipo":"CAMINO","nombre":"CAMINO A GILES","origen":"MENSURA 83","km":0.0},"geometry":{"type":"LineString","coordinates":[[-59.367168,-34.409176],[-59.369453,-34.410108],[-59.371631,-34.411159],[-59.373702,-34.41206],[-59.375738,-34.412872],[-59.377737,-34.413922],[-59.380234,-34.415389],[-59.382843,-34.416234]]}},{"type":"Feature","properties":{"anio":0,"tipo":"CAMINO","nombre":"CAMINO DE ARECO A LUJAN","origen":"MENSURA 86","km":0.0},"geometry":{"type":"LineString","coordinates":[[-59.477688,-34.483261],[-59.473363,-34.484997],[-59.471316,-34.48549],[-59.468847,-34.485777],[-59.466289,-34.486295],[-59.463775,-34.486636],[-59.461177,-34.486836],[-59.455251,-34.488009],[-59.451583,-34.48912],[-59.447615,-34.490407],[-59.445568,-34.490891]]}},{"type":"Feature","properties":{"anio":0,"tipo":"CAMINO","nombre":"CAMINO VECINAL","origen":"MENSURA 86","km":0.0},"geometry":{"type":"LineString","coordinates":[[-59.454669,-34.453211],[-59.455384,-34.454483],[-59.456348,-34.456779],[-59.456806,-34.458297],[-59.457647,-34.459852],[-59.459846,-34.462082],[-59.461441,-34.46565],[-59.462155,-34.467134],[-59.46308,-34.46883],[-59.46498,-34.471377],[-59.465905,-34.473143],[-59.467085,-34.475017],[-59.467884,-34.476466],[-59.468771,-34.477563],[-59.470073,-34.480459],[-59.471125,-34.482332],[-59.472347,-34.484382],[-59.473013,-34.485082]]}},{"type":"Feature","properties":{"anio":0,"tipo":"TELÉGRAFO","nombre":"TELEGRAFO A MERCEDES","origen":"MENSURA 86","km":0.0},"geometry":{"type":"LineString","coordinates":[[-59.453703,-34.456786],[-59.46448,-34.488668],[-59.461502,-34.501522]]}},{"type":"Feature","properties":{"anio":0,"tipo":"CAMINO","nombre":"CAMINO DE GILES A MERCEDES","origen":"MENSURA 86","km":0.0},"geometry":{"type":"LineString","coordinates":[[-59.441858,-34.46208],[-59.442749,-34.464528],[-59.443025,-34.465798],[-59.443233,-34.468573],[-59.443216,-34.471158],[-59.442958,-34.475904],[-59.442435,-34.477735],[-59.441962,-34.480459],[-59.44101,-34.487129],[-59.440546,-34.488537],[-59.439856,-34.489897],[-59.439107,-34.491586],[-59.438525,-34.493698]]}},{"type":"Feature","properties":{"anio":1878,"tipo":"FERROCARRIL","nombre":"FCO RAMAL A PERGAMINO","origen":"MENSURA 87","km":0.0},"geometry":{"type":"LineString","coordinates":[[-59.284661,-34.44283],[-59.307702,-34.426082]]}},{"type":"Feature","properties":{"anio":1878,"tipo":"CAMINO","nombre":"CAMINO DE GILES A LA CAPILLA","origen":"MENSURA 88","km":0.0},"geometry":{"type":"LineString","coordinates":[[-59.343418,-34.398313],[-59.34134,-34.397264],[-59.339992,-34.396219],[-59.338434,-34.395346],[-59.336561,-34.39473],[-59.333751,-34.393937],[-59.331775,-34.393148],[-59.330323,-34.392102],[-59.328765,-34.391315],[-59.325959,-34.390003],[-59.324089,-34.389041],[-59.323266,-34.387653],[-59.322025,-34.386263],[-59.320886,-34.385305]]}},{"type":"Feature","properties":{"anio":1878,"tipo":"CAMINO","nombre":"CAMINO DE S A DE ARECO A LUJAN","origen":"MENSURA 88","km":0.0},"geometry":{"type":"LineString","coordinates":[[-59.316787,-34.389087],[-59.316772,-34.390903],[-59.315703,-34.394183],[-59.315694,-34.395221],[-59.315791,-34.396172],[-59.315151,-34.397898],[-59.313773,-34.400571],[-59.312194,-34.402292],[-59.310724,-34.403494],[-59.308411,-34.405643],[-59.307147,-34.407106],[-59.30567,-34.409086],[-59.304506,-34.410982],[-59.303024,-34.413654],[-59.301761,-34.414944],[-59.298597,-34.41899],[-59.297856,-34.420196]]}},{"type":"Feature","properties":{"anio":1878,"tipo":"CAMINO","nombre":"CAMINO DE GILES A ZARATE","origen":"MENSURA 88","km":0.0},"geometry":{"type":"LineString","coordinates":[[-59.38668,-34.368834],[-59.385228,-34.36693],[-59.383835,-34.364929],[-59.383028,-34.36293],[-59.382681,-34.362248],[-59.381459,-34.361025],[-59.379477,-34.359362],[-59.377147,-34.357112],[-59.375282,-34.355498],[-59.373478,-34.35364],[-59.371554,-34.352074],[-59.369749,-34.350411]]}},{"type":"Feature","properties":{"anio":1879,"tipo":"CAMINO","nombre":"CAMINO DEL PILAR S A DE ARECO","origen":"MENSURA 90","km":0.0},"geometry":{"type":"LineString","coordinates":[[-59.310883,-34.329367],[-59.306754,-34.330211],[-59.298179,-34.333224],[-59.294413,-34.334733],[-59.289423,-34.335572],[-59.286094,-34.336369],[-59.283441,-34.337272],[-59.278453,-34.337855],[-59.275807,-34.337942],[-59.269897,-34.338417],[-59.262565,-34.339649],[-59.258433,-34.340798]]}},{"type":"Feature","properties":{"anio":1879,"tipo":"CAMINO","nombre":"CAMINO DE GILES A ZARATE","origen":"MENSURA 90","km":0.0},"geometry":{"type":"LineString","coordinates":[[-59.254309,-34.313164],[-59.260086,-34.320701],[-59.26154,-34.32321],[-59.265306,-34.328744],[-59.267739,-34.330491],[-59.268937,-34.333074],[-59.269064,-34.335197],[-59.267494,-34.338811]]}},{"type":"Feature","properties":{"anio":1879,"tipo":"CAMINO","nombre":"CAMINO DE GILES A LA CAPILLA","origen":"MENSURA 91","km":0.0},"geometry":{"type":"LineString","coordinates":[[-59.41353,-34.421689],[-59.416466,-34.423376],[-59.41891,-34.425197],[-59.421511,-34.427924],[-59.424055,-34.431057],[-59.425082,-34.432599],[-59.427036,-34.434282],[-59.428882,-34.435738],[-59.429696,-34.436511],[-59.430891,-34.437286],[-59.431816,-34.437787],[-59.43301,-34.438879],[-59.434098,-34.439381],[-59.436279,-34.439844]]}},{"type":"Feature","properties":{"anio":1879,"tipo":"CAMINO","nombre":"CAMINO","origen":"MENSURA 91","km":0.0},"geometry":{"type":"LineString","coordinates":[[-59.449009,-34.438499],[-59.447534,-34.438538],[-59.444098,-34.438025],[-59.442515,-34.438018],[-59.440875,-34.438327],[-59.436279,-34.439844],[-59.434363,-34.440558],[-59.429066,-34.44076],[-59.425843,-34.441062],[-59.423381,-34.441774],[-59.419335,-34.442659],[-59.415344,-34.443454],[-59.411298,-34.444159],[-59.406544,-34.444814],[-59.403264,-34.445341],[-59.401138,-34.444878],[-59.396443,-34.444855],[-59.394587,-34.444801],[-59.393445,-34.444162],[-59.391152,-34.44415],[-59.387713,-34.443998]]}},{"type":"Feature","properties":{"anio":1879,"tipo":"CAMINO","nombre":"CAMINO","origen":"MENSURA 91","km":0.0},"geometry":{"type":"LineString","coordinates":[[-59.458288,-34.447316],[-59.456264,-34.44785],[-59.454569,-34.448204],[-59.452544,-34.448874],[-59.450245,-34.449723],[-59.448766,-34.450575],[-59.447286,-34.451338],[-59.446079,-34.452237],[-59.445039,-34.452685],[-59.44066,-34.454248],[-59.43842,-34.454464],[-59.43585,-34.454859],[-59.428737,-34.457087],[-59.423758,-34.458512],[-59.422223,-34.459273],[-59.42118,-34.460083],[-59.420412,-34.460576],[-59.415431,-34.462317]]}},{"type":"Feature","properties":{"anio":1879,"tipo":"CAMINO","nombre":"CAMINO","origen":"MENSURA 91","km":0.0},"geometry":{"type":"LineString","coordinates":[[-59.453355,-34.448606],[-59.452112,-34.448148],[-59.450913,-34.447781],[-59.449986,-34.447641],[-59.44922,-34.447909],[-59.448231,-34.448764],[-59.44691,-34.450431],[-59.445481,-34.451872],[-59.445039,-34.452685],[-59.443992,-34.454037],[-59.44366,-34.454668],[-59.443489,-34.455799],[-59.444291,-34.458335],[-59.444436,-34.461186],[-59.444365,-34.463673],[-59.444072,-34.466747]]}},{"type":"Feature","properties":{"anio":1878,"tipo":"CAMINO","nombre":"CAMINO CHACABUCO A GILES","origen":"MENSURA 92","km":0.0},"geometry":{"type":"LineString","coordinates":[[-59.709406,-34.542661],[-59.706414,-34.542559],[-59.698588,-34.542587],[-59.696458,-34.542868],[-59.694098,-34.543052],[-59.692257,-34.543143],[-59.690474,-34.542805],[-59.688462,-34.542181],[-59.686336,-34.541461],[-59.684613,-34.540505],[-59.683179,-34.539453],[-59.681111,-34.538496],[-59.679732,-34.537968],[-59.678295,-34.537631],[-59.67565,-34.537148],[-59.673465,-34.536952],[-59.665349,-34.537692],[-59.661261,-34.538252],[-59.65942,-34.538247],[-59.656429,-34.538]]}},{"type":"Feature","properties":{"anio":0,"tipo":"CAMINO","nombre":"CAMINO DE CAPILLA A GILES","origen":"MENSURA 93","km":0.0},"geometry":{"type":"LineString","coordinates":[[-59.416128,-34.415633],[-59.416386,-34.416169],[-59.416574,-34.416734],[-59.416764,-34.417038],[-59.417786,-34.418055],[-59.417939,-34.41859],[-59.418231,-34.419285],[-59.418524,-34.419764],[-59.419839,-34.421244],[-59.420404,-34.422765],[-59.420646,-34.423185],[-59.421408,-34.423955],[-59.422032,-34.424434]]}},{"type":"Feature","properties":{"anio":1884,"tipo":"CAMINO","nombre":"CAMINO A MERCEDES","origen":"MENSURA 127","km":0.0},"geometry":{"type":"LineString","coordinates":[[-59.44189,-34.452933],[-59.443983,-34.455869],[-59.444976,-34.457652],[-59.445865,-34.459435],[-59.446579,-34.461418],[-59.446844,-34.463255],[-59.44676,-34.465406],[-59.446333,-34.46724],[-59.445766,-34.469131],[-59.444483,-34.474547],[-59.444481,-34.474892],[-59.44465,-34.475552],[-59.444642,-34.476642],[-59.444358,-34.477674],[-59.444,-34.479451],[-59.443293,-34.481657],[-59.443112,-34.482717],[-59.442513,-34.484235],[-59.442158,-34.485582],[-59.442044,-34.487044],[-59.442072,-34.488106],[-59.442411,-34.48914],[-59.44354,-34.491441],[-59.444017,-34.492533],[-59.444907,-34.494287],[-59.445244,-34.495723]]}},{"type":"Feature","properties":{"anio":1884,"tipo":"CAMINO","nombre":"CAMINO VECINAL","origen":"MENSURA 127","km":0.0},"geometry":{"type":"LineString","coordinates":[[-59.452978,-34.452573],[-59.455273,-34.455165],[-59.456747,-34.456183],[-59.457701,-34.457392],[-59.458837,-34.458473],[-59.459842,-34.459596],[-59.460202,-34.460265],[-59.460353,-34.461019],[-59.460763,-34.46186],[-59.461559,-34.463219],[-59.462692,-34.464902],[-59.463594,-34.466046],[-59.464523,-34.466997],[-59.466117,-34.469543],[-59.466914,-34.470923],[-59.468067,-34.47351],[-59.468839,-34.474611],[-59.469871,-34.475756],[-59.470436,-34.47677],[-59.471152,-34.478537],[-59.471791,-34.480283],[-59.471862,-34.481359],[-59.472192,-34.482673],[-59.473311,-34.486443],[-59.474021,-34.489265]]}},{"type":"Feature","properties":{"anio":1884,"tipo":"CAMINO","nombre":"CAMINO A S A DE ARECO","origen":"MENSURA 127","km":0.0},"geometry":{"type":"LineString","coordinates":[[-59.458148,-34.384023],[-59.457703,-34.384688],[-59.457918,-34.387572],[-59.45791,-34.388756],[-59.458081,-34.390413],[-59.45812,-34.392371],[-59.457905,-34.393554],[-59.457817,-34.395103],[-59.458223,-34.396589],[-59.458218,-34.397278],[-59.45727,-34.39949],[-59.456797,-34.400391],[-59.455984,-34.401614],[-59.455432,-34.402687],[-59.455165,-34.403848],[-59.454714,-34.405245],[-59.454499,-34.406449],[-59.453447,-34.408488],[-59.453257,-34.409757],[-59.452678,-34.411023],[-59.451863,-34.412547],[-59.450764,-34.413855],[-59.449849,-34.414841],[-59.448592,-34.416492],[-59.446344,-34.418784],[-59.445951,-34.41932],[-59.445791,-34.419943],[-59.445769,-34.42035]]}},{"type":"Feature","properties":{"anio":1884,"tipo":"CAMINO","nombre":"CAMINO VECINAL","origen":"MENSURA 127","km":0.0},"geometry":{"type":"LineString","coordinates":[[-59.44277,-34.386192],[-59.443489,-34.387314],[-59.444206,-34.38878],[-59.444403,-34.390309],[-59.444498,-34.391643],[-59.444487,-34.393321],[-59.444375,-34.394633],[-59.443822,-34.395857],[-59.443168,-34.396586],[-59.442021,-34.397377],[-59.44064,-34.398059],[-59.438842,-34.39917],[-59.438163,-34.399812],[-59.437757,-34.400596]]}},{"type":"Feature","properties":{"anio":1884,"tipo":"CAMINO","nombre":"CAMINO VECINAL","origen":"MENSURA 127","km":0.0},"geometry":{"type":"LineString","coordinates":[[-59.432207,-34.390403],[-59.433727,-34.392089],[-59.436293,-34.39649],[-59.437259,-34.399507],[-59.437872,-34.400994],[-59.438488,-34.402159],[-59.439048,-34.403689],[-59.439534,-34.40481],[-59.440459,-34.406278],[-59.440966,-34.408109],[-59.44256,-34.410418],[-59.443227,-34.411734],[-59.443375,-34.412853],[-59.443417,-34.414295],[-59.443748,-34.415373],[-59.444259,-34.416537],[-59.444947,-34.418476],[-59.445689,-34.420245]]}},{"type":"Feature","properties":{"anio":1884,"tipo":"CAMINO","nombre":"CAMINO A S A DE ARECO","origen":"MENSURA 127","km":0.0},"geometry":{"type":"LineString","coordinates":[[-59.445769,-34.42035],[-59.446668,-34.42225],[-59.447044,-34.424268],[-59.447033,-34.425923],[-59.44721,-34.428586],[-59.447977,-34.430405],[-59.448159,-34.432463],[-59.449039,-34.435407]]}},{"type":"Feature","properties":{"anio":1884,"tipo":"CAMINO","nombre":"CAMINO AL CARMEN DE ARECO","origen":"MENSURA 127","km":0.0},"geometry":{"type":"LineString","coordinates":[[-59.449039,-34.435407],[-59.449871,-34.435217],[-59.45117,-34.43518],[-59.455401,-34.435564],[-59.457891,-34.43592],[-59.458904,-34.435881],[-59.460204,-34.435758],[-59.461479,-34.435312],[-59.468889,-34.429836],[-59.469541,-34.429408],[-59.470267,-34.429454],[-59.471616,-34.429762],[-59.472809,-34.429939],[-59.473899,-34.430008],[-59.475715,-34.430253],[-59.47761,-34.430433],[-59.479426,-34.43072],[-59.481008,-34.431028],[-59.482902,-34.431294],[-59.484823,-34.431346],[-59.487677,-34.431745],[-59.489804,-34.432098],[-59.492268,-34.432646],[-59.495381,-34.433197],[-59.499663,-34.433666],[-59.501947,-34.433848],[-59.504569,-34.433966],[-59.505846,-34.433218],[-59.507565,-34.432321],[-59.511656,-34.429906],[-59.512517,-34.429264]]}},{"type":"Feature","properties":{"anio":1884,"tipo":"CAMINO","nombre":"CAMINO A CAPILLA DEL SEÑOR","origen":"MENSURA 127","km":0.0},"geometry":{"type":"LineString","coordinates":[[-59.373543,-34.411655],[-59.376027,-34.412765],[-59.379803,-34.414764],[-59.382547,-34.415854],[-59.384461,-34.416767],[-59.388167,-34.417732],[-59.391248,-34.418888],[-59.394224,-34.420323],[-59.39619,-34.421344],[-59.398237,-34.421956],[-59.399972,-34.422546],[-59.402535,-34.423656],[-59.404242,-34.424589],[-59.406933,-34.425829],[-59.412003,-34.428693],[-59.419565,-34.43157],[-59.422465,-34.432767],[-59.427255,-34.434833],[-59.433214,-34.436862],[-59.436633,-34.438169],[-59.43837,-34.438715],[-59.440882,-34.439738]]}},{"type":"Feature","properties":{"anio":1884,"tipo":"CAMINO","nombre":"CAMINO A ESTACION AZCUENAGA","origen":"MENSURA 127","km":0.0},"geometry":{"type":"LineString","coordinates":[[-59.440882,-34.439738],[-59.43895,-34.437448],[-59.437015,-34.435524],[-59.434308,-34.432607],[-59.430152,-34.428908],[-59.427437,-34.427174],[-59.425989,-34.426285],[-59.425006,-34.425743],[-59.420069,-34.422535],[-59.419503,-34.421822],[-59.417936,-34.419276],[-59.416651,-34.417419],[-59.414857,-34.414097],[-59.413365,-34.412025],[-59.409988,-34.408716],[-59.408595,-34.407419],[-59.407487,-34.406294],[-59.406845,-34.405216],[-59.405894,-34.403898],[-59.40515,-34.402711],[-59.403784,-34.40122],[-59.402315,-34.399836],[-59.399914,-34.397909]]}},{"type":"Feature","properties":{"anio":1856,"tipo":"CAMINO","nombre":"CAMINO FORTIN DE ARECO A GILES","origen":"MENSURA 5","km":0.0},"geometry":{"type":"LineString","coordinates":[[-59.454569,-34.448204],[-59.458867,-34.4472],[-59.461416,-34.446852],[-59.463909,-34.446863],[-59.465481,-34.446735],[-59.467923,-34.446207],[-59.469011,-34.445628],[-59.470645,-34.444199],[-59.471568,-34.443933],[-59.474659,-34.443677],[-59.476775,-34.443148],[-59.478137,-34.441986],[-59.479223,-34.441632],[-59.480582,-34.440874],[-59.482536,-34.440479],[-59.484327,-34.439947],[-59.485629,-34.439728],[-59.486988,-34.438971],[-59.488833,-34.438485],[-59.492306,-34.437691],[-59.496753,-34.437036],[-59.498054,-34.436997],[-59.500495,-34.436513],[-59.502501,-34.436252],[-59.507217,-34.436001]]}},{"type":"Feature","properties":{"anio":1854,"tipo":"CAMINO","nombre":"CAMINO ZARATE A MERCEDES","origen":"MENSURA 6","km":0.0},"geometry":{"type":"LineString","coordinates":[[-59.313437,-34.414618],[-59.313453,-34.412612],[-59.313948,-34.409874],[-59.313796,-34.406791],[-59.313935,-34.404198],[-59.314248,-34.402096],[-59.314851,-34.400533],[-59.316226,-34.398388],[-59.316831,-34.396581],[-59.317448,-34.393354]]}},{"type":"Feature","properties":{"anio":1854,"tipo":"CAMINO","nombre":"CAMINO ZARATE A GILES","origen":"MENSURA 6","km":0.0},"geometry":{"type":"LineString","coordinates":[[-59.367386,-34.37767],[-59.364681,-34.376433],[-59.3615,-34.375683],[-59.357905,-34.37493],[-59.353893,-34.374762],[-59.349411,-34.374444],[-59.345875,-34.373741],[-59.342519,-34.372793]]}},{"type":"Feature","properties":{"anio":1854,"tipo":"CAMINO","nombre":"CAMINO DE ARECO POR LA POSTA","origen":"MENSURA 6","km":0.0},"geometry":{"type":"LineString","coordinates":[[-59.377075,-34.368374],[-59.378093,-34.366422],[-59.379717,-34.362173],[-59.380138,-34.361196],[-59.381804,-34.359247],[-59.383707,-34.357202],[-59.387575,-34.352719],[-59.391734,-34.348776],[-59.393039,-34.347804],[-59.394342,-34.347027]]}},{"type":"Feature","properties":{"anio":1856,"tipo":"CAMINO","nombre":"CAMIINO DE MERCEDES A ZARATE","origen":"MENSURA 9","km":0.0},"geometry":{"type":"LineString","coordinates":[[-59.312821,-34.402165],[-59.312541,-34.40046],[-59.311515,-34.397637],[-59.310692,-34.395649],[-59.309546,-34.39213],[-59.308988,-34.388579],[-59.308379,-34.386107],[-59.307936,-34.383913],[-59.307949,-34.382278],[-59.307813,-34.378452]]}},{"type":"Feature","properties":{"anio":1856,"tipo":"CAMINO","nombre":"CAMINO DE S A DE ARECO A BA","origen":"MENSURA 9","km":0.0},"geometry":{"type":"LineString","coordinates":[[-59.315668,-34.397729],[-59.316489,-34.394778],[-59.317134,-34.392938],[-59.318155,-34.39117],[-59.319683,-34.389022],[-59.32159,-34.386598],[-59.326292,-34.38092],[-59.327693,-34.378841],[-59.329437,-34.375894]]}},{"type":"Feature","properties":{"anio":1840,"tipo":"CAMINO","nombre":"CAMINO DE LA POSTA","origen":"MENSURA 10","km":0.0},"geometry":{"type":"LineString","coordinates":[[-59.386403,-34.347779],[-59.387517,-34.345304],[-59.390492,-34.340606],[-59.391998,-34.339167],[-59.395614,-34.33534],[-59.398981,-34.331429],[-59.400385,-34.330196],[-59.403806,-34.325582],[-59.40481,-34.324512],[-59.406459,-34.323858],[-59.408261,-34.322792],[-59.411023,-34.319705],[-59.413484,-34.316864],[-59.417508,-34.311467]]}},{"type":"Feature","properties":{"anio":1856,"tipo":"CAMINO","nombre":"CAMINO A ARECO","origen":"MENSURA 10","km":0.0},"geometry":{"type":"LineString","coordinates":[[-59.379142,-34.331991],[-59.384185,-34.330735],[-59.38739,-34.328602],[-59.389145,-34.326998],[-59.390104,-34.32539],[-59.391915,-34.32296],[-59.394974,-34.320329],[-59.397833,-34.317656],[-59.400837,-34.315687],[-59.403791,-34.313675],[-59.407493,-34.311461],[-59.410849,-34.308955]]}},{"type":"Feature","properties":{"anio":1827,"tipo":"CAMINO","nombre":"CAMINO DE LAS GUARDIAS","origen":"MENSURA 13","km":0.0},"geometry":{"type":"LineString","coordinates":[[-59.765662,-34.416435],[-59.757219,-34.420505],[-59.751163,-34.423789],[-59.745587,-34.426415],[-59.741277,-34.430888],[-59.731878,-34.43456],[-59.727097,-34.436659],[-59.715455,-34.444279],[-59.708122,-34.447953],[-59.693606,-34.457015],[-59.685308,-34.462926],[-59.673821,-34.46962],[-59.662486,-34.477632],[-59.651628,-34.48538],[-59.644438,-34.491424],[-59.6251,-34.507319],[-59.617908,-34.512834]]}},{"type":"Feature","properties":{"anio":1827,"tipo":"CAMINO","nombre":"CAMINO SALTO Y ARECO A CIUDAD","origen":"MENSURA 13","km":0.0},"geometry":{"type":"LineString","coordinates":[[-59.727433,-34.38234],[-59.713909,-34.384287],[-59.703251,-34.385185],[-59.693699,-34.388062],[-59.686059,-34.389624],[-59.679848,-34.39185],[-59.669338,-34.395381],[-59.659778,-34.399442],[-59.648311,-34.40297],[-59.634453,-34.407675],[-59.621548,-34.412119],[-59.618999,-34.412902]]}},{"type":"Feature","properties":{"anio":1880,"tipo":"CAMINO","nombre":"CAMINO A LUJAN","origen":"MENSURA 109","km":0.0},"geometry":{"type":"LineString","coordinates":[[-59.392606,-34.51778],[-59.389056,-34.518464],[-59.385883,-34.519399],[-59.382212,-34.520849],[-59.379585,-34.521496],[-59.37627,-34.521967]]}},{"type":"Feature","properties":{"anio":1880,"tipo":"CAMINO","nombre":"CAMINO","origen":"MENSURA 109","km":0.0},"geometry":{"type":"LineString","coordinates":[[-59.386598,-34.520321],[-59.385168,-34.518707],[-59.384247,-34.515672],[-59.383104,-34.512821]]}},{"type":"Feature","properties":{"anio":1881,"tipo":"CAMINO","nombre":"CAMINO DEL C DE ARECO A GILES","origen":"MENSURA 111","km":0.0},"geometry":{"type":"LineString","coordinates":[[-59.625717,-34.427245],[-59.62477,-34.426993],[-59.624222,-34.426661],[-59.623825,-34.426122],[-59.623435,-34.425382],[-59.622633,-34.424794],[-59.621587,-34.424253],[-59.620191,-34.423877],[-59.618794,-34.423748],[-59.618196,-34.423415],[-59.617548,-34.423248],[-59.613403,-34.423524],[-59.611307,-34.423352],[-59.610061,-34.422893],[-59.608065,-34.422846],[-59.606016,-34.423294],[-59.602763,-34.424856],[-59.601362,-34.425596],[-59.600064,-34.42555],[-59.597715,-34.42608],[-59.59575,-34.426298],[-59.594368,-34.426524]]}},{"type":"Feature","properties":{"anio":1881,"tipo":"CAMINO","nombre":"CAMINO DEL C DE ARECO A GILES","origen":"MENSURA 111","km":0.0},"geometry":{"type":"LineString","coordinates":[[-59.604615,-34.423951],[-59.603267,-34.423906],[-59.601918,-34.42415],[-59.59997,-34.42435],[-59.596972,-34.424919],[-59.595024,-34.425161],[-59.593324,-34.425776]]}},{"type":"Feature","properties":{"anio":0,"tipo":"CAMINO","nombre":"CAMINO MERCEDES AL CARMEN","origen":"1880","km":0.0},"geometry":{"type":"LineString","coordinates":[[-59.557134,-34.543003],[-59.557502,-34.54023],[-59.55798,-34.538917],[-59.558635,-34.53741],[-59.558553,-34.535811],[-59.558827,-34.53449],[-59.560618,-34.533024],[-59.561607,-34.531531],[-59.562261,-34.53017],[-59.563031,-34.529102]]}},{"type":"Feature","properties":{"anio":1882,"tipo":"CAMINO","nombre":"CAMINO SAN ANTONIO A LUJAN","origen":"MENSURA 121","km":0.0},"geometry":{"type":"LineString","coordinates":[[-59.276219,-34.432973],[-59.274024,-34.43404],[-59.272863,-34.435367],[-59.270858,-34.436626],[-59.269315,-34.43776],[-59.265673,-34.442058],[-59.26443,-34.443957],[-59.260676,-34.447905],[-59.257861,-34.449666],[-59.254783,-34.450855],[-59.25048,-34.451845]]}},{"type":"Feature","properties":{"anio":1882,"tipo":"FERROCARRIL","nombre":"FERRO-CARRIL ARRECIFES A LUJAN","origen":"MENSURA 121","km":0.0},"geometry":{"type":"LineString","coordinates":[[-59.270176,-34.453393],[-59.247342,-34.468248]]}},{"type":"Feature","properties":{"anio":1882,"tipo":"FERROCARRIL","nombre":"FERRO-CARRIL ARRECIFES A LUJAN","origen":"MENSURA 122","km":0.0},"geometry":{"type":"LineString","coordinates":[[-59.361408,-34.379836],[-59.337212,-34.403552],[-59.308118,-34.424482]]}},{"type":"Feature","properties":{"anio":1882,"tipo":"CAMINO","nombre":"CAMINO DE GILES A CAPILLA D S","origen":"MENSURA 122","km":0.0},"geometry":{"type":"LineString","coordinates":[[-59.355106,-34.402292],[-59.35241,-34.400626],[-59.351279,-34.399507],[-59.349615,-34.398705],[-59.348158,-34.396457],[-59.347083,-34.395812],[-59.343405,-34.395623],[-59.341976,-34.395488],[-59.338204,-34.394324],[-59.336117,-34.393423]]}},{"type":"Feature","properties":{"anio":1882,"tipo":"CAMINO","nombre":"CAMINO A MERCEDES","origen":"MENSURA 125","km":0.0},"geometry":{"type":"LineString","coordinates":[[-59.6537,-34.53367],[-59.649951,-34.532722],[-59.646841,-34.531483],[-59.642628,-34.531382],[-59.637527,-34.532129],[-59.633809,-34.532323],[-59.624565,-34.533203],[-59.620307,-34.5353],[-59.609297,-34.54297],[-59.604824,-34.545329],[-59.592055,-34.549916]]}},{"type":"Feature","properties":{"anio":1883,"tipo":"CAMINO","nombre":"CAMINO A CHACABUCO","origen":"MENSURA 129","km":0.0},"geometry":{"type":"LineString","coordinates":[[-59.654483,-34.533935],[-59.651036,-34.534129],[-59.643309,-34.531924]]}},{"type":"Feature","properties":{"anio":1883,"tipo":"CAMINO","nombre":"CAMINO DE LAS PROVINCIAS A BA","origen":"MENSURA 133","km":0.0},"geometry":{"type":"LineString","coordinates":[[-59.351657,-34.32107],[-59.346193,-34.32206],[-59.33567,-34.32438],[-59.325145,-34.326926],[-59.31448,-34.329809],[-59.306142,-34.331687],[-59.301633,-34.332453]]}},{"type":"Feature","properties":{"anio":1884,"tipo":"CAMINO","nombre":"CAMINO SANTA FE A BA","origen":"MENSURA 135","km":0.0},"geometry":{"type":"LineString","coordinates":[[-59.306103,-34.329356],[-59.301612,-34.331127],[-59.296482,-34.332648],[-59.28317,-34.336],[-59.276119,-34.337672],[-59.271581,-34.338952]]}},{"type":"Feature","properties":{"anio":1884,"tipo":"FERROCARRIL","nombre":"F.C.T.","origen":"MENSURA 136","km":0.0},"geometry":{"type":"LineString","coordinates":[[-59.640158,-34.61137],[-59.635451,-34.61161],[-59.630465,-34.611781],[-59.623434,-34.611805]]}},{"type":"Feature","properties":{"anio":1884,"tipo":"CAMINO","nombre":"CAMINO A LUJAN","origen":"MENSURA 138","km":0.0},"geometry":{"type":"LineString","coordinates":[[-59.40195,-34.466821],[-59.39815,-34.472152],[-59.396953,-34.472769],[-59.394483,-34.476133],[-59.3912,-34.479181],[-59.389178,-34.481197],[-59.385765,-34.484764],[-59.382918,-34.488073],[-59.381649,-34.490092],[-59.375455,-34.496346],[-59.371855,-34.499495],[-59.366936,-34.502898],[-59.362703,-34.506823],[-59.357588,-34.511107],[-59.353418,-34.514877],[-59.350074,-34.517145]]}},{"type":"Feature","properties":{"anio":1885,"tipo":"CAMINO","nombre":"MERCEDES A SAN ANDRES DE GILES","origen":"MENSURA 139","km":0.0},"geometry":{"type":"LineString","coordinates":[[-59.427564,-34.544979],[-59.426894,-34.545653],[-59.426045,-34.546769],[-59.425886,-34.547236],[-59.425906,-34.547998],[-59.426255,-34.549291],[-59.426353,-34.549969],[-59.426422,-34.551091],[-59.426312,-34.552212],[-59.425609,-34.553966],[-59.425299,-34.554514]]}},{"type":"Feature","properties":{"anio":1885,"tipo":"FERROCARRIL","nombre":"F.C. A SAN NICOLAS","origen":"MENSURA 142","km":0.0},"geometry":{"type":"LineString","coordinates":[[-59.320487,-34.421962],[-59.309779,-34.428449]]}},{"type":"Feature","properties":{"anio":1886,"tipo":"CAMINO","nombre":"C A LA ESTACION AZCUENAGA","origen":"MENSURA 144","km":0.0},"geometry":{"type":"LineString","coordinates":[[-59.41826,-34.417711],[-59.417688,-34.416492],[-59.416516,-34.414579],[-59.415642,-34.413648],[-59.413792,-34.411928],[-59.413119,-34.411364],[-59.41174,-34.410066],[-59.410427,-34.408994],[-59.409287,-34.407473],[-59.408685,-34.40632],[-59.40812,-34.40483],[-59.407653,-34.403874]]}},{"type":"Feature","properties":{"anio":1886,"tipo":"CAMINO","nombre":"C A LA CAPILLA DEL SEÑOR","origen":"MENSURA 144","km":0.0},"geometry":{"type":"LineString","coordinates":[[-59.393583,-34.420893],[-59.38933,-34.419048],[-59.387205,-34.417971],[-59.3812,-34.415106]]}},{"type":"Feature","properties":{"anio":1886,"tipo":"CAMINO","nombre":"CAMINO VECINAL","origen":"MENSURA 145","km":0.0},"geometry":{"type":"LineString","coordinates":[[-59.474462,-34.485364],[-59.473267,-34.485359],[-59.47233,-34.484976],[-59.471648,-34.484257],[-59.471061,-34.483209],[-59.470544,-34.481959],[-59.469921,-34.48002],[-59.46927,-34.47846],[-59.468265,-34.476646],[-59.467132,-34.475126],[-59.466227,-34.47348],[-59.464844,-34.471202],[-59.463409,-34.469217],[-59.460868,-34.465271],[-59.460041,-34.463457],[-59.455459,-34.456955],[-59.454378,-34.455204],[-59.453496,-34.454043],[-59.452485,-34.453281],[-59.451833,-34.451931],[-59.450936,-34.449338],[-59.45074,-34.448159]]}},{"type":"Feature","properties":{"anio":1886,"tipo":"CAMINO","nombre":"CAMINO MERCEDES A GILES","origen":"MENSURA 145","km":0.0},"geometry":{"type":"LineString","coordinates":[[-59.441743,-34.488574],[-59.442425,-34.482713],[-59.442827,-34.47831],[-59.443327,-34.474552],[-59.443746,-34.472646],[-59.444028,-34.471048],[-59.444755,-34.468695],[-59.445115,-34.465497],[-59.445231,-34.463309],[-59.444837,-34.4614],[-59.444677,-34.459912],[-59.443875,-34.458281],[-59.441627,-34.4551],[-59.440655,-34.453552]]}},{"type":"Feature","properties":{"anio":1886,"tipo":"TELÉGRAFO","nombre":"TELÉGRAFO","origen":"MENSURA 145","km":0.0},"geometry":{"type":"LineString","coordinates":[[-59.463581,-34.493002],[-59.466937,-34.480833],[-59.456274,-34.465617]]}},{"type":"Feature","properties":{"anio":1886,"tipo":"CAMINO","nombre":"CAMINO A CAPILLA DEL SEÑOR","origen":"MENSURA 146","km":0.0},"geometry":{"type":"LineString","coordinates":[[-59.372509,-34.410134],[-59.371026,-34.409266],[-59.369315,-34.408659],[-59.367651,-34.407864],[-59.366438,-34.407072],[-59.364639,-34.406165],[-59.362928,-34.40567],[-59.361332,-34.405357],[-59.360093,-34.40457],[-59.357618,-34.403547]]}},{"type":"Feature","properties":{"anio":0,"tipo":"CAMINO","nombre":"CAMINO A CAPILLA DEL SEÑOR","origen":"MENSURA 147","km":0.0},"geometry":{"type":"LineString","coordinates":[[-59.36832,-34.402401],[-59.36574,-34.40139],[-59.361662,-34.399523]]}},{"type":"Feature","properties":{"anio":1885,"tipo":"CAMINO","nombre":"CAMINO DE CAPILLA A LA EST ZAR","origen":"MENSURA 151","km":0.0},"geometry":{"type":"LineString","coordinates":[[-59.208389,-34.360152],[-59.208924,-34.360166],[-59.209265,-34.360319],[-59.209496,-34.360536],[-59.210037,-34.361292],[-59.21036,-34.361631],[-59.210721,-34.361845],[-59.211881,-34.36232],[-59.212294,-34.362546],[-59.21282,-34.362957],[-59.213853,-34.363924],[-59.214498,-34.364366],[-59.215673,-34.364888],[-59.218009,-34.365607],[-59.219005,-34.365968],[-59.220866,-34.366893],[-59.222004,-34.367594],[-59.222798,-34.368276],[-59.224105,-34.369762],[-59.224668,-34.370304],[-59.225207,-34.370685],[-59.226477,-34.371398],[-59.226972,-34.371793],[-59.227245,-34.372172],[-59.227599,-34.372963],[-59.227899,-34.373372],[-59.228405,-34.37386],[-59.229577,-34.374812],[-59.230108,-34.375364],[-59.230516,-34.376019],[-59.231152,-34.377406],[-59.231464,-34.37794],[-59.232073,-34.37865],[-59.23281,-34.379318],[-59.233253,-34.37963],[-59.233694,-34.37986],[-59.235577,-34.380545],[-59.236829,-34.381172],[-59.238381,-34.382171],[-59.241558,-34.384538],[-59.242947,-34.385449],[-59.244642,-34.386358],[-59.248435,-34.388195],[-59.251199,-34.389759],[-59.252517,-34.390667],[-59.253291,-34.391371],[-59.253893,-34.392016]]}},{"type":"Feature","properties":{"anio":1885,"tipo":"CAMINO","nombre":"CAMINO DE CAPILLA A STA. FE","origen":"MENSURA 151","km":0.0},"geometry":{"type":"LineString","coordinates":[[-59.221327,-34.366818],[-59.223013,-34.366697],[-59.224843,-34.366424],[-59.226547,-34.36602],[-59.228257,-34.365503],[-59.229728,-34.36497],[-59.231644,-34.364146],[-59.233697,-34.363125],[-59.235756,-34.36198],[-59.23743,-34.360929],[-59.238646,-34.360058],[-59.239056,-34.359697],[-59.24,-34.358711],[-59.240463,-34.358333],[-59.240965,-34.358069],[-59.241898,-34.357827],[-59.242186,-34.357699],[-59.24254,-34.357434],[-59.243283,-34.35662],[-59.243737,-34.356245],[-59.244091,-34.356079],[-59.245336,-34.355668],[-59.246427,-34.355027],[-59.2479,-34.353973],[-59.250607,-34.351692],[-59.251978,-34.350756],[-59.253138,-34.350088],[-59.254539,-34.349377],[-59.258687,-34.347493],[-59.260458,-34.346638],[-59.261562,-34.34604],[-59.262831,-34.345252],[-59.264963,-34.343669],[-59.266259,-34.342557],[-59.266852,-34.341932],[-59.268274,-34.340135],[-59.269776,-34.338683],[-59.271317,-34.337459],[-59.272314,-34.336776],[-59.273365,-34.336131]]}},{"type":"Feature","properties":{"anio":1890,"tipo":"CAMINO","nombre":"CAMINO A LA CAPILLA DEL SEÑOR","origen":"MENSURA 154","km":0.0},"geometry":{"type":"LineString","coordinates":[[-59.371877,-34.409046],[-59.3717,-34.409061],[-59.371417,-34.408909],[-59.370912,-34.408888],[-59.370258,-34.408717],[-59.369559,-34.408683],[-59.369207,-34.408625],[-59.368016,-34.408265],[-59.367557,-34.40807],[-59.366806,-34.407615],[-59.366224,-34.407358],[-59.364776,-34.406816],[-59.362817,-34.406165],[-59.36143,-34.405507],[-59.360207,-34.405092],[-59.359547,-34.404719],[-59.358835,-34.404562],[-59.358193,-34.404268],[-59.357802,-34.404203]]}},{"type":"Feature","properties":{"anio":1891,"tipo":"CAMINO","nombre":"CAMINO DE MERCEDES A GILES","origen":"MENSURA 158","km":0.0},"geometry":{"type":"LineString","coordinates":[[-59.426874,-34.545891],[-59.426936,-34.546218],[-59.426725,-34.546665],[-59.426674,-34.547373],[-59.426337,-34.548365],[-59.426349,-34.549568],[-59.426294,-34.55032],[-59.425999,-34.551167],[-59.425838,-34.551942],[-59.4258,-34.552736],[-59.425885,-34.553548]]}},{"type":"Feature","properties":{"anio":1891,"tipo":"CAMINO","nombre":"CAMINO AL CARMEN DE ARECO","origen":"MENSURA 159","km":0.0},"geometry":{"type":"LineString","coordinates":[[-59.474206,-34.485152],[-59.475045,-34.484814],[-59.475728,-34.484652],[-59.476309,-34.484629],[-59.477759,-34.484693],[-59.478358,-34.484638],[-59.478872,-34.48448],[-59.479997,-34.483988],[-59.480941,-34.483802],[-59.483445,-34.483536],[-59.485338,-34.48339],[-59.49145,-34.48313],[-59.496483,-34.483107],[-59.502206,-34.483296],[-59.507335,-34.483643],[-59.510218,-34.483914],[-59.513097,-34.48424]]}},{"type":"Feature","properties":{"anio":1891,"tipo":"CAMINO","nombre":"CAMINO DE AZCUENAGA A CARLOS","origen":"MENSURA 160","km":0.0},"geometry":{"type":"LineString","coordinates":[[-59.299987,-34.416554],[-59.299121,-34.416752],[-59.298274,-34.417028],[-59.296496,-34.417869],[-59.295101,-34.418753],[-59.292342,-34.420876],[-59.291179,-34.421656],[-59.28972,-34.422417],[-59.286541,-34.423826],[-59.285419,-34.424432],[-59.284076,-34.425355],[-59.282743,-34.426423],[-59.282259,-34.426856],[-59.281376,-34.427845],[-59.280893,-34.428282],[-59.28054,-34.428498],[-59.27962,-34.428836],[-59.279303,-34.429015],[-59.279002,-34.429362],[-59.278476,-34.430377],[-59.278215,-34.430671],[-59.277178,-34.431615],[-59.276397,-34.432836],[-59.275014,-34.434035],[-59.274741,-34.434397],[-59.274331,-34.435106],[-59.274066,-34.435424],[-59.273319,-34.435917],[-59.273075,-34.436127],[-59.272395,-34.437262],[-59.271493,-34.437922],[-59.271332,-34.438229],[-59.271157,-34.438924],[-59.270918,-34.439405],[-59.270463,-34.44006],[-59.269853,-34.44074],[-59.268143,-34.442322],[-59.267598,-34.442719],[-59.267043,-34.442986],[-59.266437,-34.443181],[-59.265781,-34.443306],[-59.265073,-34.44336]]}},{"type":"Feature","properties":{"anio":1891,"tipo":"CAMINO","nombre":"CAMINO DE AZCUENAGA A CARLOS","origen":"MENSURA 160","km":0.0},"geometry":{"type":"LineString","coordinates":[[-59.271416,-34.438106],[-59.270728,-34.438548],[-59.270068,-34.438818],[-59.269125,-34.439087],[-59.268096,-34.439249]]}},{"type":"Feature","properties":{"anio":1891,"tipo":"TRANWAY","nombre":"TRANWAY RURAL","origen":"MENSURA 160","km":0.0},"geometry":{"type":"LineString","coordinates":[[-59.269556,-34.436873],[-59.281213,-34.432827],[-59.281908,-34.432682],[-59.283095,-34.432578],[-59.283812,-34.432599],[-59.284521,-34.432683],[-59.285443,-34.43289],[-59.28797,-34.433672]]}},{"type":"Feature","properties":{"anio":1891,"tipo":"FERROCARRIL","nombre":"ZONA ALAMB. F.C. CENTRAL ARG.","origen":"MENSURA 160","km":0.0},"geometry":{"type":"LineString","coordinates":[[-59.252266,-34.464723],[-59.280306,-34.445429]]}},{"type":"Feature","properties":{"anio":1891,"tipo":"CAMINO","nombre":"CAMINO ZARATE AZCUENAGA","origen":"MENSURA 162","km":0.0},"geometry":{"type":"LineString","coordinates":[[-59.338674,-34.306777],[-59.32143,-34.297982]]}},{"type":"Feature","properties":{"anio":1892,"tipo":"CAMINO","nombre":"CAMINO GRAL DE GILES A LUJAN","origen":"MENSURA 164","km":0.0},"geometry":{"type":"LineString","coordinates":[[-59.381067,-34.480784],[-59.380883,-34.480668],[-59.380452,-34.480904],[-59.379431,-34.48099],[-59.378903,-34.481164],[-59.378314,-34.481439],[-59.377472,-34.481888],[-59.376939,-34.482229],[-59.375659,-34.483438],[-59.375118,-34.483831],[-59.374497,-34.484134],[-59.372931,-34.484776],[-59.372461,-34.485055],[-59.371959,-34.48546],[-59.371647,-34.485628],[-59.371257,-34.485754],[-59.370069,-34.486],[-59.369534,-34.486199],[-59.369081,-34.486497],[-59.368242,-34.487202],[-59.367726,-34.487567],[-59.366954,-34.48806],[-59.366251,-34.488422],[-59.365043,-34.48886],[-59.363358,-34.489323],[-59.361866,-34.489584],[-59.35999,-34.489716],[-59.359369,-34.489876],[-59.35841,-34.4902],[-59.357441,-34.490583],[-59.356311,-34.491134],[-59.355292,-34.491752],[-59.3543,-34.492479],[-59.353668,-34.492835],[-59.352808,-34.493197],[-59.351677,-34.493511]]}},{"type":"Feature","properties":{"anio":1892,"tipo":"CAMINO","nombre":"CAMINO DE MERCEDES","origen":"MENSURA 164","km":0.0},"geometry":{"type":"LineString","coordinates":[[-59.376977,-34.496326],[-59.376538,-34.496156],[-59.376118,-34.495606],[-59.375763,-34.495337],[-59.374321,-34.494633],[-59.373257,-34.493876],[-59.37207,-34.493319],[-59.370589,-34.49237],[-59.368776,-34.491512],[-59.367341,-34.490552],[-59.366317,-34.490079],[-59.364789,-34.489694],[-59.363895,-34.489211]]}},{"type":"Feature","properties":{"anio":1892,"tipo":"CAMINO","nombre":"CAMINO A ARECO","origen":"MENSURA 164","km":0.0},"geometry":{"type":"LineString","coordinates":[[-59.369778,-34.486127],[-59.36932,-34.486142],[-59.368799,-34.486046],[-59.368636,-34.485964],[-59.368408,-34.485743],[-59.367803,-34.485679],[-59.367545,-34.485598],[-59.365946,-34.484798],[-59.364893,-34.484417],[-59.36373,-34.484204],[-59.362498,-34.48417],[-59.361792,-34.484001],[-59.360787,-34.483532],[-59.360237,-34.483174],[-59.359923,-34.482904],[-59.359559,-34.482495],[-59.359391,-34.482224],[-59.359279,-34.481903],[-59.359236,-34.481525],[-59.359309,-34.481101],[-59.35983,-34.4802],[-59.359954,-34.479802],[-59.36001,-34.479035],[-59.359899,-34.477847],[-59.359696,-34.476997],[-59.359469,-34.476368],[-59.359065,-34.475542],[-59.358688,-34.474931]]}},{"type":"Feature","properties":{"anio":1892,"tipo":"CAMINO","nombre":"CAMINO","origen":"MENSURA 164","km":0.0},"geometry":{"type":"LineString","coordinates":[[-59.362476,-34.484181],[-59.361487,-34.484122],[-59.360519,-34.48398],[-59.359603,-34.483768],[-59.358663,-34.483464],[-59.358106,-34.483213],[-59.357649,-34.482853],[-59.356774,-34.482418],[-59.356357,-34.482098]]}},{"type":"Feature","properties":{"anio":1893,"tipo":"CAMINO","nombre":"CAMINO DE GILES A LA CAPILLA","origen":"MENSURA 165","km":0.0},"geometry":{"type":"LineString","coordinates":[[-59.329937,-34.389804],[-59.329485,-34.389648],[-59.329077,-34.389442],[-59.328065,-34.388633],[-59.327175,-34.388164],[-59.326378,-34.387858],[-59.324266,-34.38719],[-59.323366,-34.386852],[-59.322672,-34.386514],[-59.321338,-34.385762],[-59.320268,-34.385284],[-59.316032,-34.383824],[-59.314793,-34.383277],[-59.312193,-34.382006],[-59.310944,-34.381459],[-59.30933,-34.380919],[-59.306768,-34.380315],[-59.305718,-34.380023],[-59.303269,-34.379101]]}},{"type":"Feature","properties":{"anio":1893,"tipo":"CAMINO","nombre":"CAMINO DE SAN ANTONIO A LUJAN","origen":"MENSURA 165","km":0.0},"geometry":{"type":"LineString","coordinates":[[-59.333754,-34.36923],[-59.333245,-34.369731],[-59.332967,-34.370179],[-59.332822,-34.370656],[-59.332788,-34.371408],[-59.332521,-34.372013],[-59.33211,-34.372529],[-59.330934,-34.373699],[-59.330535,-34.374201],[-59.330121,-34.374962],[-59.329336,-34.376684],[-59.328742,-34.377633],[-59.328087,-34.378435],[-59.32605,-34.380677],[-59.324764,-34.382476],[-59.324251,-34.3833],[-59.323855,-34.384059],[-59.323508,-34.385304],[-59.323285,-34.385794],[-59.323006,-34.38609],[-59.322223,-34.386625],[-59.321733,-34.387227],[-59.320599,-34.389097],[-59.319011,-34.392273],[-59.318148,-34.393746],[-59.317663,-34.394405],[-59.317215,-34.394919],[-59.315476,-34.39642],[-59.314946,-34.396999],[-59.314609,-34.3976],[-59.314107,-34.398929],[-59.313788,-34.399417],[-59.313215,-34.399901],[-59.31186,-34.400747],[-59.311402,-34.401162],[-59.311068,-34.401711],[-59.310696,-34.402721],[-59.310443,-34.403252],[-59.310072,-34.403713],[-59.309535,-34.404204]]}},{"type":"Feature","properties":{"anio":1894,"tipo":"CAMINO","nombre":"CAMINO VIEJO DE MERCEDES C.A.","origen":"MENSURA 166","km":0.0},"geometry":{"type":"LineString","coordinates":[[-59.752464,-34.441391],[-59.751106,-34.441928],[-59.750498,-34.442255],[-59.749761,-34.442754],[-59.749133,-34.443306],[-59.748301,-34.444389],[-59.747944,-34.444656],[-59.747098,-34.445101],[-59.746653,-34.445428],[-59.746233,-34.44583],[-59.745189,-34.446989],[-59.744587,-34.447505],[-59.744172,-34.447753],[-59.743088,-34.448238],[-59.742542,-34.448542],[-59.741605,-34.449215],[-59.740091,-34.450495],[-59.739392,-34.451023],[-59.738564,-34.45153],[-59.736476,-34.452624],[-59.735497,-34.453266],[-59.734979,-34.453733],[-59.733905,-34.455011],[-59.732669,-34.455998],[-59.732211,-34.456417],[-59.731867,-34.456844],[-59.731078,-34.458018],[-59.730436,-34.458701],[-59.729874,-34.459203],[-59.72902,-34.459861],[-59.728048,-34.460501],[-59.727454,-34.460842],[-59.725901,-34.461597],[-59.724466,-34.462473],[-59.723214,-34.463378],[-59.721813,-34.46458]]}},{"type":"Feature","properties":{"anio":1894,"tipo":"CAMINO","nombre":"CAMINO NUEVO MERCEDES A C.A.","origen":"MENSURA 166","km":0.0},"geometry":{"type":"LineString","coordinates":[[-59.746392,-34.441429],[-59.725542,-34.457412],[-59.723458,-34.460899]]}},{"type":"Feature","properties":{"anio":1894,"tipo":"TELÉGRAFO","nombre":"TELEGRAFO","origen":"MENSURA 166","km":0.0},"geometry":{"type":"LineString","coordinates":[[-59.745475,-34.431662],[-59.707393,-34.456096]]}},{"type":"Feature","properties":{"anio":1896,"tipo":"TRANWAY","nombre":"TRANWAY RURAL","origen":"MENSURA 171","km":0.0},"geometry":{"type":"LineString","coordinates":[[-59.605137,-34.433412],[-59.571683,-34.434301]]}},{"type":"Feature","properties":{"anio":1896,"tipo":"CAMINO","nombre":"CAMINO DE GILES AL C.A.","origen":"MENSURA 171","km":0.0},"geometry":{"type":"LineString","coordinates":[[-59.595184,-34.426646],[-59.581287,-34.428298]]}},{"type":"Feature","properties":{"anio":1896,"tipo":"TRANWAY","nombre":"TRANWAY RURAL","origen":"MENSURA 172","km":0.0},"geometry":{"type":"LineString","coordinates":[[-59.256494,-34.432509],[-59.226967,-34.438097]]}},{"type":"Feature","properties":{"anio":1899,"tipo":"CAMINO","nombre":"CAMINO DE GILES A S. A. DE A.","origen":"MENSURA 180","km":0.0},"geometry":{"type":"LineString","coordinates":[[-59.44969,-34.425487],[-59.447525,-34.422043],[-59.451833,-34.405891]]}},{"type":"Feature","properties":{"anio":1899,"tipo":"CAMINO","nombre":"CAMINO DE MERCEDES A C.A.","origen":"MENSURA 181","km":0.0},"geometry":{"type":"LineString","coordinates":[[-59.66217,-34.480459],[-59.688889,-34.459809]]}},{"type":"Feature","properties":{"anio":1899,"tipo":"CAMINO","nombre":"CAMINO NUEVO","origen":"MENSURA 182","km":0.0},"geometry":{"type":"LineString","coordinates":[[-59.318187,-34.294371],[-59.326408,-34.295102],[-59.326295,-34.295787],[-59.392876,-34.277627]]}},{"type":"Feature","properties":{"anio":1899,"tipo":"CAMINO","nombre":"CAMINO DE GILES A ZARATE","origen":"MENSURA 182","km":0.0},"geometry":{"type":"LineString","coordinates":[[-59.327507,-34.302626],[-59.317434,-34.294385],[-59.311407,-34.289199]]}},{"type":"Feature","properties":{"anio":1899,"tipo":"FERROCARRIL","nombre":"FERROCARRIL CENTRAL ARGENTINO","origen":"MENSURA 182","km":0.0},"geometry":{"type":"LineString","coordinates":[[-59.31722,-34.295242],[-59.34231,-34.297325]]}},{"type":"Feature","properties":{"anio":1899,"tipo":"FERROCARRIL","nombre":"FERROCARRIL CENTRAL ARGENTINO","origen":"MENSURA 183","km":0.0},"geometry":{"type":"LineString","coordinates":[[-59.383091,-34.302261],[-59.411971,-34.302904]]}},{"type":"Feature","properties":{"anio":1902,"tipo":"CAMINO","nombre":"CAMINO VECINAL","origen":"MENSURA 185","km":0.0},"geometry":{"type":"LineString","coordinates":[[-59.548645,-34.492429],[-59.530296,-34.489677]]}},{"type":"Feature","properties":{"anio":1903,"tipo":"TELÉGRAFO","nombre":"TELEGRAFO DE GILES A MERCEDES","origen":"MENSURA 187","km":0.0},"geometry":{"type":"LineString","coordinates":[[-59.462979,-34.490869],[-59.459783,-34.503963],[-59.455957,-34.518256]]}},{"type":"Feature","properties":{"anio":1903,"tipo":"TELÉGRAFO","nombre":"TELEGRAFO DE GILES A MERCEDES","origen":"MENSURA 188","km":0.0},"geometry":{"type":"LineString","coordinates":[[-59.454399,-34.522915],[-59.441544,-34.56304]]}},{"type":"Feature","properties":{"anio":1923,"tipo":"CAMINO","nombre":"CAMINO A S.A. DE GILES Y AZC.","origen":"MENSURA 189","km":0.0},"geometry":{"type":"LineString","coordinates":[[-59.37328,-34.334241],[-59.376883,-34.332141],[-59.384016,-34.328628],[-59.389898,-34.326368],[-59.394075,-34.321122],[-59.395932,-34.321933],[-59.418065,-34.304008],[-59.42462,-34.303696],[-59.428797,-34.298105]]}},{"type":"Feature","properties":{"anio":1923,"tipo":"CAMINO","nombre":"CAMINO (POSTA FIGUEROA)","origen":"MENSURA 189","km":0.0},"geometry":{"type":"LineString","coordinates":[[-59.408163,-34.328483],[-59.407443,-34.328992],[-59.406692,-34.329292],[-59.404659,-34.329693],[-59.404075,-34.329727],[-59.403687,-34.329684],[-59.403419,-34.329596],[-59.403177,-34.329454],[-59.40213,-34.328509],[-59.401379,-34.328088],[-59.400899,-34.327942],[-59.400022,-34.327919],[-59.39968,-34.327869],[-59.399168,-34.327686],[-59.398445,-34.327345],[-59.397426,-34.326676],[-59.396658,-34.325965]]}},{"type":"Feature","properties":{"anio":1923,"tipo":"FERROCARRIL","nombre":"F.C.C.A.","origen":"MENSURA 189","km":0.0},"geometry":{"type":"LineString","coordinates":[[-59.416725,-34.327608],[-59.446435,-34.300326]]}},{"type":"Feature","properties":{"anio":1923,"tipo":"FERROCARRIL","nombre":"F.C.C.A.","origen":"MENSURA 189","km":0.0},"geometry":{"type":"LineString","coordinates":[[-59.401024,-34.301966],[-59.431003,-34.305829],[-59.432038,-34.306028],[-59.433439,-34.306196],[-59.435208,-34.306249],[-59.436268,-34.306198],[-59.437321,-34.306084],[-59.438361,-34.305908],[-59.439384,-34.305671],[-59.440384,-34.305374],[-59.441356,-34.305018]]}},{"type":"Feature","properties":{"anio":1829,"tipo":"CAMINO","nombre":"CAMINO DE ARECO","origen":"MENSURA 190","km":0.0},"geometry":{"type":"LineString","coordinates":[[-59.567791,-34.548588],[-59.538259,-34.572092]]}}]}