<?xml version="1.0" encoding="UTF-8"?>
<kml xmlns="http://www.opengis.net/kml/2.2"><Document><name>Estancias, puestos, postas y pulperías de 1884</name>
<Style id="s"><LineStyle><color>ff794e1f</color><width>1.5</width></LineStyle><PolyStyle><color>33794e1f</color></PolyStyle></Style>
<Placemark><name>Estancia de Doulon</name><styleUrl>#s</styleUrl><ExtendedData><Data name="nombre"><value>Estancia de Doulon</value></Data><Data name="tipo"><value>Estancia</value></Data></ExtendedData><Point><coordinates>-59.721486,-34.477671</coordinates></Point></Placemark>
<Placemark><name>Estancia de Alfonsin</name><styleUrl>#s</styleUrl><ExtendedData><Data name="nombre"><value>Estancia de Alfonsin</value></Data><Data name="tipo"><value>Estancia</value></Data></ExtendedData><Point><coordinates>-59.746814,-34.513962</coordinates></Point></Placemark>
<Placemark><name>Estancia de San Ramon</name><styleUrl>#s</styleUrl><ExtendedData><Data name="nombre"><value>Estancia de San Ramon</value></Data><Data name="tipo"><value>Estancia</value></Data></ExtendedData><Point><coordinates>-59.720318,-34.515641</coordinates></Point></Placemark>
<Placemark><name>Cañon</name><styleUrl>#s</styleUrl><ExtendedData><Data name="nombre"><value>Cañon</value></Data><Data name="tipo"><value>Cañon</value></Data></ExtendedData><Point><coordinates>-59.695486,-34.492351</coordinates></Point></Placemark>
<Placemark><name>Estancia de Casado</name><styleUrl>#s</styleUrl><ExtendedData><Data name="nombre"><value>Estancia de Casado</value></Data><Data name="tipo"><value>Estancia</value></Data></ExtendedData><Point><coordinates>-59.696553,-34.523509</coordinates></Point></Placemark>
<Placemark><name>Puesto de Casado</name><styleUrl>#s</styleUrl><ExtendedData><Data name="nombre"><value>Puesto de Casado</value></Data><Data name="tipo"><value>Puesto</value></Data></ExtendedData><Point><coordinates>-59.675375,-34.505652</coordinates></Point></Placemark>
<Placemark><name>Puesto de Costa</name><styleUrl>#s</styleUrl><ExtendedData><Data name="nombre"><value>Puesto de Costa</value></Data><Data name="tipo"><value>Puesto</value></Data></ExtendedData><Point><coordinates>-59.678297,-34.563952</coordinates></Point></Placemark>
<Placemark><name>Puesto de LIma</name><styleUrl>#s</styleUrl><ExtendedData><Data name="nombre"><value>Puesto de LIma</value></Data><Data name="tipo"><value>Puesto</value></Data></ExtendedData><Point><coordinates>-59.664738,-34.574771</coordinates></Point></Placemark>
<Placemark><name>Estancia de Lima</name><styleUrl>#s</styleUrl><ExtendedData><Data name="nombre"><value>Estancia de Lima</value></Data><Data name="tipo"><value>Estancia</value></Data></ExtendedData><Point><coordinates>-59.628147,-34.539928</coordinates></Point></Placemark>
<Placemark><name>Azotea de Bernal</name><styleUrl>#s</styleUrl><ExtendedData><Data name="nombre"><value>Azotea de Bernal</value></Data><Data name="tipo"><value>Azotea</value></Data></ExtendedData><Point><coordinates>-59.576636,-34.531402</coordinates></Point></Placemark>
<Placemark><name>Estancia de Echeverria</name><styleUrl>#s</styleUrl><ExtendedData><Data name="nombre"><value>Estancia de Echeverria</value></Data><Data name="tipo"><value>Estancia</value></Data></ExtendedData><Point><coordinates>-59.629457,-34.510840</coordinates></Point></Placemark>
<Placemark><name>Estancia de Casado</name><styleUrl>#s</styleUrl><ExtendedData><Data name="nombre"><value>Estancia de Casado</value></Data><Data name="tipo"><value>Estancia</value></Data></ExtendedData><Point><coordinates>-59.652586,-34.498967</coordinates></Point></Placemark>
<Placemark><name>Estancia de Carry</name><styleUrl>#s</styleUrl><ExtendedData><Data name="nombre"><value>Estancia de Carry</value></Data><Data name="tipo"><value>Estancia</value></Data></ExtendedData><Point><coordinates>-59.594890,-34.499767</coordinates></Point></Placemark>
<Placemark><name>Estancia de Acuña</name><styleUrl>#s</styleUrl><ExtendedData><Data name="nombre"><value>Estancia de Acuña</value></Data><Data name="tipo"><value>Estancia</value></Data></ExtendedData><Point><coordinates>-59.573868,-34.508379</coordinates></Point></Placemark>
<Placemark><name>Estancia de Kelly</name><styleUrl>#s</styleUrl><ExtendedData><Data name="nombre"><value>Estancia de Kelly</value></Data><Data name="tipo"><value>Estancia</value></Data></ExtendedData><Point><coordinates>-59.559646,-34.519727</coordinates></Point></Placemark>
<Placemark><name>Estancia de Bianchi</name><styleUrl>#s</styleUrl><ExtendedData><Data name="nombre"><value>Estancia de Bianchi</value></Data><Data name="tipo"><value>Estancia</value></Data></ExtendedData><Point><coordinates>-59.564019,-34.536243</coordinates></Point></Placemark>
<Placemark><name>Graseria</name><styleUrl>#s</styleUrl><ExtendedData><Data name="nombre"><value>Graseria</value></Data><Data name="tipo"><value>Graseria</value></Data></ExtendedData><Point><coordinates>-59.560731,-34.537859</coordinates></Point></Placemark>
<Placemark><name>Pulperia</name><styleUrl>#s</styleUrl><ExtendedData><Data name="nombre"><value>Pulperia</value></Data><Data name="tipo"><value>Pulperia</value></Data></ExtendedData><Point><coordinates>-59.557652,-34.540155</coordinates></Point></Placemark>
<Placemark><name>Población de Jose Monsalvo</name><styleUrl>#s</styleUrl><ExtendedData><Data name="nombre"><value>Población de Jose Monsalvo</value></Data><Data name="tipo"><value>Población</value></Data></ExtendedData><Point><coordinates>-59.543453,-34.511001</coordinates></Point></Placemark>
<Placemark><name>Casa de Ciriaco Monsalvo</name><styleUrl>#s</styleUrl><ExtendedData><Data name="nombre"><value>Casa de Ciriaco Monsalvo</value></Data><Data name="tipo"><value>Casa</value></Data></ExtendedData><Point><coordinates>-59.565750,-34.493280</coordinates></Point></Placemark>
<Placemark><name>Estancia de Crecencio Monsalvo</name><styleUrl>#s</styleUrl><ExtendedData><Data name="nombre"><value>Estancia de Crecencio Monsalvo</value></Data><Data name="tipo"><value>Estancia</value></Data></ExtendedData><Point><coordinates>-59.540100,-34.484647</coordinates></Point></Placemark>
<Placemark><name>Monte de Avila</name><styleUrl>#s</styleUrl><ExtendedData><Data name="nombre"><value>Monte de Avila</value></Data><Data name="tipo"><value>Monte</value></Data></ExtendedData><Point><coordinates>-59.538859,-34.569592</coordinates></Point></Placemark>
<Placemark><name>Estancia de Bustos</name><styleUrl>#s</styleUrl><ExtendedData><Data name="nombre"><value>Estancia de Bustos</value></Data><Data name="tipo"><value>Estancia</value></Data></ExtendedData><Point><coordinates>-59.586387,-34.440913</coordinates></Point></Placemark>
<Placemark><name>Estancia de Maxwell</name><styleUrl>#s</styleUrl><ExtendedData><Data name="nombre"><value>Estancia de Maxwell</value></Data><Data name="tipo"><value>Estancia</value></Data></ExtendedData><Point><coordinates>-59.603135,-34.445794</coordinates></Point></Placemark>
<Placemark><name>Población de Mariano Alegre</name><styleUrl>#s</styleUrl><ExtendedData><Data name="nombre"><value>Población de Mariano Alegre</value></Data><Data name="tipo"><value>Población</value></Data></ExtendedData><Point><coordinates>-59.614711,-34.461462</coordinates></Point></Placemark>
<Placemark><name>Población de Rodriguez</name><styleUrl>#s</styleUrl><ExtendedData><Data name="nombre"><value>Población de Rodriguez</value></Data><Data name="tipo"><value>Población</value></Data></ExtendedData><Point><coordinates>-59.610908,-34.427292</coordinates></Point></Placemark>
<Placemark><name>Estancia de Sala</name><styleUrl>#s</styleUrl><ExtendedData><Data name="nombre"><value>Estancia de Sala</value></Data><Data name="tipo"><value>Estancia</value></Data></ExtendedData><Point><coordinates>-59.628144,-34.427153</coordinates></Point></Placemark>
<Placemark><name>Población de Emilio Gutierrez</name><styleUrl>#s</styleUrl><ExtendedData><Data name="nombre"><value>Población de Emilio Gutierrez</value></Data><Data name="tipo"><value>Población</value></Data></ExtendedData><Point><coordinates>-59.675257,-34.409532</coordinates></Point></Placemark>
<Placemark><name>Estancia de Potes</name><styleUrl>#s</styleUrl><ExtendedData><Data name="nombre"><value>Estancia de Potes</value></Data><Data name="tipo"><value>Estancia</value></Data></ExtendedData><Point><coordinates>-59.667320,-34.414721</coordinates></Point></Placemark>
<Placemark><name>Población de Mansilla</name><styleUrl>#s</styleUrl><ExtendedData><Data name="nombre"><value>Población de Mansilla</value></Data><Data name="tipo"><value>Población</value></Data></ExtendedData><Point><coordinates>-59.681206,-34.437145</coordinates></Point></Placemark>
<Placemark><name>Estancia de Caprile y Picasso</name><styleUrl>#s</styleUrl><ExtendedData><Data name="nombre"><value>Estancia de Caprile y Picasso</value></Data><Data name="tipo"><value>Estancia</value></Data></ExtendedData><Point><coordinates>-59.667624,-34.455442</coordinates></Point></Placemark>
<Placemark><name>Casa del Finado Anastasio Gaute</name><styleUrl>#s</styleUrl><ExtendedData><Data name="nombre"><value>Casa del Finado Anastasio Gaute</value></Data><Data name="tipo"><value>Casa</value></Data></ExtendedData><Point><coordinates>-59.565661,-34.437891</coordinates></Point></Placemark>
<Placemark><name>Casa de Juan Escobar</name><styleUrl>#s</styleUrl><ExtendedData><Data name="nombre"><value>Casa de Juan Escobar</value></Data><Data name="tipo"><value>Casa</value></Data></ExtendedData><Point><coordinates>-59.534313,-34.462285</coordinates></Point></Placemark>
<Placemark><name>Estancia de Acuña</name><styleUrl>#s</styleUrl><ExtendedData><Data name="nombre"><value>Estancia de Acuña</value></Data><Data name="tipo"><value>Estancia</value></Data></ExtendedData><Point><coordinates>-59.508292,-34.489393</coordinates></Point></Placemark>
<Placemark><name>Casa de Martín Galeano</name><styleUrl>#s</styleUrl><ExtendedData><Data name="nombre"><value>Casa de Martín Galeano</value></Data><Data name="tipo"><value>Casa</value></Data></ExtendedData><Point><coordinates>-59.477569,-34.482705</coordinates></Point></Placemark>
<Placemark><name>Casa de Joaquín Rodriguez</name><styleUrl>#s</styleUrl><ExtendedData><Data name="nombre"><value>Casa de Joaquín Rodriguez</value></Data><Data name="tipo"><value>Casa</value></Data></ExtendedData><Point><coordinates>-59.472183,-34.486734</coordinates></Point></Placemark>
<Placemark><name>Puesto de Mezquita</name><styleUrl>#s</styleUrl><ExtendedData><Data name="nombre"><value>Puesto de Mezquita</value></Data><Data name="tipo"><value>Puesto</value></Data></ExtendedData><Point><coordinates>-59.444969,-34.478508</coordinates></Point></Placemark>
<Placemark><name>Estancia de Dowling</name><styleUrl>#s</styleUrl><ExtendedData><Data name="nombre"><value>Estancia de Dowling</value></Data><Data name="tipo"><value>Estancia</value></Data></ExtendedData><Point><coordinates>-59.482594,-34.536954</coordinates></Point></Placemark>
<Placemark><name>Pulperia</name><styleUrl>#s</styleUrl><ExtendedData><Data name="nombre"><value>Pulperia</value></Data><Data name="tipo"><value>Pulperia</value></Data></ExtendedData><Point><coordinates>-59.438853,-34.521901</coordinates></Point></Placemark>
<Placemark><name>Estancia de Gaynor (Santa María)</name><styleUrl>#s</styleUrl><ExtendedData><Data name="nombre"><value>Estancia de Gaynor (Santa María)</value></Data><Data name="tipo"><value>Estancia</value></Data></ExtendedData><Point><coordinates>-59.444122,-34.536013</coordinates></Point></Placemark>
<Placemark><name>Estancia de Nugent</name><styleUrl>#s</styleUrl><ExtendedData><Data name="nombre"><value>Estancia de Nugent</value></Data><Data name="tipo"><value>Estancia</value></Data></ExtendedData><Point><coordinates>-59.434724,-34.511847</coordinates></Point></Placemark>
<Placemark><name>Puesto San Martín</name><styleUrl>#s</styleUrl><ExtendedData><Data name="nombre"><value>Puesto San Martín</value></Data><Data name="tipo"><value>Puesto</value></Data></ExtendedData><Point><coordinates>-59.473494,-34.463582</coordinates></Point></Placemark>
<Placemark><name>Estancia de Saraví</name><styleUrl>#s</styleUrl><ExtendedData><Data name="nombre"><value>Estancia de Saraví</value></Data><Data name="tipo"><value>Estancia</value></Data></ExtendedData><Point><coordinates>-59.462566,-34.450379</coordinates></Point></Placemark>
<Placemark><name>Estancia de Casco</name><styleUrl>#s</styleUrl><ExtendedData><Data name="nombre"><value>Estancia de Casco</value></Data><Data name="tipo"><value>Estancia</value></Data></ExtendedData><Point><coordinates>-59.460634,-34.434385</coordinates></Point></Placemark>
<Placemark><name>Puesto San Ignacio</name><styleUrl>#s</styleUrl><ExtendedData><Data name="nombre"><value>Puesto San Ignacio</value></Data><Data name="tipo"><value>Puesto</value></Data></ExtendedData><Point><coordinates>-59.471634,-34.425942</coordinates></Point></Placemark>
<Placemark><name>Puesto de tomas Wallace</name><styleUrl>#s</styleUrl><ExtendedData><Data name="nombre"><value>Puesto de tomas Wallace</value></Data><Data name="tipo"><value>Puesto</value></Data></ExtendedData><Point><coordinates>-59.529327,-34.395879</coordinates></Point></Placemark>
<Placemark><name>Puesto de Pedro Duffi</name><styleUrl>#s</styleUrl><ExtendedData><Data name="nombre"><value>Puesto de Pedro Duffi</value></Data><Data name="tipo"><value>Puesto</value></Data></ExtendedData><Point><coordinates>-59.568507,-34.382707</coordinates></Point></Placemark>
<Placemark><name>Tapera de Morgan</name><styleUrl>#s</styleUrl><ExtendedData><Data name="nombre"><value>Tapera de Morgan</value></Data><Data name="tipo"><value>Tapera</value></Data></ExtendedData><Point><coordinates>-59.545815,-34.360432</coordinates></Point></Placemark>
<Placemark><name>Estancia La Margarita</name><styleUrl>#s</styleUrl><ExtendedData><Data name="nombre"><value>Estancia La Margarita</value></Data><Data name="tipo"><value>Estancia</value></Data></ExtendedData><Point><coordinates>-59.527056,-34.344343</coordinates></Point></Placemark>
<Placemark><name>Estancia La Patria</name><styleUrl>#s</styleUrl><ExtendedData><Data name="nombre"><value>Estancia La Patria</value></Data><Data name="tipo"><value>Estancia</value></Data></ExtendedData><Point><coordinates>-59.485320,-34.320630</coordinates></Point></Placemark>
<Placemark><name>Puesto Mozovivo</name><styleUrl>#s</styleUrl><ExtendedData><Data name="nombre"><value>Puesto Mozovivo</value></Data><Data name="tipo"><value>Puesto</value></Data></ExtendedData><Point><coordinates>-59.470197,-34.358391</coordinates></Point></Placemark>
<Placemark><name>Estancia San Guillermo</name><styleUrl>#s</styleUrl><ExtendedData><Data name="nombre"><value>Estancia San Guillermo</value></Data><Data name="tipo"><value>Estancia</value></Data></ExtendedData><Point><coordinates>-59.467245,-34.346799</coordinates></Point></Placemark>
<Placemark><name>Puesto el Oriental</name><styleUrl>#s</styleUrl><ExtendedData><Data name="nombre"><value>Puesto el Oriental</value></Data><Data name="tipo"><value>Puesto</value></Data></ExtendedData><Point><coordinates>-59.463043,-34.348903</coordinates></Point></Placemark>
<Placemark><name>Estancia El Paraiso</name><styleUrl>#s</styleUrl><ExtendedData><Data name="nombre"><value>Estancia El Paraiso</value></Data><Data name="tipo"><value>Estancia</value></Data></ExtendedData><Point><coordinates>-59.457220,-34.349842</coordinates></Point></Placemark>
<Placemark><name>Estancia de Morgan</name><styleUrl>#s</styleUrl><ExtendedData><Data name="nombre"><value>Estancia de Morgan</value></Data><Data name="tipo"><value>Estancia</value></Data></ExtendedData><Point><coordinates>-59.464310,-34.369172</coordinates></Point></Placemark>
<Placemark><name>Estancia de Morgan</name><styleUrl>#s</styleUrl><ExtendedData><Data name="nombre"><value>Estancia de Morgan</value></Data><Data name="tipo"><value>Estancia</value></Data></ExtendedData><Point><coordinates>-59.458956,-34.369342</coordinates></Point></Placemark>
<Placemark><name>Estancia La Margarita</name><styleUrl>#s</styleUrl><ExtendedData><Data name="nombre"><value>Estancia La Margarita</value></Data><Data name="tipo"><value>Estancia</value></Data></ExtendedData><Point><coordinates>-59.460778,-34.339244</coordinates></Point></Placemark>
<Placemark><name>Posta</name><styleUrl>#s</styleUrl><ExtendedData><Data name="nombre"><value>Posta</value></Data><Data name="tipo"><value>Posta</value></Data></ExtendedData><Point><coordinates>-59.438841,-34.349374</coordinates></Point></Placemark>
<Placemark><name>Estancia San Cristobal</name><styleUrl>#s</styleUrl><ExtendedData><Data name="nombre"><value>Estancia San Cristobal</value></Data><Data name="tipo"><value>Estancia</value></Data></ExtendedData><Point><coordinates>-59.438060,-34.361914</coordinates></Point></Placemark>
<Placemark><name>Puesto Santa María</name><styleUrl>#s</styleUrl><ExtendedData><Data name="nombre"><value>Puesto Santa María</value></Data><Data name="tipo"><value>Puesto</value></Data></ExtendedData><Point><coordinates>-59.487217,-34.353060</coordinates></Point></Placemark>
<Placemark><name>Casa de Juan Figueroa</name><styleUrl>#s</styleUrl><ExtendedData><Data name="nombre"><value>Casa de Juan Figueroa</value></Data><Data name="tipo"><value>Casa</value></Data></ExtendedData><Point><coordinates>-59.435447,-34.335077</coordinates></Point></Placemark>
<Placemark><name>Cañon</name><styleUrl>#s</styleUrl><ExtendedData><Data name="nombre"><value>Cañon</value></Data><Data name="tipo"><value>Cañon</value></Data></ExtendedData><Point><coordinates>-59.437809,-34.329684</coordinates></Point></Placemark>
<Placemark><name>Puesto del Ingles</name><styleUrl>#s</styleUrl><ExtendedData><Data name="nombre"><value>Puesto del Ingles</value></Data><Data name="tipo"><value>Puesto</value></Data></ExtendedData><Point><coordinates>-59.449897,-34.307782</coordinates></Point></Placemark>
<Placemark><name>Estancia de Dios</name><styleUrl>#s</styleUrl><ExtendedData><Data name="nombre"><value>Estancia de Dios</value></Data><Data name="tipo"><value>Estancia</value></Data></ExtendedData><Point><coordinates>-59.412728,-34.346900</coordinates></Point></Placemark>
<Placemark><name>Posta de Figueroa</name><styleUrl>#s</styleUrl><ExtendedData><Data name="nombre"><value>Posta de Figueroa</value></Data><Data name="tipo"><value>Posta</value></Data></ExtendedData><Point><coordinates>-59.418851,-34.309084</coordinates></Point></Placemark>
<Placemark><name>Puesto Santa Rosalía</name><styleUrl>#s</styleUrl><ExtendedData><Data name="nombre"><value>Puesto Santa Rosalía</value></Data><Data name="tipo"><value>Puesto</value></Data></ExtendedData><Point><coordinates>-59.382371,-34.381705</coordinates></Point></Placemark>
<Placemark><name>Estancia La Paloma</name><styleUrl>#s</styleUrl><ExtendedData><Data name="nombre"><value>Estancia La Paloma</value></Data><Data name="tipo"><value>Estancia</value></Data></ExtendedData><Point><coordinates>-59.373898,-34.348942</coordinates></Point></Placemark>
<Placemark><name>Estancia de Rodriguez (Después Santa Elena)</name><styleUrl>#s</styleUrl><ExtendedData><Data name="nombre"><value>Estancia de Rodriguez (Después Santa Elena)</value></Data><Data name="tipo"><value>Estancia</value></Data></ExtendedData><Point><coordinates>-59.390020,-34.376092</coordinates></Point></Placemark>
<Placemark><name>Estancia Buena Fe</name><styleUrl>#s</styleUrl><ExtendedData><Data name="nombre"><value>Estancia Buena Fe</value></Data><Data name="tipo"><value>Estancia</value></Data></ExtendedData><Point><coordinates>-59.381023,-34.327953</coordinates></Point></Placemark>
<Placemark><name>Estancia San Felipe</name><styleUrl>#s</styleUrl><ExtendedData><Data name="nombre"><value>Estancia San Felipe</value></Data><Data name="tipo"><value>Estancia</value></Data></ExtendedData><Point><coordinates>-59.395799,-34.321588</coordinates></Point></Placemark>
<Placemark><name>Estancia de Figueroa</name><styleUrl>#s</styleUrl><ExtendedData><Data name="nombre"><value>Estancia de Figueroa</value></Data><Data name="tipo"><value>Estancia</value></Data></ExtendedData><Point><coordinates>-59.396012,-34.313967</coordinates></Point></Placemark>
<Placemark><name>Pulepería de los Figueroa</name><styleUrl>#s</styleUrl><ExtendedData><Data name="nombre"><value>Pulepería de los Figueroa</value></Data><Data name="tipo"><value>Pulperia</value></Data></ExtendedData><Point><coordinates>-59.388210,-34.319842</coordinates></Point></Placemark>
<Placemark><name>Estancia de Durand</name><styleUrl>#s</styleUrl><ExtendedData><Data name="nombre"><value>Estancia de Durand</value></Data><Data name="tipo"><value>Estancia</value></Data></ExtendedData><Point><coordinates>-59.427218,-34.289544</coordinates></Point></Placemark>
<Placemark><name>Estancia de Lazota</name><styleUrl>#s</styleUrl><ExtendedData><Data name="nombre"><value>Estancia de Lazota</value></Data><Data name="tipo"><value>Estancia</value></Data></ExtendedData><Point><coordinates>-59.402295,-34.276547</coordinates></Point></Placemark>
<Placemark><name>Paso de las Carretas</name><styleUrl>#s</styleUrl><ExtendedData><Data name="nombre"><value>Paso de las Carretas</value></Data><Data name="tipo"><value>Paso</value></Data></ExtendedData><Point><coordinates>-59.413906,-34.268587</coordinates></Point></Placemark>
<Placemark><name>Estancia Nueva (La Argentina)</name><styleUrl>#s</styleUrl><ExtendedData><Data name="nombre"><value>Estancia Nueva (La Argentina)</value></Data><Data name="tipo"><value>Estancia</value></Data></ExtendedData><Point><coordinates>-59.367391,-34.244834</coordinates></Point></Placemark>
<Placemark><name>Estancia vieja</name><styleUrl>#s</styleUrl><ExtendedData><Data name="nombre"><value>Estancia vieja</value></Data><Data name="tipo"><value>Estancia</value></Data></ExtendedData><Point><coordinates>-59.332108,-34.284332</coordinates></Point></Placemark>
<Placemark><name>Estancia de Luis Chapeaurrouge</name><styleUrl>#s</styleUrl><ExtendedData><Data name="nombre"><value>Estancia de Luis Chapeaurrouge</value></Data><Data name="tipo"><value>Estancia</value></Data></ExtendedData><Point><coordinates>-59.369939,-34.306346</coordinates></Point></Placemark>
<Placemark><name>Pulpería de Pasos</name><styleUrl>#s</styleUrl><ExtendedData><Data name="nombre"><value>Pulpería de Pasos</value></Data><Data name="tipo"><value>Pulperia</value></Data></ExtendedData><Point><coordinates>-59.355221,-34.325849</coordinates></Point></Placemark>
<Placemark><name>Estancia de Scully</name><styleUrl>#s</styleUrl><ExtendedData><Data name="nombre"><value>Estancia de Scully</value></Data><Data name="tipo"><value>Estancia</value></Data></ExtendedData><Point><coordinates>-59.327278,-34.314397</coordinates></Point></Placemark>
<Placemark><name>Pulpería de Francisco Magadan</name><styleUrl>#s</styleUrl><ExtendedData><Data name="nombre"><value>Pulpería de Francisco Magadan</value></Data><Data name="tipo"><value>Pulperia</value></Data></ExtendedData><Point><coordinates>-59.344956,-34.342351</coordinates></Point></Placemark>
<Placemark><name>Puesto de O´Brien</name><styleUrl>#s</styleUrl><ExtendedData><Data name="nombre"><value>Puesto de O´Brien</value></Data><Data name="tipo"><value>Puesto</value></Data></ExtendedData><Point><coordinates>-59.298360,-34.328996</coordinates></Point></Placemark>
<Placemark><name>Estancia de O´Brien</name><styleUrl>#s</styleUrl><ExtendedData><Data name="nombre"><value>Estancia de O´Brien</value></Data><Data name="tipo"><value>Estancia</value></Data></ExtendedData><Point><coordinates>-59.289924,-34.327546</coordinates></Point></Placemark>
<Placemark><name>Puesto La Viuda</name><styleUrl>#s</styleUrl><ExtendedData><Data name="nombre"><value>Puesto La Viuda</value></Data><Data name="tipo"><value>Puesto</value></Data></ExtendedData><Point><coordinates>-59.280644,-34.326090</coordinates></Point></Placemark>
<Placemark><name>Estancia de O´Brien</name><styleUrl>#s</styleUrl><ExtendedData><Data name="nombre"><value>Estancia de O´Brien</value></Data><Data name="tipo"><value>Estancia</value></Data></ExtendedData><Point><coordinates>-59.275101,-34.332190</coordinates></Point></Placemark>
<Placemark><name>Estancia La Paterna</name><styleUrl>#s</styleUrl><ExtendedData><Data name="nombre"><value>Estancia La Paterna</value></Data><Data name="tipo"><value>Estancia</value></Data></ExtendedData><Point><coordinates>-59.210678,-34.378046</coordinates></Point></Placemark>
<Placemark><name>Puesto del Pescador</name><styleUrl>#s</styleUrl><ExtendedData><Data name="nombre"><value>Puesto del Pescador</value></Data><Data name="tipo"><value>Puesto</value></Data></ExtendedData><Point><coordinates>-59.235065,-34.394897</coordinates></Point></Placemark>
<Placemark><name>Estancia del Sar</name><styleUrl>#s</styleUrl><ExtendedData><Data name="nombre"><value>Estancia del Sar</value></Data><Data name="tipo"><value>Estancia</value></Data></ExtendedData><Point><coordinates>-59.258094,-34.392709</coordinates></Point></Placemark>
<Placemark><name>Puesto del Ombú</name><styleUrl>#s</styleUrl><ExtendedData><Data name="nombre"><value>Puesto del Ombú</value></Data><Data name="tipo"><value>Puesto</value></Data></ExtendedData><Point><coordinates>-59.250875,-34.406592</coordinates></Point></Placemark>
<Placemark><name>Puesto La Bonita</name><styleUrl>#s</styleUrl><ExtendedData><Data name="nombre"><value>Puesto La Bonita</value></Data><Data name="tipo"><value>Puesto</value></Data></ExtendedData><Point><coordinates>-59.251576,-34.420389</coordinates></Point></Placemark>
<Placemark><name>Pulpería</name><styleUrl>#s</styleUrl><ExtendedData><Data name="nombre"><value>Pulpería</value></Data><Data name="tipo"><value>Pulperia</value></Data></ExtendedData><Point><coordinates>-59.267309,-34.435777</coordinates></Point></Placemark>
<Placemark><name>Población de Rodriguez</name><styleUrl>#s</styleUrl><ExtendedData><Data name="nombre"><value>Población de Rodriguez</value></Data><Data name="tipo"><value>Población</value></Data></ExtendedData><Point><coordinates>-59.277389,-34.425456</coordinates></Point></Placemark>
<Placemark><name>Puesto de los Catalanes</name><styleUrl>#s</styleUrl><ExtendedData><Data name="nombre"><value>Puesto de los Catalanes</value></Data><Data name="tipo"><value>Puesto</value></Data></ExtendedData><Point><coordinates>-59.294082,-34.420429</coordinates></Point></Placemark>
<Placemark><name>Estancia El Tala</name><styleUrl>#s</styleUrl><ExtendedData><Data name="nombre"><value>Estancia El Tala</value></Data><Data name="tipo"><value>Estancia</value></Data></ExtendedData><Point><coordinates>-59.288091,-34.453771</coordinates></Point></Placemark>
<Placemark><name>Estancia de Pascual Rodriguez</name><styleUrl>#s</styleUrl><ExtendedData><Data name="nombre"><value>Estancia de Pascual Rodriguez</value></Data><Data name="tipo"><value>Estancia</value></Data></ExtendedData><Point><coordinates>-59.325816,-34.437559</coordinates></Point></Placemark>
<Placemark><name>Posta de los Rodriguez</name><styleUrl>#s</styleUrl><ExtendedData><Data name="nombre"><value>Posta de los Rodriguez</value></Data><Data name="tipo"><value>Posta</value></Data></ExtendedData><Point><coordinates>-59.350495,-34.425209</coordinates></Point></Placemark>
<Placemark><name>Puesto San Lorenzo</name><styleUrl>#s</styleUrl><ExtendedData><Data name="nombre"><value>Puesto San Lorenzo</value></Data><Data name="tipo"><value>Puesto</value></Data></ExtendedData><Point><coordinates>-59.345518,-34.412700</coordinates></Point></Placemark>
<Placemark><name>Puesto Santa María</name><styleUrl>#s</styleUrl><ExtendedData><Data name="nombre"><value>Puesto Santa María</value></Data><Data name="tipo"><value>Puesto</value></Data></ExtendedData><Point><coordinates>-59.355423,-34.402897</coordinates></Point></Placemark>
<Placemark><name>Estancia La Adelina</name><styleUrl>#s</styleUrl><ExtendedData><Data name="nombre"><value>Estancia La Adelina</value></Data><Data name="tipo"><value>Estancia</value></Data></ExtendedData><Point><coordinates>-59.335624,-34.400688</coordinates></Point></Placemark>
<Placemark><name>Estancia San Rafael</name><styleUrl>#s</styleUrl><ExtendedData><Data name="nombre"><value>Estancia San Rafael</value></Data><Data name="tipo"><value>Estancia</value></Data></ExtendedData><Point><coordinates>-59.444184,-34.429745</coordinates></Point></Placemark>
<Placemark><name>Estancia de Piquetto</name><styleUrl>#s</styleUrl><ExtendedData><Data name="nombre"><value>Estancia de Piquetto</value></Data><Data name="tipo"><value>Estancia</value></Data></ExtendedData><Point><coordinates>-59.441136,-34.434856</coordinates></Point></Placemark>
<Placemark><name>Paso</name><styleUrl>#s</styleUrl><ExtendedData><Data name="nombre"><value>Paso</value></Data><Data name="tipo"><value>Paso</value></Data></ExtendedData><Point><coordinates>-59.455978,-34.445041</coordinates></Point></Placemark>
</Document></kml>
