{"type":"FeatureCollection","name":"estancias_puestos_1884","title":"Estancias, puestos, postas y pulperías de 1884","features":[{"type":"Feature","properties":{"nombre":"Estancia de Doulon","tipo":"Estancia"},"geometry":{"type":"Point","coordinates":[-59.721486,-34.477671]}},{"type":"Feature","properties":{"nombre":"Estancia de Alfonsin","tipo":"Estancia"},"geometry":{"type":"Point","coordinates":[-59.746814,-34.513962]}},{"type":"Feature","properties":{"nombre":"Estancia de San Ramon","tipo":"Estancia"},"geometry":{"type":"Point","coordinates":[-59.720318,-34.515641]}},{"type":"Feature","properties":{"nombre":"Cañon","tipo":"Cañon"},"geometry":{"type":"Point","coordinates":[-59.695486,-34.492351]}},{"type":"Feature","properties":{"nombre":"Estancia de Casado","tipo":"Estancia"},"geometry":{"type":"Point","coordinates":[-59.696553,-34.523509]}},{"type":"Feature","properties":{"nombre":"Puesto de Casado","tipo":"Puesto"},"geometry":{"type":"Point","coordinates":[-59.675375,-34.505652]}},{"type":"Feature","properties":{"nombre":"Puesto de Costa","tipo":"Puesto"},"geometry":{"type":"Point","coordinates":[-59.678297,-34.563952]}},{"type":"Feature","properties":{"nombre":"Puesto de LIma","tipo":"Puesto"},"geometry":{"type":"Point","coordinates":[-59.664738,-34.574771]}},{"type":"Feature","properties":{"nombre":"Estancia de Lima","tipo":"Estancia"},"geometry":{"type":"Point","coordinates":[-59.628147,-34.539928]}},{"type":"Feature","properties":{"nombre":"Azotea de Bernal","tipo":"Azotea"},"geometry":{"type":"Point","coordinates":[-59.576636,-34.531402]}},{"type":"Feature","properties":{"nombre":"Estancia de Echeverria","tipo":"Estancia"},"geometry":{"type":"Point","coordinates":[-59.629457,-34.51084]}},{"type":"Feature","properties":{"nombre":"Estancia de Casado","tipo":"Estancia"},"geometry":{"type":"Point","coordinates":[-59.652586,-34.498967]}},{"type":"Feature","properties":{"nombre":"Estancia de Carry","tipo":"Estancia"},"geometry":{"type":"Point","coordinates":[-59.59489,-34.499767]}},{"type":"Feature","properties":{"nombre":"Estancia de Acuña","tipo":"Estancia"},"geometry":{"type":"Point","coordinates":[-59.573868,-34.508379]}},{"type":"Feature","properties":{"nombre":"Estancia de Kelly","tipo":"Estancia"},"geometry":{"type":"Point","coordinates":[-59.559646,-34.519727]}},{"type":"Feature","properties":{"nombre":"Estancia de Bianchi","tipo":"Estancia"},"geometry":{"type":"Point","coordinates":[-59.564019,-34.536243]}},{"type":"Feature","properties":{"nombre":"Graseria","tipo":"Graseria"},"geometry":{"type":"Point","coordinates":[-59.560731,-34.537859]}},{"type":"Feature","properties":{"nombre":"Pulperia","tipo":"Pulperia"},"geometry":{"type":"Point","coordinates":[-59.557652,-34.540155]}},{"type":"Feature","properties":{"nombre":"Población de Jose Monsalvo","tipo":"Población"},"geometry":{"type":"Point","coordinates":[-59.543453,-34.511001]}},{"type":"Feature","properties":{"nombre":"Casa de Ciriaco Monsalvo","tipo":"Casa"},"geometry":{"type":"Point","coordinates":[-59.56575,-34.49328]}},{"type":"Feature","properties":{"nombre":"Estancia de Crecencio Monsalvo","tipo":"Estancia"},"geometry":{"type":"Point","coordinates":[-59.5401,-34.484647]}},{"type":"Feature","properties":{"nombre":"Monte de Avila","tipo":"Monte"},"geometry":{"type":"Point","coordinates":[-59.538859,-34.569592]}},{"type":"Feature","properties":{"nombre":"Estancia de Bustos","tipo":"Estancia"},"geometry":{"type":"Point","coordinates":[-59.586387,-34.440913]}},{"type":"Feature","properties":{"nombre":"Estancia de Maxwell","tipo":"Estancia"},"geometry":{"type":"Point","coordinates":[-59.603135,-34.445794]}},{"type":"Feature","properties":{"nombre":"Población de Mariano Alegre","tipo":"Población"},"geometry":{"type":"Point","coordinates":[-59.614711,-34.461462]}},{"type":"Feature","properties":{"nombre":"Población de Rodriguez","tipo":"Población"},"geometry":{"type":"Point","coordinates":[-59.610908,-34.427292]}},{"type":"Feature","properties":{"nombre":"Estancia de Sala","tipo":"Estancia"},"geometry":{"type":"Point","coordinates":[-59.628144,-34.427153]}},{"type":"Feature","properties":{"nombre":"Población de Emilio Gutierrez","tipo":"Población"},"geometry":{"type":"Point","coordinates":[-59.675257,-34.409532]}},{"type":"Feature","properties":{"nombre":"Estancia de Potes","tipo":"Estancia"},"geometry":{"type":"Point","coordinates":[-59.66732,-34.414721]}},{"type":"Feature","properties":{"nombre":"Población de Mansilla","tipo":"Población"},"geometry":{"type":"Point","coordinates":[-59.681206,-34.437145]}},{"type":"Feature","properties":{"nombre":"Estancia de Caprile y Picasso","tipo":"Estancia"},"geometry":{"type":"Point","coordinates":[-59.667624,-34.455442]}},{"type":"Feature","properties":{"nombre":"Casa del Finado Anastasio Gaute","tipo":"Casa"},"geometry":{"type":"Point","coordinates":[-59.565661,-34.437891]}},{"type":"Feature","properties":{"nombre":"Casa de Juan Escobar","tipo":"Casa"},"geometry":{"type":"Point","coordinates":[-59.534313,-34.462285]}},{"type":"Feature","properties":{"nombre":"Estancia de Acuña","tipo":"Estancia"},"geometry":{"type":"Point","coordinates":[-59.508292,-34.489393]}},{"type":"Feature","properties":{"nombre":"Casa de Martín Galeano","tipo":"Casa"},"geometry":{"type":"Point","coordinates":[-59.477569,-34.482705]}},{"type":"Feature","properties":{"nombre":"Casa de Joaquín Rodriguez","tipo":"Casa"},"geometry":{"type":"Point","coordinates":[-59.472183,-34.486734]}},{"type":"Feature","properties":{"nombre":"Puesto de Mezquita","tipo":"Puesto"},"geometry":{"type":"Point","coordinates":[-59.444969,-34.478508]}},{"type":"Feature","properties":{"nombre":"Estancia de Dowling","tipo":"Estancia"},"geometry":{"type":"Point","coordinates":[-59.482594,-34.536954]}},{"type":"Feature","properties":{"nombre":"Pulperia","tipo":"Pulperia"},"geometry":{"type":"Point","coordinates":[-59.438853,-34.521901]}},{"type":"Feature","properties":{"nombre":"Estancia de Gaynor (Santa María)","tipo":"Estancia"},"geometry":{"type":"Point","coordinates":[-59.444122,-34.536013]}},{"type":"Feature","properties":{"nombre":"Estancia de Nugent","tipo":"Estancia"},"geometry":{"type":"Point","coordinates":[-59.434724,-34.511847]}},{"type":"Feature","properties":{"nombre":"Puesto San Martín","tipo":"Puesto"},"geometry":{"type":"Point","coordinates":[-59.473494,-34.463582]}},{"type":"Feature","properties":{"nombre":"Estancia de Saraví","tipo":"Estancia"},"geometry":{"type":"Point","coordinates":[-59.462566,-34.450379]}},{"type":"Feature","properties":{"nombre":"Estancia de Casco","tipo":"Estancia"},"geometry":{"type":"Point","coordinates":[-59.460634,-34.434385]}},{"type":"Feature","properties":{"nombre":"Puesto San Ignacio","tipo":"Puesto"},"geometry":{"type":"Point","coordinates":[-59.471634,-34.425942]}},{"type":"Feature","properties":{"nombre":"Puesto de tomas Wallace","tipo":"Puesto"},"geometry":{"type":"Point","coordinates":[-59.529327,-34.395879]}},{"type":"Feature","properties":{"nombre":"Puesto de Pedro Duffi","tipo":"Puesto"},"geometry":{"type":"Point","coordinates":[-59.568507,-34.382707]}},{"type":"Feature","properties":{"nombre":"Tapera de Morgan","tipo":"Tapera"},"geometry":{"type":"Point","coordinates":[-59.545815,-34.360432]}},{"type":"Feature","properties":{"nombre":"Estancia La Margarita","tipo":"Estancia"},"geometry":{"type":"Point","coordinates":[-59.527056,-34.344343]}},{"type":"Feature","properties":{"nombre":"Estancia La Patria","tipo":"Estancia"},"geometry":{"type":"Point","coordinates":[-59.48532,-34.32063]}},{"type":"Feature","properties":{"nombre":"Puesto Mozovivo","tipo":"Puesto"},"geometry":{"type":"Point","coordinates":[-59.470197,-34.358391]}},{"type":"Feature","properties":{"nombre":"Estancia San Guillermo","tipo":"Estancia"},"geometry":{"type":"Point","coordinates":[-59.467245,-34.346799]}},{"type":"Feature","properties":{"nombre":"Puesto el Oriental","tipo":"Puesto"},"geometry":{"type":"Point","coordinates":[-59.463043,-34.348903]}},{"type":"Feature","properties":{"nombre":"Estancia El Paraiso","tipo":"Estancia"},"geometry":{"type":"Point","coordinates":[-59.45722,-34.349842]}},{"type":"Feature","properties":{"nombre":"Estancia de Morgan","tipo":"Estancia"},"geometry":{"type":"Point","coordinates":[-59.46431,-34.369172]}},{"type":"Feature","properties":{"nombre":"Estancia de Morgan","tipo":"Estancia"},"geometry":{"type":"Point","coordinates":[-59.458956,-34.369342]}},{"type":"Feature","properties":{"nombre":"Estancia La Margarita","tipo":"Estancia"},"geometry":{"type":"Point","coordinates":[-59.460778,-34.339244]}},{"type":"Feature","properties":{"nombre":"Posta","tipo":"Posta"},"geometry":{"type":"Point","coordinates":[-59.438841,-34.349374]}},{"type":"Feature","properties":{"nombre":"Estancia San Cristobal","tipo":"Estancia"},"geometry":{"type":"Point","coordinates":[-59.43806,-34.361914]}},{"type":"Feature","properties":{"nombre":"Puesto Santa María","tipo":"Puesto"},"geometry":{"type":"Point","coordinates":[-59.487217,-34.35306]}},{"type":"Feature","properties":{"nombre":"Casa de Juan Figueroa","tipo":"Casa"},"geometry":{"type":"Point","coordinates":[-59.435447,-34.335077]}},{"type":"Feature","properties":{"nombre":"Cañon","tipo":"Cañon"},"geometry":{"type":"Point","coordinates":[-59.437809,-34.329684]}},{"type":"Feature","properties":{"nombre":"Puesto del Ingles","tipo":"Puesto"},"geometry":{"type":"Point","coordinates":[-59.449897,-34.307782]}},{"type":"Feature","properties":{"nombre":"Estancia de Dios","tipo":"Estancia"},"geometry":{"type":"Point","coordinates":[-59.412728,-34.3469]}},{"type":"Feature","properties":{"nombre":"Posta de Figueroa","tipo":"Posta"},"geometry":{"type":"Point","coordinates":[-59.418851,-34.309084]}},{"type":"Feature","properties":{"nombre":"Puesto Santa Rosalía","tipo":"Puesto"},"geometry":{"type":"Point","coordinates":[-59.382371,-34.381705]}},{"type":"Feature","properties":{"nombre":"Estancia La Paloma","tipo":"Estancia"},"geometry":{"type":"Point","coordinates":[-59.373898,-34.348942]}},{"type":"Feature","properties":{"nombre":"Estancia de Rodriguez (Después Santa Elena)","tipo":"Estancia"},"geometry":{"type":"Point","coordinates":[-59.39002,-34.376092]}},{"type":"Feature","properties":{"nombre":"Estancia Buena Fe","tipo":"Estancia"},"geometry":{"type":"Point","coordinates":[-59.381023,-34.327953]}},{"type":"Feature","properties":{"nombre":"Estancia San Felipe","tipo":"Estancia"},"geometry":{"type":"Point","coordinates":[-59.395799,-34.321588]}},{"type":"Feature","properties":{"nombre":"Estancia de Figueroa","tipo":"Estancia"},"geometry":{"type":"Point","coordinates":[-59.396012,-34.313967]}},{"type":"Feature","properties":{"nombre":"Pulepería de los Figueroa","tipo":"Pulperia"},"geometry":{"type":"Point","coordinates":[-59.38821,-34.319842]}},{"type":"Feature","properties":{"nombre":"Estancia de Durand","tipo":"Estancia"},"geometry":{"type":"Point","coordinates":[-59.427218,-34.289544]}},{"type":"Feature","properties":{"nombre":"Estancia de Lazota","tipo":"Estancia"},"geometry":{"type":"Point","coordinates":[-59.402295,-34.276547]}},{"type":"Feature","properties":{"nombre":"Paso de las Carretas","tipo":"Paso"},"geometry":{"type":"Point","coordinates":[-59.413906,-34.268587]}},{"type":"Feature","properties":{"nombre":"Estancia Nueva (La Argentina)","tipo":"Estancia"},"geometry":{"type":"Point","coordinates":[-59.367391,-34.244834]}},{"type":"Feature","properties":{"nombre":"Estancia vieja","tipo":"Estancia"},"geometry":{"type":"Point","coordinates":[-59.332108,-34.284332]}},{"type":"Feature","properties":{"nombre":"Estancia de Luis Chapeaurrouge","tipo":"Estancia"},"geometry":{"type":"Point","coordinates":[-59.369939,-34.306346]}},{"type":"Feature","properties":{"nombre":"Pulpería de Pasos","tipo":"Pulperia"},"geometry":{"type":"Point","coordinates":[-59.355221,-34.325849]}},{"type":"Feature","properties":{"nombre":"Estancia de Scully","tipo":"Estancia"},"geometry":{"type":"Point","coordinates":[-59.327278,-34.314397]}},{"type":"Feature","properties":{"nombre":"Pulpería de Francisco Magadan","tipo":"Pulperia"},"geometry":{"type":"Point","coordinates":[-59.344956,-34.342351]}},{"type":"Feature","properties":{"nombre":"Puesto de O´Brien","tipo":"Puesto"},"geometry":{"type":"Point","coordinates":[-59.29836,-34.328996]}},{"type":"Feature","properties":{"nombre":"Estancia de O´Brien","tipo":"Estancia"},"geometry":{"type":"Point","coordinates":[-59.289924,-34.327546]}},{"type":"Feature","properties":{"nombre":"Puesto La Viuda","tipo":"Puesto"},"geometry":{"type":"Point","coordinates":[-59.280644,-34.32609]}},{"type":"Feature","properties":{"nombre":"Estancia de O´Brien","tipo":"Estancia"},"geometry":{"type":"Point","coordinates":[-59.275101,-34.33219]}},{"type":"Feature","properties":{"nombre":"Estancia La Paterna","tipo":"Estancia"},"geometry":{"type":"Point","coordinates":[-59.210678,-34.378046]}},{"type":"Feature","properties":{"nombre":"Puesto del Pescador","tipo":"Puesto"},"geometry":{"type":"Point","coordinates":[-59.235065,-34.394897]}},{"type":"Feature","properties":{"nombre":"Estancia del Sar","tipo":"Estancia"},"geometry":{"type":"Point","coordinates":[-59.258094,-34.392709]}},{"type":"Feature","properties":{"nombre":"Puesto del Ombú","tipo":"Puesto"},"geometry":{"type":"Point","coordinates":[-59.250875,-34.406592]}},{"type":"Feature","properties":{"nombre":"Puesto La Bonita","tipo":"Puesto"},"geometry":{"type":"Point","coordinates":[-59.251576,-34.420389]}},{"type":"Feature","properties":{"nombre":"Pulpería","tipo":"Pulperia"},"geometry":{"type":"Point","coordinates":[-59.267309,-34.435777]}},{"type":"Feature","properties":{"nombre":"Población de Rodriguez","tipo":"Población"},"geometry":{"type":"Point","coordinates":[-59.277389,-34.425456]}},{"type":"Feature","properties":{"nombre":"Puesto de los Catalanes","tipo":"Puesto"},"geometry":{"type":"Point","coordinates":[-59.294082,-34.420429]}},{"type":"Feature","properties":{"nombre":"Estancia El Tala","tipo":"Estancia"},"geometry":{"type":"Point","coordinates":[-59.288091,-34.453771]}},{"type":"Feature","properties":{"nombre":"Estancia de Pascual Rodriguez","tipo":"Estancia"},"geometry":{"type":"Point","coordinates":[-59.325816,-34.437559]}},{"type":"Feature","properties":{"nombre":"Posta de los Rodriguez","tipo":"Posta"},"geometry":{"type":"Point","coordinates":[-59.350495,-34.425209]}},{"type":"Feature","properties":{"nombre":"Puesto San Lorenzo","tipo":"Puesto"},"geometry":{"type":"Point","coordinates":[-59.345518,-34.4127]}},{"type":"Feature","properties":{"nombre":"Puesto Santa María","tipo":"Puesto"},"geometry":{"type":"Point","coordinates":[-59.355423,-34.402897]}},{"type":"Feature","properties":{"nombre":"Estancia La Adelina","tipo":"Estancia"},"geometry":{"type":"Point","coordinates":[-59.335624,-34.400688]}},{"type":"Feature","properties":{"nombre":"Estancia San Rafael","tipo":"Estancia"},"geometry":{"type":"Point","coordinates":[-59.444184,-34.429745]}},{"type":"Feature","properties":{"nombre":"Estancia de Piquetto","tipo":"Estancia"},"geometry":{"type":"Point","coordinates":[-59.441136,-34.434856]}},{"type":"Feature","properties":{"nombre":"Paso","tipo":"Paso"},"geometry":{"type":"Point","coordinates":[-59.455978,-34.445041]}}]}