<?xml version="1.0" encoding="UTF-8"?>
<kml xmlns="http://www.opengis.net/kml/2.2"><Document><name>Contorno del partido de San Andrés de Giles</name>
<Style id="s"><LineStyle><color>ff794e1f</color><width>1.5</width></LineStyle><PolyStyle><color>33794e1f</color></PolyStyle></Style>
<Placemark><name>Contorno del partido de San Andrés de Giles</name><styleUrl>#s</styleUrl><ExtendedData><Data name="nombre"><value>Contorno del partido de San Andrés de Giles</value></Data></ExtendedData><Polygon><outerBoundaryIs><LinearRing><coordinates>-59.768440,-34.453630 -59.678080,-34.405100 -59.677100,-34.400910 -59.673300,-34.399260 -59.646740,-34.418830 -59.622020,-34.397560 -59.607570,-34.408020 -59.543380,-34.351340 -59.510540,-34.331710 -59.491370,-34.322420 -59.491270,-34.322000 -59.492800,-34.320140 -59.481240,-34.314430 -59.478800,-34.316020 -59.468980,-34.311440 -59.466700,-34.314280 -59.438900,-34.299960 -59.432070,-34.308530 -59.423360,-34.304180 -59.427700,-34.297830 -59.416000,-34.292600 -59.422760,-34.284320 -59.411100,-34.278240 -59.414830,-34.273700 -59.414860,-34.269900 -59.412500,-34.268180 -59.406660,-34.268700 -59.404590,-34.267740 -59.403390,-34.265240 -59.401910,-34.263720 -59.397180,-34.261130 -59.396800,-34.259840 -59.394030,-34.258430 -59.390360,-34.252590 -59.385290,-34.247820 -59.383860,-34.247290 -59.380780,-34.244730 -59.377800,-34.244570 -59.375320,-34.240540 -59.375870,-34.239240 -59.300920,-34.264900 -59.308430,-34.285570 -59.312340,-34.289790 -59.279190,-34.308970 -59.275400,-34.305860 -59.253870,-34.322170 -59.256310,-34.324030 -59.256290,-34.324490 -59.193660,-34.371090 -59.196380,-34.373790 -59.197740,-34.373950 -59.198010,-34.374890 -59.200490,-34.377710 -59.202820,-34.382060 -59.206460,-34.385340 -59.208950,-34.389660 -59.212000,-34.390050 -59.216150,-34.396630 -59.220570,-34.399450 -59.223650,-34.399810 -59.225410,-34.400600 -59.231570,-34.407950 -59.235380,-34.410970 -59.213970,-34.442830 -59.252990,-34.462580 -59.263210,-34.469050 -59.477570,-34.577910 -59.479470,-34.568590 -59.506570,-34.581900 -59.524670,-34.597400 -59.570480,-34.562270 -59.632850,-34.615520 -59.767820,-34.509560 -59.734310,-34.479420 -59.768440,-34.453630</coordinates></LinearRing></outerBoundaryIs></Polygon></Placemark>
</Document></kml>
