{"type": "FeatureCollection", "features": [{"type": "Feature", "geometry": {"type": "Point", "coordinates": [-59.721486, -34.477671]}, "properties": {"d": "Estancia de Doulon", "t": "Estancia"}}, {"type": "Feature", "geometry": {"type": "Point", "coordinates": [-59.746814, -34.513962]}, "properties": {"d": "Estancia de Alfonsin", "t": "Estancia"}}, {"type": "Feature", "geometry": {"type": "Point", "coordinates": [-59.720318, -34.515641]}, "properties": {"d": "Estancia de San Ramon", "t": "Estancia"}}, {"type": "Feature", "geometry": {"type": "Point", "coordinates": [-59.695486, -34.492351]}, "properties": {"d": "Cañon", "t": "Cañon"}}, {"type": "Feature", "geometry": {"type": "Point", "coordinates": [-59.696553, -34.523509]}, "properties": {"d": "Estancia de Casado", "t": "Estancia"}}, {"type": "Feature", "geometry": {"type": "Point", "coordinates": [-59.675375, -34.505652]}, "properties": {"d": "Puesto de Casado", "t": "Puesto"}}, {"type": "Feature", "geometry": {"type": "Point", "coordinates": [-59.678297, -34.563952]}, "properties": {"d": "Puesto de Costa", "t": "Puesto"}}, {"type": "Feature", "geometry": {"type": "Point", "coordinates": [-59.664738, -34.574771]}, "properties": {"d": "Puesto de LIma", "t": "Puesto"}}, {"type": "Feature", "geometry": {"type": "Point", "coordinates": [-59.628147, -34.539928]}, "properties": {"d": "Estancia de Lima", "t": "Estancia"}}, {"type": "Feature", "geometry": {"type": "Point", "coordinates": [-59.576636, -34.531402]}, "properties": {"d": "Azotea de Bernal", "t": "Azotea"}}, {"type": "Feature", "geometry": {"type": "Point", "coordinates": [-59.629457, -34.51084]}, "properties": {"d": "Estancia de Echeverria", "t": "Estancia"}}, {"type": "Feature", "geometry": {"type": "Point", "coordinates": [-59.652586, -34.498967]}, "properties": {"d": "Estancia de Casado", "t": "Estancia"}}, {"type": "Feature", "geometry": {"type": "Point", "coordinates": [-59.59489, -34.499767]}, "properties": {"d": "Estancia de Carry", "t": "Estancia"}}, {"type": "Feature", "geometry": {"type": "Point", "coordinates": [-59.573868, -34.508379]}, "properties": {"d": "Estancia de Acuña", "t": "Estancia"}}, {"type": "Feature", "geometry": {"type": "Point", "coordinates": [-59.559646, -34.519727]}, "properties": {"d": "Estancia de Kelly", "t": "Estancia"}}, {"type": "Feature", "geometry": {"type": "Point", "coordinates": [-59.564019, -34.536243]}, "properties": {"d": "Estancia de Bianchi", "t": "Estancia"}}, {"type": "Feature", "geometry": {"type": "Point", "coordinates": [-59.560731, -34.537859]}, "properties": {"d": "Graseria", "t": "Graseria"}}, {"type": "Feature", "geometry": {"type": "Point", "coordinates": [-59.557652, -34.540155]}, "properties": {"d": "Pulperia", "t": "Pulperia"}}, {"type": "Feature", "geometry": {"type": "Point", "coordinates": [-59.543453, -34.511001]}, "properties": {"d": "Población de Jose Monsalvo", "t": "Población"}}, {"type": "Feature", "geometry": {"type": "Point", "coordinates": [-59.56575, -34.49328]}, "properties": {"d": "Casa de Ciriaco Monsalvo", "t": "Casa"}}, {"type": "Feature", "geometry": {"type": "Point", "coordinates": [-59.5401, -34.484647]}, "properties": {"d": "Estancia de Crecencio Monsalvo", "t": "Estancia"}}, {"type": "Feature", "geometry": {"type": "Point", "coordinates": [-59.538859, -34.569592]}, "properties": {"d": "Monte de Avila", "t": "Monte"}}, {"type": "Feature", "geometry": {"type": "Point", "coordinates": [-59.586387, -34.440913]}, "properties": {"d": "Estancia de Bustos", "t": "Estancia"}}, {"type": "Feature", "geometry": {"type": "Point", "coordinates": [-59.603135, -34.445794]}, "properties": {"d": "Estancia de Maxwell", "t": "Estancia"}}, {"type": "Feature", "geometry": {"type": "Point", "coordinates": [-59.614711, -34.461462]}, "properties": {"d": "Población de Mariano Alegre", "t": "Población"}}, {"type": "Feature", "geometry": {"type": "Point", "coordinates": [-59.610908, -34.427292]}, "properties": {"d": "Población de Rodriguez", "t": "Población"}}, {"type": "Feature", "geometry": {"type": "Point", "coordinates": [-59.628144, -34.427153]}, "properties": {"d": "Estancia de Sala", "t": "Estancia"}}, {"type": "Feature", "geometry": {"type": "Point", "coordinates": [-59.675257, -34.409532]}, "properties": {"d": "Población de Emilio Gutierrez", "t": "Población"}}, {"type": "Feature", "geometry": {"type": "Point", "coordinates": [-59.66732, -34.414721]}, "properties": {"d": "Estancia de Potes", "t": "Estancia"}}, {"type": "Feature", "geometry": {"type": "Point", "coordinates": [-59.681206, -34.437145]}, "properties": {"d": "Población de Mansilla", "t": "Población"}}, {"type": "Feature", "geometry": {"type": "Point", "coordinates": [-59.667624, -34.455442]}, "properties": {"d": "Estancia de Caprile y Picasso", "t": "Estancia"}}, {"type": "Feature", "geometry": {"type": "Point", "coordinates": [-59.565661, -34.437891]}, "properties": {"d": "Casa del Finado Anastasio Gaute", "t": "Casa"}}, {"type": "Feature", "geometry": {"type": "Point", "coordinates": [-59.534313, -34.462285]}, "properties": {"d": "Casa de Juan Escobar", "t": "Casa"}}, {"type": "Feature", "geometry": {"type": "Point", "coordinates": [-59.508292, -34.489393]}, "properties": {"d": "Estancia de Acuña", "t": "Estancia"}}, {"type": "Feature", "geometry": {"type": "Point", "coordinates": [-59.477569, -34.482705]}, "properties": {"d": "Casa de Martín Galeano", "t": "Casa"}}, {"type": "Feature", "geometry": {"type": "Point", "coordinates": [-59.472183, -34.486734]}, "properties": {"d": "Casa de Joaquín Rodriguez", "t": "Casa"}}, {"type": "Feature", "geometry": {"type": "Point", "coordinates": [-59.444969, -34.478508]}, "properties": {"d": "Puesto de Mezquita", "t": "Puesto"}}, {"type": "Feature", "geometry": {"type": "Point", "coordinates": [-59.482594, -34.536954]}, "properties": {"d": "Estancia de Dowling", "t": "Estancia"}}, {"type": "Feature", "geometry": {"type": "Point", "coordinates": [-59.438853, -34.521901]}, "properties": {"d": "Pulperia", "t": "Pulperia"}}, {"type": "Feature", "geometry": {"type": "Point", "coordinates": [-59.444122, -34.536013]}, "properties": {"d": "Estancia de Gaynor (Santa María)", "t": "Estancia"}}, {"type": "Feature", "geometry": {"type": "Point", "coordinates": [-59.434724, -34.511847]}, "properties": {"d": "Estancia de Nugent", "t": "Estancia"}}, {"type": "Feature", "geometry": {"type": "Point", "coordinates": [-59.473494, -34.463582]}, "properties": {"d": "Puesto San Martín", "t": "Puesto"}}, {"type": "Feature", "geometry": {"type": "Point", "coordinates": [-59.462566, -34.450379]}, "properties": {"d": "Estancia de Saraví", "t": "Estancia"}}, {"type": "Feature", "geometry": {"type": "Point", "coordinates": [-59.460634, -34.434385]}, "properties": {"d": "Estancia de Casco", "t": "Estancia"}}, {"type": "Feature", "geometry": {"type": "Point", "coordinates": [-59.471634, -34.425942]}, "properties": {"d": "Puesto San Ignacio", "t": "Puesto"}}, {"type": "Feature", "geometry": {"type": "Point", "coordinates": [-59.529327, -34.395879]}, "properties": {"d": "Puesto de tomas Wallace", "t": "Puesto"}}, {"type": "Feature", "geometry": {"type": "Point", "coordinates": [-59.568507, -34.382707]}, "properties": {"d": "Puesto de Pedro Duffi", "t": "Puesto"}}, {"type": "Feature", "geometry": {"type": "Point", "coordinates": [-59.545815, -34.360432]}, "properties": {"d": "Tapera de Morgan", "t": "Tapera"}}, {"type": "Feature", "geometry": {"type": "Point", "coordinates": [-59.527056, -34.344343]}, "properties": {"d": "Estancia La Margarita", "t": "Estancia"}}, {"type": "Feature", "geometry": {"type": "Point", "coordinates": [-59.48532, -34.32063]}, "properties": {"d": "Estancia La Patria", "t": "Estancia"}}, {"type": "Feature", "geometry": {"type": "Point", "coordinates": [-59.470197, -34.358391]}, "properties": {"d": "Puesto Mozovivo", "t": "Puesto"}}, {"type": "Feature", "geometry": {"type": "Point", "coordinates": [-59.467245, -34.346799]}, "properties": {"d": "Estancia San Guillermo", "t": "Estancia"}}, {"type": "Feature", "geometry": {"type": "Point", "coordinates": [-59.463043, -34.348903]}, "properties": {"d": "Puesto el Oriental", "t": "Puesto"}}, {"type": "Feature", "geometry": {"type": "Point", "coordinates": [-59.45722, -34.349842]}, "properties": {"d": "Estancia El Paraiso", "t": "Estancia"}}, {"type": "Feature", "geometry": {"type": "Point", "coordinates": [-59.46431, -34.369172]}, "properties": {"d": "Estancia de Morgan", "t": "Estancia"}}, {"type": "Feature", "geometry": {"type": "Point", "coordinates": [-59.458956, -34.369342]}, "properties": {"d": "Estancia de Morgan", "t": "Estancia"}}, {"type": "Feature", "geometry": {"type": "Point", "coordinates": [-59.460778, -34.339244]}, "properties": {"d": "Estancia La Margarita", "t": "Estancia"}}, {"type": "Feature", "geometry": {"type": "Point", "coordinates": [-59.438841, -34.349374]}, "properties": {"d": "Posta", "t": "Posta"}}, {"type": "Feature", "geometry": {"type": "Point", "coordinates": [-59.43806, -34.361914]}, "properties": {"d": "Estancia San Cristobal", "t": "Estancia"}}, {"type": "Feature", "geometry": {"type": "Point", "coordinates": [-59.487217, -34.35306]}, "properties": {"d": "Puesto Santa María", "t": "Puesto"}}, {"type": "Feature", "geometry": {"type": "Point", "coordinates": [-59.435447, -34.335077]}, "properties": {"d": "Casa de Juan Figueroa", "t": "Casa"}}, {"type": "Feature", "geometry": {"type": "Point", "coordinates": [-59.437809, -34.329684]}, "properties": {"d": "Cañon", "t": "Cañon"}}, {"type": "Feature", "geometry": {"type": "Point", "coordinates": [-59.449897, -34.307782]}, "properties": {"d": "Puesto del Ingles", "t": "Puesto"}}, {"type": "Feature", "geometry": {"type": "Point", "coordinates": [-59.412728, -34.3469]}, "properties": {"d": "Estancia de Dios", "t": "Estancia"}}, {"type": "Feature", "geometry": {"type": "Point", "coordinates": [-59.418851, -34.309084]}, "properties": {"d": "Posta de Figueroa", "t": "Posta"}}, {"type": "Feature", "geometry": {"type": "Point", "coordinates": [-59.382371, -34.381705]}, "properties": {"d": "Puesto Santa Rosalía", "t": "Puesto"}}, {"type": "Feature", "geometry": {"type": "Point", "coordinates": [-59.373898, -34.348942]}, "properties": {"d": "Estancia La Paloma", "t": "Estancia"}}, {"type": "Feature", "geometry": {"type": "Point", "coordinates": [-59.39002, -34.376092]}, "properties": {"d": "Estancia de Rodriguez (Después Santa Elena)", "t": "Estancia"}}, {"type": "Feature", "geometry": {"type": "Point", "coordinates": [-59.381023, -34.327953]}, "properties": {"d": "Estancia Buena Fe", "t": "Estancia"}}, {"type": "Feature", "geometry": {"type": "Point", "coordinates": [-59.395799, -34.321588]}, "properties": {"d": "Estancia San Felipe", "t": "Estancia"}}, {"type": "Feature", "geometry": {"type": "Point", "coordinates": [-59.396012, -34.313967]}, "properties": {"d": "Estancia de Figueroa", "t": "Estancia"}}, {"type": "Feature", "geometry": {"type": "Point", "coordinates": [-59.38821, -34.319842]}, "properties": {"d": "Pulepería de los Figueroa", "t": "Pulperia"}}, {"type": "Feature", "geometry": {"type": "Point", "coordinates": [-59.427218, -34.289544]}, "properties": {"d": "Estancia de Durand", "t": "Estancia"}}, {"type": "Feature", "geometry": {"type": "Point", "coordinates": [-59.402295, -34.276547]}, "properties": {"d": "Estancia de Lazota", "t": "Estancia"}}, {"type": "Feature", "geometry": {"type": "Point", "coordinates": [-59.413906, -34.268587]}, "properties": {"d": "Paso de las Carretas", "t": "Paso"}}, {"type": "Feature", "geometry": {"type": "Point", "coordinates": [-59.367391, -34.244834]}, "properties": {"d": "Estancia Nueva (La Argentina)", "t": "Estancia"}}, {"type": "Feature", "geometry": {"type": "Point", "coordinates": [-59.332108, -34.284332]}, "properties": {"d": "Estancia vieja", "t": "Estancia"}}, {"type": "Feature", "geometry": {"type": "Point", "coordinates": [-59.369939, -34.306346]}, "properties": {"d": "Estancia de Luis Chapeaurrouge", "t": "Estancia"}}, {"type": "Feature", "geometry": {"type": "Point", "coordinates": [-59.355221, -34.325849]}, "properties": {"d": "Pulpería de Pasos", "t": "Pulperia"}}, {"type": "Feature", "geometry": {"type": "Point", "coordinates": [-59.327278, -34.314397]}, "properties": {"d": "Estancia de Scully", "t": "Estancia"}}, {"type": "Feature", "geometry": {"type": "Point", "coordinates": [-59.344956, -34.342351]}, "properties": {"d": "Pulpería de Francisco Magadan", "t": "Pulperia"}}, {"type": "Feature", "geometry": {"type": "Point", "coordinates": [-59.29836, -34.328996]}, "properties": {"d": "Puesto de O´Brien", "t": "Puesto"}}, {"type": "Feature", "geometry": {"type": "Point", "coordinates": [-59.289924, -34.327546]}, "properties": {"d": "Estancia de O´Brien", "t": "Estancia"}}, {"type": "Feature", "geometry": {"type": "Point", "coordinates": [-59.280644, -34.32609]}, "properties": {"d": "Puesto La Viuda", "t": "Puesto"}}, {"type": "Feature", "geometry": {"type": "Point", "coordinates": [-59.275101, -34.33219]}, "properties": {"d": "Estancia de O´Brien", "t": "Estancia"}}, {"type": "Feature", "geometry": {"type": "Point", "coordinates": [-59.210678, -34.378046]}, "properties": {"d": "Estancia La Paterna", "t": "Estancia"}}, {"type": "Feature", "geometry": {"type": "Point", "coordinates": [-59.235065, -34.394897]}, "properties": {"d": "Puesto del Pescador", "t": "Puesto"}}, {"type": "Feature", "geometry": {"type": "Point", "coordinates": [-59.258094, -34.392709]}, "properties": {"d": "Estancia del Sar", "t": "Estancia"}}, {"type": "Feature", "geometry": {"type": "Point", "coordinates": [-59.250875, -34.406592]}, "properties": {"d": "Puesto del Ombú", "t": "Puesto"}}, {"type": "Feature", "geometry": {"type": "Point", "coordinates": [-59.251576, -34.420389]}, "properties": {"d": "Puesto La Bonita", "t": "Puesto"}}, {"type": "Feature", "geometry": {"type": "Point", "coordinates": [-59.267309, -34.435777]}, "properties": {"d": "Pulpería", "t": "Pulperia"}}, {"type": "Feature", "geometry": {"type": "Point", "coordinates": [-59.277389, -34.425456]}, "properties": {"d": "Población de Rodriguez", "t": "Población"}}, {"type": "Feature", "geometry": {"type": "Point", "coordinates": [-59.294082, -34.420429]}, "properties": {"d": "Puesto de los Catalanes", "t": "Puesto"}}, {"type": "Feature", "geometry": {"type": "Point", "coordinates": [-59.288091, -34.453771]}, "properties": {"d": "Estancia El Tala", "t": "Estancia"}}, {"type": "Feature", "geometry": {"type": "Point", "coordinates": [-59.325816, -34.437559]}, "properties": {"d": "Estancia de Pascual Rodriguez", "t": "Estancia"}}, {"type": "Feature", "geometry": {"type": "Point", "coordinates": [-59.350495, -34.425209]}, "properties": {"d": "Posta de los Rodriguez", "t": "Posta"}}, {"type": "Feature", "geometry": {"type": "Point", "coordinates": [-59.345518, -34.4127]}, "properties": {"d": "Puesto San Lorenzo", "t": "Puesto"}}, {"type": "Feature", "geometry": {"type": "Point", "coordinates": [-59.355423, -34.402897]}, "properties": {"d": "Puesto Santa María", "t": "Puesto"}}, {"type": "Feature", "geometry": {"type": "Point", "coordinates": [-59.335624, -34.400688]}, "properties": {"d": "Estancia La Adelina", "t": "Estancia"}}, {"type": "Feature", "geometry": {"type": "Point", "coordinates": [-59.444184, -34.429745]}, "properties": {"d": "Estancia San Rafael", "t": "Estancia"}}, {"type": "Feature", "geometry": {"type": "Point", "coordinates": [-59.441136, -34.434856]}, "properties": {"d": "Estancia de Piquetto", "t": "Estancia"}}, {"type": "Feature", "geometry": {"type": "Point", "coordinates": [-59.455978, -34.445041]}, "properties": {"d": "Paso", "t": "Paso"}}]}