{"type": "FeatureCollection", "features": [{"type": "Feature", "geometry": {"type": "Polygon", "coordinates": [[[-59.412378, -34.39327], [-59.369922, -34.424666], [-59.375096, -34.429473], [-59.358061, -34.442798], [-59.379566, -34.45401], [-59.434565, -34.412956], [-59.433654, -34.410176], [-59.431997, -34.407548], [-59.429779, -34.405533], [-59.428304, -34.403522], [-59.428125, -34.402596], [-59.426085, -34.401661], [-59.423302, -34.400569], [-59.420701, -34.400094], [-59.419218, -34.399316], [-59.417548, -34.398845], [-59.414779, -34.395748], [-59.412378, -34.39327]]]}, "properties": {"n": 57, "tit": "BURGOS, BERNABELA (TESTAMENTARIA)", "ed": "SI", "y": 1870, "ag": "", "pc": 255, "ha": 2033.2}}, {"type": "Feature", "geometry": {"type": "Polygon", "coordinates": [[[-59.515309, -34.396548], [-59.454016, -34.440078], [-59.454754, -34.441109], [-59.454495, -34.442753], [-59.45548, -34.44399], [-59.455969, -34.44502], [-59.455957, -34.446871], [-59.457677, -34.449551], [-59.457917, -34.450785], [-59.458407, -34.451815], [-59.458398, -34.453254], [-59.460365, -34.456141], [-59.461822, -34.461081], [-59.465529, -34.463565], [-59.534806, -34.413687], [-59.515309, -34.396548]]]}, "properties": {"n": 58, "tit": "CASCO DE SARAVI, ANGELA (HEREDEROS)", "ed": "SI", "y": 1870, "ag": "", "pc": 376, "ha": 2121.5}}, {"type": "Feature", "geometry": {"type": "Polygon", "coordinates": [[[-59.393966, -34.461792], [-59.378391, -34.453542], [-59.349246, -34.491627], [-59.374291, -34.504093], [-59.384825, -34.489961], [-59.380743, -34.487937], [-59.398604, -34.463973], [-59.393966, -34.461792]]]}, "properties": {"n": 59, "tit": "DIAZ, JOSE", "ed": "SI", "y": 1870, "ag": "SAUBIDET", "pc": 178, "ha": 1183.4}}, {"type": "Feature", "geometry": {"type": "Polygon", "coordinates": [[[-59.414059, -34.473453], [-59.454616, -34.442072], [-59.454623, -34.441031], [-59.454071, -34.440104], [-59.452961, -34.438942], [-59.451851, -34.438012], [-59.450881, -34.436967], [-59.407518, -34.4703], [-59.414059, -34.473453]]]}, "properties": {"n": 60, "tit": "MUNICIPALIDAD \"EL SANTO\"", "ed": "SI", "y": 1871, "ag": "SCHUSTER", "pc": 3207, "ha": 349.5}}, {"type": "Feature", "geometry": {"type": "Polygon", "coordinates": [[[-59.692507, -34.56917], [-59.70115, -34.561516], [-59.644051, -34.509558], [-59.633418, -34.518024], [-59.692507, -34.56917]]]}, "properties": {"n": 61, "tit": "JUAN A. MARTINEZ", "ed": "SI", "y": 1871, "ag": "VIDELA", "pc": 16, "ha": 982.8}}, {"type": "Feature", "geometry": {"type": "Polygon", "coordinates": [[[-59.466941, -34.314367], [-59.439038, -34.300262], [-59.432045, -34.308659], [-59.423405, -34.304096], [-59.42741, -34.297947], [-59.416301, -34.29255], [-59.404308, -34.307088], [-59.452462, -34.33116], [-59.466941, -34.314367]]]}, "properties": {"n": 62, "tit": "DE FIGUEROA, LIVIA P.", "ed": "SI", "y": 1872, "ag": "SERNA", "pc": 10, "ha": 1040.8}}, {"type": "Feature", "geometry": {"type": "Polygon", "coordinates": [[[-59.767767, -34.509536], [-59.739287, -34.484192], [-59.695222, -34.5176], [-59.724431, -34.54367], [-59.767767, -34.509536]]]}, "properties": {"n": 63, "tit": "GUTIERREZ, ADVINCULA (HEREDEROS)", "ed": "SI", "y": 1872, "ag": "SCHUSTER", "pc": 26, "ha": 2136.4}}, {"type": "Feature", "geometry": {"type": "Polygon", "coordinates": [[[-59.427151, -34.55227], [-59.436841, -34.556335], [-59.476919, -34.504982], [-59.466798, -34.499822], [-59.427151, -34.55227]]]}, "properties": {"n": 64, "tit": "BASARTE, PEDRO ROMULO", "ed": "NO", "y": 1873, "ag": "SCHUSTER", "pc": 52, "ha": 710.9}}, {"type": "Feature", "geometry": {"type": "Polygon", "coordinates": [[[-59.508151, -34.524116], [-59.485699, -34.51306], [-59.446525, -34.561496], [-59.469862, -34.57366], [-59.508151, -34.524116]]]}, "properties": {"n": 65, "tit": "DE ACUÑA, CARMEN MONSALVO", "ed": "SI", "y": 1873, "ag": "SCHUSTER", "pc": 26, "ha": 1600.1}}, {"type": "Feature", "geometry": {"type": "Polygon", "coordinates": [[[-59.552701, -34.450544], [-59.49864, -34.490171], [-59.475267, -34.486783], [-59.490176, -34.502927], [-59.518777, -34.519124], [-59.563844, -34.513446], [-59.563432, -34.507962], [-59.575305, -34.517141], [-59.597911, -34.498944], [-59.585605, -34.487938], [-59.563005, -34.505037], [-59.552701, -34.450544]]]}, "properties": {"n": 66, "tit": "MONSALVO, FERNANDO", "ed": "SI", "y": 1874, "ag": "SCHUSTER", "pc": 114, "ha": 3626.8}}, {"type": "Feature", "geometry": {"type": "Polygon", "coordinates": [[[-59.418811, -34.399083], [-59.426096, -34.400629], [-59.428514, -34.402656], [-59.431534, -34.405694], [-59.434544, -34.410244], [-59.435135, -34.412767], [-59.439361, -34.417322], [-59.439946, -34.420852], [-59.44296, -34.424898], [-59.579703, -34.323638], [-59.542125, -34.30788], [-59.418811, -34.399083]]]}, "properties": {"n": 67, "tit": "TORRES, NATAL Y TORRES, MACARIO (HEREDEROS)", "ed": "NO", "y": 1874, "ag": "CASCALLARES", "pc": 127, "ha": 5688.8}}, {"type": "Feature", "geometry": {"type": "Polygon", "coordinates": [[[-59.458066, -34.490232], [-59.444751, -34.484502], [-59.441309, -34.487321], [-59.433462, -34.483316], [-59.418269, -34.501955], [-59.427481, -34.506818], [-59.402249, -34.539581], [-59.42068, -34.549309], [-59.445226, -34.516255], [-59.443543, -34.511711], [-59.443553, -34.510294], [-59.458066, -34.490232]]]}, "properties": {"n": 68, "tit": "WALLECE, ANA NUGENT DE (COHEREDEREOS)", "ed": "SI", "y": 1875, "ag": "SCHUSTER", "pc": 103, "ha": 1531.1}}, {"type": "Feature", "geometry": {"type": "Polygon", "coordinates": [[[-59.331795, -34.309874], [-59.323322, -34.301322], [-59.324693, -34.300763], [-59.312145, -34.289637], [-59.279875, -34.308729], [-59.309038, -34.335262], [-59.286323, -34.354126], [-59.292773, -34.359549], [-59.341256, -34.323249], [-59.343637, -34.32468], [-59.349139, -34.320173], [-59.372233, -34.293078], [-59.362367, -34.287924], [-59.331795, -34.309874]]]}, "properties": {"n": 69, "tit": "SCULLY, SANTIAGO", "ed": "SI", "y": 1875, "ag": "PICO", "pc": 313, "ha": 2554.4}}, {"type": "Feature", "geometry": {"type": "Polygon", "coordinates": [[[-59.640726, -34.547532], [-59.634965, -34.542891], [-59.629934, -34.54734], [-59.635312, -34.551503], [-59.640726, -34.547532]]]}, "properties": {"n": 70, "tit": "GOROSTIAGA, DOMINGO", "ed": "NO", "y": 1876, "ag": "SCHUSTER", "pc": 1, "ha": 47.3}}, {"type": "Feature", "geometry": {"type": "Polygon", "coordinates": [[[-59.389548, -34.295859], [-59.389838, -34.291182], [-59.391142, -34.288], [-59.392963, -34.284181], [-59.393504, -34.280144], [-59.371892, -34.293005], [-59.34914, -34.320102], [-59.363698, -34.326557], [-59.389548, -34.295859]]]}, "properties": {"n": 71, "tit": "SCULLY, SANTIAGO", "ed": "SI", "y": 1876, "ag": "PICO", "pc": 10, "ha": 735.2}}, {"type": "Feature", "geometry": {"type": "Polygon", "coordinates": [[[-59.371892, -34.293005], [-59.393504, -34.280144], [-59.393774, -34.278232], [-59.393538, -34.275467], [-59.392053, -34.26823], [-59.362201, -34.287215], [-59.371892, -34.293005]]]}, "properties": {"n": 72, "tit": "ZACARELO, ESTANISLAO", "ed": "NO", "y": 1876, "ag": "PICO", "pc": 6, "ha": 327.6}}, {"type": "Feature", "geometry": {"type": "Polygon", "coordinates": [[[-59.272468, -34.47403], [-59.274769, -34.475107], [-59.314496, -34.420481], [-59.310916, -34.418973], [-59.272468, -34.47403]]]}, "properties": {"n": 73, "tit": "QUEVEDO, PEDRO PABLO", "ed": "SI", "y": 1865, "ag": "MUÑIZ", "pc": 12, "ha": 215.9}}, {"type": "Feature", "geometry": {"type": "Polygon", "coordinates": [[[-59.52482, -34.597691], [-59.570098, -34.563085], [-59.574347, -34.566123], [-59.649535, -34.505885], [-59.607689, -34.471487], [-59.562482, -34.5051], [-59.554249, -34.45064], [-59.498037, -34.490741], [-59.47615, -34.486617], [-59.491256, -34.504824], [-59.446436, -34.562082], [-59.473764, -34.575811], [-59.479904, -34.568277], [-59.507241, -34.581494], [-59.52482, -34.597691]]]}, "properties": {"n": 74, "tit": "COLMENERO, RAMON", "ed": "SI", "y": 1840, "ag": "PRAT", "pc": 311, "ha": 14347.1}}, {"type": "Feature", "geometry": {"type": "Polygon", "coordinates": [[[-59.524725, -34.597442], [-59.570054, -34.563084], [-59.574478, -34.565667], [-59.6051, -34.540685], [-59.56364, -34.508128], [-59.563305, -34.513714], [-59.518184, -34.519047], [-59.479197, -34.568441], [-59.507197, -34.581494], [-59.524725, -34.597442]]]}, "properties": {"n": 75, "tit": "GARSETE DE MARTINEZ, DOMINGA", "ed": "SI", "y": 1862, "ag": "SAUVIDET", "pc": 126, "ha": 5863.4}}, {"type": "Feature", "geometry": {"type": "Polygon", "coordinates": [[[-59.664476, -34.545026], [-59.633418, -34.518024], [-59.574303, -34.566123], [-59.606155, -34.592731], [-59.664476, -34.545026]]]}, "properties": {"n": 76, "tit": "RODRIGUEZ, JOSE MARIA", "ed": "SI", "y": 1861, "ag": "EGUÍA", "pc": 48, "ha": 3136.7}}, {"type": "Feature", "geometry": {"type": "Polygon", "coordinates": [[[-59.61253, -34.573793], [-59.605282, -34.567609], [-59.590842, -34.579652], [-59.598038, -34.585799], [-59.61253, -34.573793]]]}, "properties": {"n": 77, "tit": "ACEYTUNO, SILVERIO", "ed": "NO", "y": 1861, "ag": "SAUBIDET", "pc": 6, "ha": 179.2}}, {"type": "Feature", "geometry": {"type": "Polygon", "coordinates": [[[-59.518994, -34.564474], [-59.492825, -34.549915], [-59.478256, -34.567953], [-59.498265, -34.577818], [-59.518994, -34.564474]]]}, "properties": {"n": 78, "tit": "MARTINEZ, NARCISO (HEREDEROS)", "ed": "NO", "y": 1873, "ag": "SCHUSTER", "pc": 11, "ha": 588.3}}, {"type": "Feature", "geometry": {"type": "Polygon", "coordinates": [[[-59.27819, -34.34266], [-59.25661, -34.324254], [-59.193661, -34.371086], [-59.196292, -34.373284], [-59.199016, -34.374436], [-59.200357, -34.37728], [-59.201358, -34.379838], [-59.203386, -34.382402], [-59.205424, -34.383833], [-59.20677, -34.38611], [-59.207438, -34.387815], [-59.20845, -34.389239], [-59.210497, -34.389819], [-59.212206, -34.38983], [-59.212193, -34.391248], [-59.213887, -34.392959], [-59.21472, -34.394035], [-59.27819, -34.34266]]]}, "properties": {"n": 79, "tit": "TORMY, GERONIMO", "ed": "SI", "y": 1855, "ag": "AISPURNA", "pc": 32, "ha": 2400.7}}, {"type": "Feature", "geometry": {"type": "Polygon", "coordinates": [[[-59.253971, -34.322255], [-59.191514, -34.368713], [-59.193661, -34.371086], [-59.25661, -34.324254], [-59.253971, -34.322255]]]}, "properties": {"n": 80, "tit": "TORMEY, GERONIMO", "ed": "NO", "y": 1860, "ag": "PICO", "pc": 0, "ha": 253.9}}, {"type": "Feature", "geometry": {"type": "Polygon", "coordinates": [[[-59.266135, -34.332117], [-59.25661, -34.324254], [-59.193661, -34.371086], [-59.195618, -34.372913], [-59.198268, -34.374403], [-59.20089, -34.378838], [-59.201762, -34.380562], [-59.266135, -34.332117]]]}, "properties": {"n": 81, "tit": "TORMEY, GERONIMO (TESTAMENTARIA)", "ed": "SI", "y": 1876, "ag": "IPARRAGUIRRE", "pc": 22, "ha": 984.0}}, {"type": "Feature", "geometry": {"type": "Polygon", "coordinates": [[[-59.472925, -34.497314], [-59.469775, -34.501328], [-59.48695, -34.510572], [-59.491972, -34.503742], [-59.472925, -34.497314]]]}, "properties": {"n": 82, "tit": "FRIAS, PASTOR (HEREDEROS)", "ed": "NO", "y": 1877, "ag": "SCHUSTER", "pc": 7, "ha": 132.7}}, {"type": "Feature", "geometry": {"type": "Polygon", "coordinates": [[[-59.4047, -34.38328], [-59.362246, -34.415442], [-59.365814, -34.418789], [-59.386513, -34.402831], [-59.388398, -34.404472], [-59.408528, -34.388849], [-59.408082, -34.387868], [-59.40631, -34.387123], [-59.4047, -34.38328]]]}, "properties": {"n": 83, "tit": "SILVA, ANTONIO", "ed": "SI", "y": 1877, "ag": "MUÑIZ", "pc": 19, "ha": 308.8}}, {"type": "Feature", "geometry": {"type": "Polygon", "coordinates": [[[-59.615516, -34.60026], [-59.627797, -34.611206], [-59.684982, -34.562887], [-59.664476, -34.545026], [-59.64509, -34.560893], [-59.653649, -34.568024], [-59.615516, -34.60026]]]}, "properties": {"n": 85, "tit": "COSTA, ZOILO", "ed": "SI", "y": 1878, "ag": "SCHUSTER", "pc": 0, "ha": 1513.1}}, {"type": "Feature", "geometry": {"type": "Polygon", "coordinates": [[[-59.491393, -34.503598], [-59.481498, -34.492621], [-59.474333, -34.486921], [-59.469376, -34.476385], [-59.465529, -34.463565], [-59.461822, -34.461081], [-59.433354, -34.483275], [-59.441584, -34.487472], [-59.444821, -34.484466], [-59.469914, -34.495038], [-59.466798, -34.499822], [-59.469775, -34.501328], [-59.472925, -34.497314], [-59.491393, -34.503598]]]}, "properties": {"n": 86, "tit": "MEZQUITA, MARCELINO Y RODRIGUEZ, CRUZ", "ed": "SI", "y": 0, "ag": "MUÑIZ", "pc": 30, "ha": 838.9}}, {"type": "Feature", "geometry": {"type": "Polygon", "coordinates": [[[-59.309222, -34.416851], [-59.302192, -34.427414], [-59.298476, -34.425756], [-59.274153, -34.45989], [-59.270819, -34.458233], [-59.263206, -34.469052], [-59.27258, -34.473817], [-59.311072, -34.418668], [-59.309222, -34.416851]]]}, "properties": {"n": 87, "tit": "QUEVEDO, JUAN E Y QUEVEDO DE QUEVEDO, MANUELA (T)", "ed": "SI", "y": 1878, "ag": "SCHUSTER", "pc": 0, "ha": 448.1}}, {"type": "Feature", "geometry": {"type": "Polygon", "coordinates": [[[-59.39503, -34.350482], [-59.392229, -34.346749], [-59.392249, -34.344049], [-59.391086, -34.341097], [-59.389422, -34.339239], [-59.297162, -34.410249], [-59.302604, -34.412303], [-59.304379, -34.412558], [-59.305844, -34.41453], [-59.307909, -34.415524], [-59.309357, -34.416795], [-59.39503, -34.350482]]]}, "properties": {"n": 88, "tit": "CUNNINGHAN, JUAN", "ed": "SI", "y": 1878, "ag": "DIAZ", "pc": 0, "ha": 1423.4}}, {"type": "Feature", "geometry": {"type": "Polygon", "coordinates": [[[-59.646661, -34.418898], [-59.630693, -34.405072], [-59.629914, -34.406612], [-59.627829, -34.409306], [-59.625751, -34.410281], [-59.625441, -34.413472], [-59.625427, -34.416663], [-59.623934, -34.419358], [-59.623033, -34.422056], [-59.623613, -34.424758], [-59.607562, -34.43649], [-59.607709, -34.43668], [-59.61449, -34.442776], [-59.616922, -34.441079], [-59.62444, -34.448674], [-59.652887, -34.427899], [-59.644607, -34.420445], [-59.646661, -34.418898]]]}, "properties": {"n": 89, "tit": "SALA, ANTONIO H", "ed": "SI", "y": 1879, "ag": "SCHUSTER", "pc": 0, "ha": 900.7}}, {"type": "Feature", "geometry": {"type": "Polygon", "coordinates": [[[-59.275407, -34.305856], [-59.253868, -34.322175], [-59.263788, -34.329698], [-59.288597, -34.351955], [-59.309462, -34.336387], [-59.275407, -34.305856]]]}, "properties": {"n": 90, "tit": "O´BRIEN, JUAN", "ed": "SI", "y": 1879, "ag": "GIRONDO", "pc": 0, "ha": 1195.1}}, {"type": "Feature", "geometry": {"type": "Polygon", "coordinates": [[[-59.448481, -34.433912], [-59.447605, -34.431945], [-59.446731, -34.429731], [-59.444382, -34.42653], [-59.443503, -34.425053], [-59.440561, -34.422094], [-59.439991, -34.418654], [-59.439114, -34.416932], [-59.435288, -34.413232], [-59.379576, -34.454107], [-59.405759, -34.467481], [-59.417447, -34.458292], [-59.417146, -34.457677], [-59.448481, -34.433912]]]}, "properties": {"n": 91, "tit": "PIQUETTO, JOSE", "ed": "SI", "y": 1879, "ag": "MUÑIZ", "pc": 0, "ha": 1600.1}}, {"type": "Feature", "geometry": {"type": "Polygon", "coordinates": [[[-59.456974, -34.449169], [-59.456689, -34.44745], [-59.4567, -34.445732], [-59.455233, -34.443516], [-59.453774, -34.442762], [-59.414947, -34.473692], [-59.420792, -34.476869], [-59.456974, -34.449169]]]}, "properties": {"n": 91, "tit": "PIQUETTO, JOSE", "ed": "SI", "y": 1879, "ag": "MUÑIZ", "pc": 0, "ha": 323.8}}, {"type": "Feature", "geometry": {"type": "Polygon", "coordinates": [[[-59.709165, -34.55566], [-59.650152, -34.504129], [-59.644051, -34.509558], [-59.70115, -34.561516], [-59.709165, -34.55566]]]}, "properties": {"n": 92, "tit": "CUELLO DE MIRO, EUSTAQUIA", "ed": "SI", "y": 1878, "ag": "MUÑIZ", "pc": 29, "ha": 705.5}}, {"type": "Feature", "geometry": {"type": "Polygon", "coordinates": [[[-59.415398, -34.41773], [-59.418905, -34.420287], [-59.419848, -34.423977], [-59.43477, -34.412805], [-59.433507, -34.409696], [-59.432518, -34.408172], [-59.431192, -34.407199], [-59.430739, -34.406649], [-59.415398, -34.41773]]]}, "properties": {"n": 93, "tit": "VELOZ Y LOPEZ, ANICETA", "ed": "SI", "y": 0, "ag": "MUÑIZ", "pc": 0, "ha": 141.4}}, {"type": "Feature", "geometry": {"type": "Polygon", "coordinates": [[[-59.446759, -34.520025], [-59.444074, -34.518563], [-59.423912, -34.545379], [-59.426404, -34.547048], [-59.446759, -34.520025]]]}, "properties": {"n": 94, "tit": "OJUEZ, CEFERINO", "ed": "NO", "y": 1878, "ag": "SCHUSTER", "pc": 0, "ha": 103.3}}, {"type": "Feature", "geometry": {"type": "Polygon", "coordinates": [[[-59.469914, -34.495038], [-59.458852, -34.490286], [-59.443553, -34.510294], [-59.443543, -34.511711], [-59.444628, -34.513501], [-59.444552, -34.514551], [-59.445226, -34.516255], [-59.444074, -34.518563], [-59.446759, -34.520025], [-59.426274, -34.547126], [-59.429517, -34.548864], [-59.469914, -34.495038]]]}, "properties": {"n": 95, "tit": "LEZCANO, SOLANO Y OTROS", "ed": "SI", "y": 1878, "ag": "SCHUSTER", "pc": 0, "ha": 495.3}}, {"type": "Feature", "geometry": {"type": "Polygon", "coordinates": [[[-59.500863, -34.40615], [-59.490561, -34.413902], [-59.510162, -34.431781], [-59.520541, -34.424288], [-59.500863, -34.40615]]]}, "properties": {"n": 96, "tit": "BOTANA, RUPERTO", "ed": "SI", "y": 1879, "ag": "SCHUSTER", "pc": 0, "ha": 342.6}}, {"type": "Feature", "geometry": {"type": "Polygon", "coordinates": [[[-59.267863, -34.398811], [-59.253635, -34.391082], [-59.243402, -34.386252], [-59.228533, -34.404936], [-59.232831, -34.409358], [-59.235489, -34.410994], [-59.236642, -34.409304], [-59.241019, -34.411594], [-59.239236, -34.413831], [-59.24164, -34.418385], [-59.243885, -34.421792], [-59.247778, -34.42741], [-59.267863, -34.398811]]]}, "properties": {"n": 97, "tit": "TORMY, GERONIMO", "ed": "SI", "y": 1879, "ag": "IPARRAGUIRRE", "pc": 0, "ha": 804.6}}, {"type": "Feature", "geometry": {"type": "Polygon", "coordinates": [[[-59.27195, -34.400807], [-59.267863, -34.398811], [-59.231563, -34.451734], [-59.235238, -34.453594], [-59.27195, -34.400807]]]}, "properties": {"n": 98, "tit": "CASTRO, SALVADOR", "ed": "SI", "y": 1879, "ag": "IPARRAGUIRRE", "pc": 10, "ha": 281.0}}, {"type": "Feature", "geometry": {"type": "Polygon", "coordinates": [[[-59.55702, -34.447904], [-59.553232, -34.450859], [-59.554391, -34.456893], [-59.574736, -34.473768], [-59.597672, -34.455507], [-59.588697, -34.447645], [-59.571548, -34.460541], [-59.55702, -34.447904]]]}, "properties": {"n": 99, "tit": "BUSTOS, MATILDE Y SUSANA Y JUANA", "ed": "NO", "y": 1879, "ag": "SCHUSTER", "pc": 0, "ha": 518.6}}, {"type": "Feature", "geometry": {"type": "Polygon", "coordinates": [[[-59.684982, -34.562887], [-59.664476, -34.545026], [-59.64509, -34.560893], [-59.653649, -34.568024], [-59.615144, -34.600406], [-59.627797, -34.611206], [-59.684982, -34.562887]]]}, "properties": {"n": 107, "tit": "COSTA, ZOILO Y LIMA, J MARIA (HEREDEROS)", "ed": "SI", "y": 1880, "ag": "SCHUSTER", "pc": 0, "ha": 1519.4}}, {"type": "Feature", "geometry": {"type": "Polygon", "coordinates": [[[-59.692112, -34.568985], [-59.684982, -34.562887], [-59.646778, -34.595177], [-59.652748, -34.599922], [-59.692112, -34.568985]]]}, "properties": {"n": 124, "tit": "UNZUE, SATURNINO E", "ed": "SI", "y": 1882, "ag": "SCHUSTER", "pc": 0, "ha": 424.8}}, {"type": "Feature", "geometry": {"type": "Polygon", "coordinates": [[[-59.448864, -34.433893], [-59.416874, -34.457716], [-59.417352, -34.458317], [-59.404497, -34.468643], [-59.41387, -34.473482], [-59.43787, -34.455417], [-59.446566, -34.45326], [-59.446596, -34.448665], [-59.45578, -34.44551], [-59.454595, -34.442309], [-59.454608, -34.440311], [-59.450296, -34.436097], [-59.448864, -34.433893]]]}, "properties": {"n": 127, "tit": "PUEBLO Y EJIDO SAN ANDRES DE GILES", "ed": "SI", "y": 1884, "ag": "ORLANDINI", "pc": 4879, "ha": 611.0}}, {"type": "Feature", "geometry": {"type": "Polygon", "coordinates": [[[-59.517337, -34.471675], [-59.486045, -34.385109], [-59.377523, -34.408784], [-59.410443, -34.498286], [-59.517337, -34.471675]]]}, "properties": {"n": 127, "tit": "PROYECTO DIVISIÓN QUINTAS CHACRAS EJIDO", "ed": "SI", "y": 1884, "ag": "ORLANDINI", "pc": 0, "ha": 10490.6}}, {"type": "Feature", "geometry": {"type": "MultiPolygon", "coordinates": [[[[-59.716334, -34.54976], [-59.716495, -34.549904], [-59.716635, -34.549513], [-59.716334, -34.54976]]], [[[-59.657977, -34.497698], [-59.650457, -34.503911], [-59.709165, -34.55566], [-59.716334, -34.54976], [-59.657977, -34.497698]]]]}, "properties": {"n": 137, "tit": "CASADO, JOSE MARIA", "ed": "SI", "y": 1883, "ag": "SCHUSTER", "pc": 84, "ha": 749.4}}, {"type": "Feature", "geometry": {"type": "Polygon", "coordinates": [[[-59.491393, -34.503598], [-59.481498, -34.492621], [-59.474654, -34.486651], [-59.469376, -34.476385], [-59.453951, -34.48818], [-59.469914, -34.495038], [-59.466798, -34.499822], [-59.469775, -34.501328], [-59.472925, -34.497314], [-59.491393, -34.503598]]]}, "properties": {"n": 145, "tit": "R DE LASCANO, MARIA DE LA CRUZ", "ed": "SI", "y": 1886, "ag": "ORLANDINI", "pc": 0, "ha": 349.0}}, {"type": "Feature", "geometry": {"type": "Polygon", "coordinates": [[[-59.54365, -34.426647], [-59.589137, -34.391764], [-59.543384, -34.351347], [-59.510537, -34.33171], [-59.448447, -34.377005], [-59.456584, -34.384586], [-59.44174, -34.395573], [-59.451034, -34.404095], [-59.465538, -34.392914], [-59.468542, -34.395697], [-59.477884, -34.388782], [-59.484013, -34.394841], [-59.507071, -34.379001], [-59.540639, -34.409947], [-59.531864, -34.416111], [-59.54365, -34.426647]]]}, "properties": {"n": 168, "tit": "MORGAN, JORGE Y MORGAN, EDUARDO (HEREDEROS)", "ed": "NO", "y": 1894, "ag": "DODDS", "pc": 0, "ha": 6073.8}}, {"type": "Feature", "geometry": {"type": "Polygon", "coordinates": [[[-59.419368, -34.314626], [-59.391741, -34.341535], [-59.391704, -34.343353], [-59.392012, -34.345219], [-59.394269, -34.348694], [-59.395354, -34.350989], [-59.39685, -34.356387], [-59.440132, -34.325069], [-59.419368, -34.314626]]]}, "properties": {"n": 175, "tit": "FIGUEROA, JUAN Y MORALES DE FIGUEROA, F", "ed": "NO", "y": 1897, "ag": "WEIGEL", "pc": 0, "ha": 844.7}}, {"type": "Feature", "geometry": {"type": "Polygon", "coordinates": [[[-59.375344, -34.239859], [-59.300917, -34.264903], [-59.308432, -34.285573], [-59.324693, -34.300763], [-59.355255, -34.280841], [-59.361003, -34.286307], [-59.372292, -34.292989], [-59.393504, -34.280144], [-59.393802, -34.274912], [-59.392864, -34.271445], [-59.391934, -34.266912], [-59.392268, -34.26505], [-59.393888, -34.262927], [-59.393924, -34.257866], [-59.392335, -34.255728], [-59.390753, -34.25279], [-59.387885, -34.250112], [-59.383099, -34.246626], [-59.381189, -34.244751], [-59.377981, -34.244735], [-59.375344, -34.239859]]]}, "properties": {"n": 182, "tit": "ROCA, JULIO A", "ed": "SI", "y": 1899, "ag": "GONZALEZ", "pc": 0, "ha": 3479.5}}, {"type": "Feature", "geometry": {"type": "Polygon", "coordinates": [[[-59.460271, -34.364524], [-59.440144, -34.347551], [-59.443785, -34.344916], [-59.434602, -34.337176], [-59.422141, -34.346132], [-59.425815, -34.35084], [-59.397821, -34.373369], [-59.399182, -34.375352], [-59.3998, -34.378818], [-59.400752, -34.38042], [-59.404271, -34.382568], [-59.405851, -34.386305], [-59.408406, -34.388448], [-59.41095, -34.392189], [-59.41346, -34.394186], [-59.444144, -34.371178], [-59.447929, -34.373727], [-59.460271, -34.364524]]]}, "properties": {"n": 186, "tit": "DOONER DE WHEELER, MARIA", "ed": "SI", "y": 1903, "ag": "DOYLE", "pc": 0, "ha": 1612.6}}, {"type": "Feature", "geometry": {"type": "Polygon", "coordinates": [[[-59.524725, -34.597442], [-59.601749, -34.538383], [-59.599248, -34.535976], [-59.52132, -34.594527], [-59.524725, -34.597442]]]}, "properties": {"n": 191, "tit": "UNZUE, SATURNINO E HIJOS", "ed": "NO", "y": 1862, "ag": "SAUBIDET", "pc": 0, "ha": 386.7}}, {"type": "Feature", "geometry": {"type": "Polygon", "coordinates": [[[-59.670224, -34.487913], [-59.616251, -34.441651], [-59.593884, -34.458835], [-59.648717, -34.505339], [-59.670224, -34.487913]]]}, "properties": {"n": 84, "tit": "GUTIERREZ DE ALEGRE, ANGELA", "ed": "SI", "y": 1878, "ag": "SCHUSTER", "pc": 0, "ha": 1996.5}}, {"type": "Feature", "geometry": {"type": "Polygon", "coordinates": [[[-59.450228, -34.330223], [-59.427048, -34.318388], [-59.394269, -34.348694], [-59.396108, -34.35616], [-59.398321, -34.360965], [-59.39797, -34.365225], [-59.397913, -34.373215], [-59.439241, -34.34145], [-59.436982, -34.339183], [-59.450228, -34.330223]]]}, "properties": {"n": 56, "tit": "DE DIOS, ROSENDO", "ed": "SI", "y": 1870, "ag": "IPARRAGUIRRE", "pc": 31, "ha": 1301.6}}, {"type": "Feature", "geometry": {"type": "Polygon", "coordinates": [[[-59.692507, -34.56917], [-59.633252, -34.517811], [-59.574478, -34.565667], [-59.632848, -34.615517], [-59.692507, -34.56917]]]}, "properties": {"n": 55, "tit": "LIMA, MARIANO", "ed": "SI", "y": 1840, "ag": "PRAT", "pc": 130, "ha": 5870.7}}, {"type": "Feature", "geometry": {"type": "Polygon", "coordinates": [[[-59.599187, -34.535712], [-59.579431, -34.520024], [-59.506595, -34.573193], [-59.498518, -34.577688], [-59.506602, -34.581917], [-59.52132, -34.594527], [-59.599187, -34.535712]]]}, "properties": {"n": 54, "tit": "AVILA DE LA TORRE, MODESTA Y VALLADARES Y UNZUE", "ed": "SI", "y": 1869, "ag": "DILLON", "pc": 49, "ha": 2504.3}}, {"type": "Feature", "geometry": {"type": "Polygon", "coordinates": [[[-59.768441, -34.453626], [-59.730509, -34.433262], [-59.69148, -34.462616], [-59.727197, -34.493362], [-59.739356, -34.484092], [-59.734133, -34.479417], [-59.768441, -34.453626]]]}, "properties": {"n": 53, "tit": "GUTIERREZ DE MOLINA, PETRONA", "ed": "SI", "y": 1869, "ag": "SCHUSTER", "pc": 24, "ha": 2243.0}}, {"type": "Feature", "geometry": {"type": "Polygon", "coordinates": [[[-59.687337, -34.459262], [-59.652887, -34.427899], [-59.62444, -34.448674], [-59.661628, -34.48055], [-59.687337, -34.459262]]]}, "properties": {"n": 52, "tit": "CAPRILE Y PICASSO", "ed": "SI", "y": 1869, "ag": "SCHUSTER", "pc": 12, "ha": 1640.7}}, {"type": "Feature", "geometry": {"type": "Polygon", "coordinates": [[[-59.311456, -34.418304], [-59.308901, -34.416425], [-59.304754, -34.412673], [-59.302509, -34.412127], [-59.300902, -34.412118], [-59.261522, -34.468351], [-59.273054, -34.473481], [-59.311456, -34.418304]]]}, "properties": {"n": 51, "tit": "QUEVEDO DE RODRIGUEZ, FAUSTINA Y QUEVEDO, M Y F", "ed": "SI", "y": 1865, "ag": "MUÑIZ", "pc": 67, "ha": 860.2}}, {"type": "Feature", "geometry": {"type": "Polygon", "coordinates": [[[-59.279137, -34.476713], [-59.318819, -34.422793], [-59.310916, -34.418973], [-59.273054, -34.473481], [-59.279137, -34.476713]]]}, "properties": {"n": 50, "tit": "SILVA, ANTONIO B", "ed": "SI", "y": 1885, "ag": "MUÑIZ", "pc": 16, "ha": 525.9}}, {"type": "Feature", "geometry": {"type": "Polygon", "coordinates": [[[-59.326204, -34.426744], [-59.318819, -34.422793], [-59.279474, -34.477134], [-59.286378, -34.481073], [-59.326204, -34.426744]]]}, "properties": {"n": 49, "tit": "QUEVEDO, PEDRO ANTONIO", "ed": "SI", "y": 1865, "ag": "MUÑIZ", "pc": 20, "ha": 555.0}}, {"type": "Feature", "geometry": {"type": "Polygon", "coordinates": [[[-59.401448, -34.467533], [-59.362402, -34.519659], [-59.40242, -34.539559], [-59.441947, -34.487218], [-59.401448, -34.467533]]]}, "properties": {"n": 45, "tit": "LESCANO, FRANCISCO", "ed": "NO", "y": 1866, "ag": "SAUBIDET", "pc": 202, "ha": 2934.6}}, {"type": "Feature", "geometry": {"type": "Polygon", "coordinates": [[[-59.524529, -34.421409], [-59.465576, -34.463943], [-59.476106, -34.486617], [-59.49864, -34.490171], [-59.555768, -34.448881], [-59.524529, -34.421409]]]}, "properties": {"n": 48, "tit": "GALEANO, MARTIN", "ed": "SI", "y": 1865, "ag": "MUÑIZ", "pc": 194, "ha": 3203.4}}, {"type": "Feature", "geometry": {"type": "Polygon", "coordinates": [[[-59.378265, -34.453259], [-59.310916, -34.418973], [-59.272294, -34.473328], [-59.338459, -34.506604], [-59.378265, -34.453259]]]}, "properties": {"n": 47, "tit": "RODRIGUEZ, TADEO (HEREDEROS)", "ed": "SI", "y": 1868, "ag": "DIFFERT", "pc": 374, "ha": 5014.7}}, {"type": "Feature", "geometry": {"type": "Polygon", "coordinates": [[[-59.497634, -34.408775], [-59.483089, -34.395622], [-59.44263, -34.425308], [-59.446058, -34.427526], [-59.446294, -34.429374], [-59.447272, -34.431225], [-59.448252, -34.432871], [-59.449478, -34.434723], [-59.450457, -34.436574], [-59.452428, -34.438019], [-59.454398, -34.439875], [-59.497634, -34.408775]]]}, "properties": {"n": 46, "tit": "CASCO, FRANCISCO ANTONIO", "ed": "SI", "y": 1868, "ag": "DIFFERT", "pc": 307, "ha": 1000.7}}, {"type": "Feature", "geometry": {"type": "Polygon", "coordinates": [[[-59.398141, -34.373584], [-59.398241, -34.361844], [-59.397513, -34.359788], [-59.396055, -34.356088], [-59.395583, -34.353007], [-59.39535, -34.350954], [-59.363249, -34.37562], [-59.372353, -34.382643], [-59.321531, -34.423821], [-59.328356, -34.427896], [-59.398141, -34.373584]]]}, "properties": {"n": 44, "tit": "TORRES, LORENZO", "ed": "SI", "y": 1867, "ag": "MEYRELLES", "pc": 31, "ha": 1195.8}}, {"type": "Feature", "geometry": {"type": "Polygon", "coordinates": [[[-59.385206, -34.321451], [-59.320542, -34.37049], [-59.329975, -34.378956], [-59.388884, -34.335134], [-59.387066, -34.333472], [-59.386604, -34.328955], [-59.385631, -34.326693], [-59.385652, -34.32382], [-59.385206, -34.321451]]]}, "properties": {"n": 43, "tit": "FIGUEROA DE ALVAREZ, BENEDICTA Y CUFRE, VALENTIN", "ed": "SI", "y": 1867, "ag": "MEYRELLES", "pc": 30, "ha": 999.4}}, {"type": "Feature", "geometry": {"type": "Polygon", "coordinates": [[[-59.289955, -34.410629], [-59.287324, -34.409125], [-59.250343, -34.461237], [-59.253338, -34.462819], [-59.289955, -34.410629]]]}, "properties": {"n": 42, "tit": "AFFRE, PABLO", "ed": "NO", "y": 1866, "ag": "GONNET", "pc": 26, "ha": 207.5}}, {"type": "Feature", "geometry": {"type": "Polygon", "coordinates": [[[-59.507022, -34.377309], [-59.579308, -34.323613], [-59.559565, -34.315335], [-59.492491, -34.365759], [-59.507022, -34.377309]]]}, "properties": {"n": 41, "tit": "BUSTOS DE MARTINEZ, CARMEN Y DUGGAN, MIGUEL", "ed": "SI", "y": 1867, "ag": "GONNET", "pc": 25, "ha": 1615.8}}, {"type": "Feature", "geometry": {"type": "Polygon", "coordinates": [[[-59.543384, -34.351347], [-59.510537, -34.33171], [-59.41878, -34.39899], [-59.42223, -34.399715], [-59.427168, -34.401585], [-59.428636, -34.404054], [-59.430846, -34.406732], [-59.432318, -34.40879], [-59.434278, -34.411877], [-59.435251, -34.414344], [-59.43821, -34.416205], [-59.438693, -34.418054], [-59.477994, -34.38909], [-59.483898, -34.395066], [-59.543384, -34.351347]]]}, "properties": {"n": 40, "tit": "DUGGAN, MIGUEL (PROPIEDAD PUBLICA DENUNCIADA POR)", "ed": "SI", "y": 1866, "ag": "GONNET", "pc": 87, "ha": 3789.4}}, {"type": "Feature", "geometry": {"type": "Polygon", "coordinates": [[[-59.469899, -34.495139], [-59.45853, -34.49037], [-59.416499, -34.547424], [-59.427627, -34.551991], [-59.469899, -34.495139]]]}, "properties": {"n": 39, "tit": "NORIEGA, MANUEL", "ed": "NO", "y": 1866, "ag": "SAUBIDET", "pc": 58, "ha": 853.0}}, {"type": "Feature", "geometry": {"type": "Polygon", "coordinates": [[[-59.589137, -34.391764], [-59.543384, -34.351347], [-59.507111, -34.378255], [-59.540114, -34.409467], [-59.531864, -34.416111], [-59.54365, -34.426647], [-59.589137, -34.391764]]]}, "properties": {"n": 38, "tit": "MORGAN, EDUARDO", "ed": "SI", "y": 1866, "ag": "COQUET", "pc": 41, "ha": 3000.1}}, {"type": "Feature", "geometry": {"type": "Polygon", "coordinates": [[[-59.553232, -34.450859], [-59.497993, -34.490741], [-59.474654, -34.486651], [-59.491972, -34.503742], [-59.446392, -34.562082], [-59.469728, -34.574273], [-59.514591, -34.517404], [-59.518184, -34.519047], [-59.563305, -34.513714], [-59.553232, -34.450859]]]}, "properties": {"n": 37, "tit": "MONSALVO DE ACUÑA, CARMEN", "ed": "SI", "y": 1866, "ag": "FREMIOT", "pc": 121, "ha": 5015.8}}, {"type": "Feature", "geometry": {"type": "Polygon", "coordinates": [[[-59.253752, -34.462617], [-59.26168, -34.467888], [-59.30108, -34.411736], [-59.2968, -34.410344], [-59.294141, -34.412517], [-59.290854, -34.410856], [-59.253752, -34.462617]]]}, "properties": {"n": 36, "tit": "ORMACHEA, JUAN", "ed": "SI", "y": 1866, "ag": "GONNET", "pc": 40, "ha": 618.8}}, {"type": "Feature", "geometry": {"type": "Polygon", "coordinates": [[[-59.358061, -34.442798], [-59.417548, -34.398845], [-59.416056, -34.397565], [-59.414749, -34.395644], [-59.413767, -34.394545], [-59.410489, -34.391246], [-59.407216, -34.3874], [-59.405255, -34.384654], [-59.340596, -34.434163], [-59.358061, -34.442798]]]}, "properties": {"n": 35, "tit": "ROIS, JOSE (HEREDEROS)", "ed": "SI", "y": 1865, "ag": "FREMIOT", "pc": 70, "ha": 1427.6}}, {"type": "Feature", "geometry": {"type": "Polygon", "coordinates": [[[-59.531864, -34.416111], [-59.465576, -34.463943], [-59.476106, -34.486617], [-59.497993, -34.490741], [-59.562585, -34.443563], [-59.531864, -34.416111]]]}, "properties": {"n": 34, "tit": "GALEANO, SOTERO", "ed": "SI", "y": 1865, "ag": "MUÑIZ", "pc": 199, "ha": 3568.9}}, {"type": "Feature", "geometry": {"type": "Polygon", "coordinates": [[[-59.506929, -34.379087], [-59.443503, -34.425053], [-59.446225, -34.427253], [-59.446866, -34.430265], [-59.448167, -34.433281], [-59.449147, -34.434927], [-59.451442, -34.437399], [-59.454297, -34.440101], [-59.521384, -34.3922], [-59.506929, -34.379087]]]}, "properties": {"n": 33, "tit": "CUCULLU, ISIDRO", "ed": "SI", "y": 1865, "ag": "FREMIOT", "pc": 368, "ha": 1548.0}}, {"type": "Feature", "geometry": {"type": "Polygon", "coordinates": [[[-59.4047, -34.38328], [-59.402307, -34.381631], [-59.400007, -34.380251], [-59.400021, -34.378336], [-59.399207, -34.375971], [-59.330651, -34.429137], [-59.340596, -34.434163], [-59.4047, -34.38328]]]}, "properties": {"n": 32, "tit": "DUARTE, JOSE GABRIEL", "ed": "SI", "y": 1862, "ag": "GONNET", "pc": 41, "ha": 818.8}}, {"type": "Feature", "geometry": {"type": "Polygon", "coordinates": [[[-59.267863, -34.398811], [-59.253635, -34.391082], [-59.29493, -34.357804], [-59.284688, -34.348249], [-59.220653, -34.398939], [-59.222955, -34.399774], [-59.224933, -34.40006], [-59.227218, -34.402811], [-59.228846, -34.405283], [-59.231131, -34.408033], [-59.234737, -34.410792], [-59.238996, -34.414375], [-59.218282, -34.44501], [-59.225038, -34.448431], [-59.243885, -34.421792], [-59.24833, -34.427958], [-59.267863, -34.398811]]]}, "properties": {"n": 31, "tit": "DEL SAR, PEDRO", "ed": "NO", "y": 1863, "ag": "PICO", "pc": 38, "ha": 2074.5}}, {"type": "Feature", "geometry": {"type": "Polygon", "coordinates": [[[-59.375018, -34.329319], [-59.370835, -34.326663], [-59.368676, -34.328047], [-59.364242, -34.325894], [-59.363254, -34.326802], [-59.346365, -34.318966], [-59.253635, -34.391082], [-59.279434, -34.40351], [-59.375018, -34.329319]]]}, "properties": {"n": 30, "tit": "MONSALVO,ANTONIO", "ed": "SI", "y": 1861, "ag": "PICO", "pc": 87, "ha": 3110.5}}, {"type": "Feature", "geometry": {"type": "Polygon", "coordinates": [[[-59.543384, -34.351347], [-59.506849, -34.37884], [-59.540385, -34.409267], [-59.531864, -34.416111], [-59.562585, -34.443563], [-59.6077, -34.408146], [-59.543384, -34.351347]]]}, "properties": {"n": 29, "tit": "GUERRICO, PLACIDO (HEREDEROS)", "ed": "SI", "y": 1861, "ag": "EGUÍA", "pc": 122, "ha": 4440.4}}, {"type": "Feature", "geometry": {"type": "Polygon", "coordinates": [[[-59.469899, -34.495139], [-59.458066, -34.490232], [-59.419584, -34.54354], [-59.430211, -34.548925], [-59.469899, -34.495139]]]}, "properties": {"n": 28, "tit": "NORIEGA,MANUEL", "ed": "NO", "y": 1865, "ag": "SAUBIDET", "pc": 59, "ha": 817.4}}, {"type": "Feature", "geometry": {"type": "Polygon", "coordinates": [[[-59.275407, -34.305856], [-59.253868, -34.322175], [-59.288597, -34.351955], [-59.309038, -34.335262], [-59.275407, -34.305856]]]}, "properties": {"n": 27, "tit": "O´BRIEN,JUAN", "ed": "SI", "y": 1860, "ag": "PICO", "pc": 86, "ha": 1210.2}}, {"type": "Feature", "geometry": {"type": "Polygon", "coordinates": [[[-59.278231, -34.343138], [-59.21472, -34.394035], [-59.215888, -34.39672], [-59.21786, -34.397553], [-59.219583, -34.39859], [-59.220653, -34.398939], [-59.284688, -34.348249], [-59.278231, -34.343138]]]}, "properties": {"n": 26, "tit": "MARTINES, JUSTINA", "ed": "NO", "y": 1860, "ag": "PICO", "pc": 8, "ha": 652.2}}, {"type": "Feature", "geometry": {"type": "Polygon", "coordinates": [[[-59.510537, -34.33171], [-59.491049, -34.322266], [-59.492804, -34.320137], [-59.481692, -34.314105], [-59.478908, -34.316077], [-59.468977, -34.311442], [-59.452462, -34.33116], [-59.450228, -34.330223], [-59.436982, -34.339183], [-59.444026, -34.344121], [-59.440144, -34.347551], [-59.462694, -34.366566], [-59.510537, -34.33171]]]}, "properties": {"n": 25, "tit": "MOONNEY, GUILLERMO", "ed": "SI", "y": 1858, "ag": "EGUÍA", "pc": 32, "ha": 2057.5}}, {"type": "Feature", "geometry": {"type": "Polygon", "coordinates": [[[-59.768245, -34.453339], [-59.677957, -34.40503], [-59.677096, -34.400906], [-59.6733, -34.39926], [-59.646209, -34.418701], [-59.630693, -34.405072], [-59.629091, -34.407433], [-59.625777, -34.410432], [-59.625431, -34.413988], [-59.624755, -34.417542], [-59.623747, -34.421369], [-59.623613, -34.424758], [-59.607709, -34.43668], [-59.61449, -34.442776], [-59.593884, -34.458835], [-59.648717, -34.505339], [-59.665177, -34.491779], [-59.724431, -34.54367], [-59.76752, -34.50933], [-59.734133, -34.479417], [-59.768245, -34.453339]]]}, "properties": {"n": 24, "tit": "GUTIERREZ, BERNARDO", "ed": "SI", "y": 1859, "ag": "SCHUSTER", "pc": 199, "ha": 13509.0}}, {"type": "Feature", "geometry": {"type": "Polygon", "coordinates": [[[-59.398012, -34.373476], [-59.398461, -34.361731], [-59.321531, -34.423821], [-59.328356, -34.427896], [-59.398012, -34.373476]]]}, "properties": {"n": 23, "tit": "TORRES, LORENZO", "ed": "SI", "y": 1858, "ag": "DIFFERT", "pc": 20, "ha": 780.6}}, {"type": "Feature", "geometry": {"type": "Polygon", "coordinates": [[[-59.461955, -34.366904], [-59.440144, -34.347551], [-59.443785, -34.344916], [-59.434602, -34.337176], [-59.398985, -34.36548], [-59.398915, -34.375329], [-59.400535, -34.379441], [-59.404473, -34.382469], [-59.409369, -34.390154], [-59.413965, -34.393733], [-59.416575, -34.398122], [-59.41878, -34.39899], [-59.461955, -34.366904]]]}, "properties": {"n": 22, "tit": "WHEELER, PATRICIO", "ed": "SI", "y": 1858, "ag": "DIFFERT", "pc": 61, "ha": 2090.2}}, {"type": "Feature", "geometry": {"type": "Polygon", "coordinates": [[[-59.392332, -34.255868], [-59.323185, -34.301975], [-59.33179, -34.309782], [-59.362201, -34.287215], [-59.372292, -34.292989], [-59.34914, -34.320102], [-59.363698, -34.326557], [-59.4125, -34.26818], [-59.407911, -34.268945], [-59.404949, -34.268384], [-59.403315, -34.266461], [-59.402342, -34.264267], [-59.400049, -34.262341], [-59.397746, -34.261782], [-59.39677, -34.260136], [-59.394483, -34.257389], [-59.392332, -34.255868]]]}, "properties": {"n": 21, "tit": "ALENDE SOSA, DIONISIA", "ed": "SI", "y": 1858, "ag": "DIFFERT", "pc": 49, "ha": 2189.3}}, {"type": "Feature", "geometry": {"type": "Polygon", "coordinates": [[[-59.484013, -34.394841], [-59.543384, -34.351347], [-59.539236, -34.348868], [-59.574729, -34.321621], [-59.559565, -34.315335], [-59.492962, -34.365415], [-59.499901, -34.3725], [-59.477994, -34.38909], [-59.484013, -34.394841]]]}, "properties": {"n": 20, "tit": "MORGAN, EDUARDO", "ed": "SI", "y": 1856, "ag": "KUHR", "pc": 33, "ha": 1709.9}}, {"type": "Feature", "geometry": {"type": "Polygon", "coordinates": [[[-59.767823, -34.509561], [-59.734133, -34.479417], [-59.768441, -34.453626], [-59.677957, -34.40503], [-59.677096, -34.400906], [-59.6733, -34.39926], [-59.646209, -34.418701], [-59.593884, -34.458835], [-59.648717, -34.505339], [-59.665177, -34.491779], [-59.724431, -34.54367], [-59.767823, -34.509561]]]}, "properties": {"n": 19, "tit": "ROCHA, ANTONIO", "ed": "SI", "y": 1839, "ag": "EGUÍA", "pc": 213, "ha": 13008.4}}, {"type": "Feature", "geometry": {"type": "Polygon", "coordinates": [[[-59.346855, -34.31858], [-59.405537, -34.268199], [-59.404104, -34.266783], [-59.403395, -34.265243], [-59.401913, -34.263721], [-59.400509, -34.26275], [-59.342814, -34.313942], [-59.346855, -34.31858]]]}, "properties": {"n": 18, "tit": "SOSA, JOSE MARIA", "ed": "NO", "y": 1838, "ag": "HIDALGO", "pc": 24, "ha": 536.3}}, {"type": "Feature", "geometry": {"type": "Polygon", "coordinates": [[[-59.449031, -34.43377], [-59.447318, -34.431341], [-59.446467, -34.42936], [-59.445152, -34.427609], [-59.443035, -34.425662], [-59.44128, -34.423608], [-59.440265, -34.421626], [-59.439454, -34.419713], [-59.438727, -34.417733], [-59.436449, -34.414962], [-59.43477, -34.412805], [-59.379576, -34.454107], [-59.405759, -34.467481], [-59.417825, -34.458327], [-59.417146, -34.457677], [-59.449031, -34.43377]]]}, "properties": {"n": 17, "tit": "PIVIDAL, RAFAEL", "ed": "SI", "y": 1854, "ag": "EGUÍA", "pc": 356, "ha": 1621.0}}, {"type": "Feature", "geometry": {"type": "Polygon", "coordinates": [[[-59.454363, -34.442658], [-59.4141, -34.473455], [-59.420792, -34.476869], [-59.457333, -34.448365], [-59.456274, -34.446179], [-59.456183, -34.445209], [-59.455895, -34.44448], [-59.454826, -34.443829], [-59.454363, -34.442658]]]}, "properties": {"n": 17, "tit": "PIVIDAL, RAFAEL", "ed": "SI", "y": 1854, "ag": "EGUÍA", "pc": 1428, "ha": 325.3}}, {"type": "Feature", "geometry": {"type": "Polygon", "coordinates": [[[-59.648717, -34.505339], [-59.606987, -34.469954], [-59.562804, -34.506634], [-59.6051, -34.540685], [-59.648717, -34.505339]]]}, "properties": {"n": 15, "tit": "ECHEVERRIA, JOSE MARIA", "ed": "SI", "y": 1839, "ag": "EGUÍA", "pc": 61, "ha": 3094.1}}, {"type": "Feature", "geometry": {"type": "Polygon", "coordinates": [[[-59.767823, -34.509561], [-59.734133, -34.479417], [-59.768441, -34.453626], [-59.677957, -34.40503], [-59.677354, -34.391278], [-59.593884, -34.458835], [-59.648717, -34.505339], [-59.657977, -34.497698], [-59.716495, -34.549904], [-59.767823, -34.509561]]]}, "properties": {"n": 13, "tit": "QUIROGA, HIPOLITO", "ed": "NO", "y": 1827, "ag": "LEMOINE", "pc": 203, "ha": 13961.1}}, {"type": "Feature", "geometry": {"type": "Polygon", "coordinates": [[[-59.646661, -34.418898], [-59.622023, -34.397561], [-59.553232, -34.450859], [-59.562804, -34.506634], [-59.606987, -34.469954], [-59.593884, -34.458835], [-59.646661, -34.418898]]]}, "properties": {"n": 12, "tit": "FERNANDEZ, CELEDONIO", "ed": "SI", "y": 1826, "ag": "YSACH", "pc": 258, "ha": 4071.7}}, {"type": "Feature", "geometry": {"type": "Polygon", "coordinates": [[[-59.553232, -34.450859], [-59.497764, -34.490608], [-59.474654, -34.486651], [-59.491955, -34.504233], [-59.518184, -34.519047], [-59.564327, -34.513861], [-59.553232, -34.450859]]]}, "properties": {"n": 11, "tit": "AGUIRRE, GUILLERMO", "ed": "SI", "y": 1826, "ag": "YSACH", "pc": 108, "ha": 3125.3}}, {"type": "Feature", "geometry": {"type": "Polygon", "coordinates": [[[-59.404196, -34.307193], [-59.386441, -34.329257], [-59.386927, -34.333337], [-59.388884, -34.335134], [-59.3901, -34.338772], [-59.391741, -34.341535], [-59.392055, -34.345108], [-59.393391, -34.347876], [-59.395566, -34.351348], [-59.396337, -34.356865], [-59.440132, -34.325069], [-59.404196, -34.307193]]]}, "properties": {"n": 10, "tit": "CARRASCO DE FIGUEROA, ISABEL", "ed": "SI", "y": 1840, "ag": "EGUÍA", "pc": 33, "ha": 1336.7}}, {"type": "Feature", "geometry": {"type": "Polygon", "coordinates": [[[-59.320542, -34.37049], [-59.278609, -34.404142], [-59.294724, -34.412165], [-59.333288, -34.381928], [-59.320542, -34.37049]]]}, "properties": {"n": 9, "tit": "MALDONADO, FRANCISCO", "ed": "SI", "y": 1856, "ag": "SCHUSTER", "pc": 24, "ha": 869.8}}, {"type": "Feature", "geometry": {"type": "Polygon", "coordinates": [[[-59.343738, -34.390507], [-59.359303, -34.403824], [-59.398012, -34.373476], [-59.397498, -34.367602], [-59.398436, -34.361828], [-59.396337, -34.356865], [-59.395354, -34.350989], [-59.343738, -34.390507]]]}, "properties": {"n": 8, "tit": "PIVIDAL, R Y GALEANO", "ed": "NO", "y": 1838, "ag": "HIDALGO", "pc": 29, "ha": 1162.1}}, {"type": "Feature", "geometry": {"type": "Polygon", "coordinates": [[[-59.27211, -34.400918], [-59.235238, -34.453594], [-59.250343, -34.461237], [-59.287324, -34.409125], [-59.27211, -34.400918]]]}, "properties": {"n": 7, "tit": "LAMADRID DE CASTRO, LORENZA", "ed": "SI", "y": 1863, "ag": "PICO", "pc": 1053, "ha": 1108.4}}, {"type": "Feature", "geometry": {"type": "Polygon", "coordinates": [[[-59.309357, -34.416795], [-59.395354, -34.350989], [-59.394124, -34.348707], [-59.39266, -34.34668], [-59.392055, -34.345108], [-59.391745, -34.342481], [-59.391741, -34.341535], [-59.3901, -34.338772], [-59.297162, -34.410249], [-59.300914, -34.41233], [-59.303174, -34.412731], [-59.309357, -34.416795]]]}, "properties": {"n": 6, "tit": "RIESTRA, ALVARO DE LA", "ed": "SI", "y": 1854, "ag": "EGUÍA", "pc": 192, "ha": 1461.4}}, {"type": "Feature", "geometry": {"type": "Polygon", "coordinates": [[[-59.454297, -34.440101], [-59.454363, -34.442658], [-59.455895, -34.44448], [-59.456274, -34.446179], [-59.457333, -34.448365], [-59.458198, -34.45039], [-59.458376, -34.453057], [-59.460113, -34.455974], [-59.462422, -34.460995], [-59.465576, -34.463943], [-59.540639, -34.409947], [-59.521384, -34.3922], [-59.454297, -34.440101]]]}, "properties": {"n": 5, "tit": "CASCO DE SARAVI, ANGELA", "ed": "SI", "y": 1856, "ag": "EGUÍA", "pc": 382, "ha": 2329.8}}, {"type": "Feature", "geometry": {"type": "Polygon", "coordinates": [[[-59.491393, -34.503598], [-59.481741, -34.492883], [-59.474654, -34.486651], [-59.469376, -34.476385], [-59.453951, -34.48818], [-59.469914, -34.495038], [-59.491393, -34.503598]]]}, "properties": {"n": 4, "tit": "RODRIGUEZ, JOAQUIN", "ed": "SI", "y": 1855, "ag": "EGUÍA", "pc": 15, "ha": 317.7}}, {"type": "Feature", "geometry": {"type": "Polygon", "coordinates": [[[-59.553232, -34.450859], [-59.497764, -34.490608], [-59.474654, -34.486651], [-59.481498, -34.492621], [-59.491955, -34.504233], [-59.518184, -34.519047], [-59.564327, -34.513861], [-59.553232, -34.450859]]]}, "properties": {"n": 3, "tit": "ROMERO DE MONSALVO, PASCUALA", "ed": "SI", "y": 1838, "ag": "EGUÍA", "pc": 97, "ha": 3116.6}}, {"type": "Feature", "geometry": {"type": "Polygon", "coordinates": [[[-59.462694, -34.366566], [-59.510537, -34.33171], [-59.498922, -34.326082], [-59.453446, -34.358769], [-59.462694, -34.366566]]]}, "properties": {"n": 2, "tit": "MACONE, JORGE", "ed": "SI", "y": 1846, "ag": "PRAT", "pc": 6, "ha": 679.3}}, {"type": "Feature", "geometry": {"type": "Polygon", "coordinates": [[[-59.524725, -34.597442], [-59.570098, -34.563085], [-59.601749, -34.538383], [-59.562804, -34.506634], [-59.563305, -34.513714], [-59.518184, -34.519047], [-59.479197, -34.568441], [-59.506602, -34.581917], [-59.524725, -34.597442]]]}, "properties": {"n": 190, "tit": "D. MARTINEZ Y J. MAIDANA", "ed": "SI", "y": 1829, "ag": "PRAT", "pc": 0, "ha": 5719.3}}, {"type": "Feature", "geometry": {"type": "Polygon", "coordinates": [[[-59.437567, -34.326777], [-59.445077, -34.333708], [-59.450228, -34.330223], [-59.452709, -34.33168], [-59.466941, -34.314367], [-59.439038, -34.300262], [-59.432045, -34.308659], [-59.423405, -34.304096], [-59.42741, -34.297947], [-59.416301, -34.29255], [-59.404196, -34.307193], [-59.386441, -34.329257], [-59.386927, -34.333337], [-59.388884, -34.335134], [-59.389969, -34.33838], [-59.391741, -34.341535], [-59.419368, -34.314626], [-59.427048, -34.318388], [-59.440132, -34.325069], [-59.437567, -34.326777]]]}, "properties": {"n": 189, "tit": "J. J. FIGUEROA Y ELINA FIGUEROA", "ed": "SI", "y": 1923, "ag": "CAGNONI", "pc": 0, "ha": 1586.7}}, {"type": "Feature", "geometry": {"type": "Polygon", "coordinates": [[[-59.469196, -34.532907], [-59.452077, -34.523968], [-59.448737, -34.528043], [-59.446899, -34.524715], [-59.425896, -34.551281], [-59.446392, -34.562082], [-59.467896, -34.53468], [-59.469196, -34.532907]]]}, "properties": {"n": 188, "tit": "HEREDEROS T. GAYNOR, M LEAVY DE GAYNOR Y OTRO", "ed": "SI", "y": 1903, "ag": "DOYLE", "pc": 0, "ha": 841.0}}, {"type": "Feature", "geometry": {"type": "Polygon", "coordinates": [[[-59.469914, -34.495038], [-59.464247, -34.492604], [-59.444074, -34.518563], [-59.449983, -34.521605], [-59.469914, -34.495038]]]}, "properties": {"n": 187, "tit": "M GAYNOR Y HERED. CRISTOBAL GAYNOR", "ed": "SI", "y": 1903, "ag": "DOYLE", "pc": 0, "ha": 210.8}}, {"type": "Feature", "geometry": {"type": "Polygon", "coordinates": [[[-59.535668, -34.516983], [-59.554538, -34.514962], [-59.547368, -34.471587], [-59.528691, -34.473312], [-59.535668, -34.516983]]]}, "properties": {"n": 185, "tit": "SUCESIÓN JOSÉ MONSALVO", "ed": "NO", "y": 1902, "ag": "SABATHER", "pc": 0, "ha": 846.1}}, {"type": "Feature", "geometry": {"type": "Polygon", "coordinates": [[[-59.606987, -34.469954], [-59.585054, -34.488168], [-59.598432, -34.499421], [-59.620219, -34.481179], [-59.606987, -34.469954]]]}, "properties": {"n": 184, "tit": "CATALINA W. DE CARRY", "ed": "NO", "y": 1900, "ag": "CASTELLANOS", "pc": 0, "ha": 497.5}}, {"type": "Feature", "geometry": {"type": "Polygon", "coordinates": [[[-59.366493, -34.326987], [-59.370479, -34.32922], [-59.371893, -34.327739], [-59.374951, -34.328972], [-59.385206, -34.321451], [-59.386441, -34.329257], [-59.416301, -34.29255], [-59.424255, -34.296414], [-59.423169, -34.293605], [-59.424114, -34.288918], [-59.423827, -34.286391], [-59.423025, -34.282814], [-59.422575, -34.278698], [-59.419948, -34.275114], [-59.418747, -34.272834], [-59.417365, -34.271529], [-59.416983, -34.270156], [-59.414863, -34.268702], [-59.412218, -34.268227], [-59.406734, -34.268722], [-59.404373, -34.267706], [-59.403616, -34.265723], [-59.401457, -34.263523], [-59.397239, -34.260926], [-59.39661, -34.259945], [-59.393922, -34.258172], [-59.39448, -34.262288], [-59.392034, -34.266356], [-59.391702, -34.268454], [-59.392109, -34.271767], [-59.392125, -34.275556], [-59.392236, -34.278227], [-59.392528, -34.280735], [-59.393243, -34.282092], [-59.393399, -34.285739], [-59.392158, -34.289016], [-59.390865, -34.293593], [-59.390542, -34.296117], [-59.366493, -34.326987]]]}, "properties": {"n": 183, "tit": "TESTAMNTARIA N. O´DONNELL Y E. MURTHAG", "ed": "SI", "y": 1899, "ag": "WEIGEL", "pc": 45, "ha": 1588.6}}, {"type": "Feature", "geometry": {"type": "Polygon", "coordinates": [[[-59.726459, -34.493922], [-59.687337, -34.459262], [-59.661628, -34.48055], [-59.670224, -34.487913], [-59.665177, -34.491779], [-59.695222, -34.5176], [-59.726459, -34.493922]]]}, "properties": {"n": 181, "tit": "HEREDEROS M. GUTIERREZ DE ALFONSIN", "ed": "SI", "y": 1899, "ag": "MEINEKE", "pc": 0, "ha": 1962.4}}, {"type": "Feature", "geometry": {"type": "Polygon", "coordinates": [[[-59.484013, -34.394852], [-59.477884, -34.388793], [-59.438923, -34.418267], [-59.440136, -34.421323], [-59.440076, -34.422308], [-59.439743, -34.423044], [-59.440349, -34.423552], [-59.440721, -34.424039], [-59.440787, -34.424661], [-59.441651, -34.425131], [-59.441904, -34.42585], [-59.484013, -34.394852]]]}, "properties": {"n": 180, "tit": "SUSANA CASCO DE SOSA", "ed": "NO", "y": 1899, "ag": "GUEVARA", "pc": 0, "ha": 424.4}}, {"type": "Feature", "geometry": {"type": "Polygon", "coordinates": [[[-59.510537, -34.33171], [-59.491049, -34.322266], [-59.492804, -34.320137], [-59.481243, -34.314434], [-59.478908, -34.316077], [-59.468977, -34.311442], [-59.452714, -34.331492], [-59.450228, -34.330223], [-59.436982, -34.339183], [-59.443785, -34.344916], [-59.440144, -34.347551], [-59.462694, -34.366566], [-59.510537, -34.33171]]]}, "properties": {"n": 179, "tit": "MARIA MURRAY DE MOONEY", "ed": "SI", "y": 1898, "ag": "KLAPPENBACH", "pc": 0, "ha": 2050.9}}, {"type": "Feature", "geometry": {"type": "Polygon", "coordinates": [[[-59.480022, -34.560284], [-59.45646, -34.549159], [-59.447502, -34.562584], [-59.470389, -34.574254], [-59.480022, -34.560284]]]}, "properties": {"n": 174, "tit": "GUILLERMO ACUÑA", "ed": "SI", "y": 1897, "ag": "MEINEKE", "pc": 0, "ha": 431.7}}, {"type": "Feature", "geometry": {"type": "Polygon", "coordinates": [[[-59.362403, -34.445323], [-59.360294, -34.444244], [-59.319795, -34.497799], [-59.322017, -34.498927], [-59.362403, -34.445323]]]}, "properties": {"n": 173, "tit": "PETRONA DIAZ DE GONZALEZ", "ed": "SI", "y": 1896, "ag": "MEINEKE", "pc": 0, "ha": 163.7}}, {"type": "Feature", "geometry": {"type": "Polygon", "coordinates": [[[-59.247778, -34.42741], [-59.243885, -34.421792], [-59.225038, -34.448431], [-59.231563, -34.451734], [-59.247778, -34.42741]]]}, "properties": {"n": 172, "tit": "JOSÉ MANUEL DOBARRO", "ed": "NO", "y": 1896, "ag": "BOURDET", "pc": 0, "ha": 215.1}}, {"type": "Feature", "geometry": {"type": "Polygon", "coordinates": [[[-59.252271, -34.433482], [-59.250978, -34.431116], [-59.235238, -34.453594], [-59.237498, -34.454738], [-59.252271, -34.433482]]]}, "properties": {"n": 172, "tit": "JOSÉ MANUEL DOBARRO", "ed": "NO", "y": 1896, "ag": "BOURDET", "pc": 0, "ha": 66.9}}, {"type": "Feature", "geometry": {"type": "Polygon", "coordinates": [[[-59.590484, -34.421666], [-59.55702, -34.447904], [-59.57252, -34.461353], [-59.566111, -34.466616], [-59.574736, -34.473768], [-59.597672, -34.455507], [-59.588697, -34.447645], [-59.605377, -34.434764], [-59.590484, -34.421666]]]}, "properties": {"n": 171, "tit": "PABLO BUSTOS", "ed": "SI", "y": 1896, "ag": "SPOTTI", "pc": 0, "ha": 1187.4}}, {"type": "Feature", "geometry": {"type": "Polygon", "coordinates": [[[-59.593884, -34.458835], [-59.574736, -34.473768], [-59.554391, -34.456893], [-59.562804, -34.506634], [-59.606987, -34.469954], [-59.593884, -34.458835]]]}, "properties": {"n": 170, "tit": "MARÍA C. DE CAREY", "ed": "NO", "y": 1895, "ag": "ARANGUREN", "pc": 0, "ha": 1168.6}}, {"type": "Feature", "geometry": {"type": "Polygon", "coordinates": [[[-59.757675, -34.44785], [-59.733811, -34.435042], [-59.712978, -34.450245], [-59.730883, -34.467235], [-59.757675, -34.44785]]]}, "properties": {"n": 166, "tit": "BAUTISTA YRIBERRY Y MARIANA CAMADRO", "ed": "SI", "y": 1894, "ag": "ORLANDINI", "pc": 0, "ha": 729.9}}, {"type": "Feature", "geometry": {"type": "Polygon", "coordinates": [[[-59.293847, -34.412854], [-59.333288, -34.381928], [-59.320542, -34.37049], [-59.298798, -34.387708], [-59.278609, -34.404142], [-59.293847, -34.412854]]]}, "properties": {"n": 165, "tit": "HERACLIO HILLNER Y AGUSTIN SINTAS", "ed": "SI", "y": 1893, "ag": "CHAPEAUROUGE", "pc": 0, "ha": 883.3}}, {"type": "Feature", "geometry": {"type": "Polygon", "coordinates": [[[-59.388274, -34.469991], [-59.372084, -34.461833], [-59.349336, -34.491673], [-59.369946, -34.502063], [-59.380625, -34.487956], [-59.37665, -34.485938], [-59.388274, -34.469991]]]}, "properties": {"n": 164, "tit": "FERNANDO DIAZ", "ed": "SI", "y": 1892, "ag": "ARANGUREN", "pc": 0, "ha": 773.0}}, {"type": "Feature", "geometry": {"type": "Polygon", "coordinates": [[[-59.293847, -34.412854], [-59.289955, -34.410629], [-59.286242, -34.415904], [-59.295622, -34.419849], [-59.296963, -34.417944], [-59.29189, -34.415858], [-59.293847, -34.412854]]]}, "properties": {"n": 163, "tit": "HIPOLITO MOREYRA Y FELICIANA ORMAECHEA", "ed": "NO", "y": 1892, "ag": "KLAPPENBACH", "pc": 0, "ha": 41.2}}, {"type": "Feature", "geometry": {"type": "Polygon", "coordinates": [[[-59.392332, -34.255868], [-59.325497, -34.300247], [-59.336984, -34.305943], [-59.392573, -34.270038], [-59.391955, -34.266248], [-59.393069, -34.264345], [-59.394735, -34.262426], [-59.394439, -34.259876], [-59.394353, -34.258501], [-59.392332, -34.255868]]]}, "properties": {"n": 162, "tit": "DIONISIA ALEM DE SOSA", "ed": "SI", "y": 1891, "ag": "SAUBERAN", "pc": 0, "ha": 874.2}}, {"type": "Feature", "geometry": {"type": "Polygon", "coordinates": [[[-59.466904, -34.314389], [-59.438903, -34.299962], [-59.432058, -34.308624], [-59.423088, -34.304051], [-59.427704, -34.297829], [-59.415805, -34.292607], [-59.404196, -34.307193], [-59.452714, -34.331492], [-59.466904, -34.314389]]]}, "properties": {"n": 161, "tit": "FELIPE FIGUEROA", "ed": "SI", "y": 1857, "ag": "KUHR", "pc": 0, "ha": 1061.3}}, {"type": "Feature", "geometry": {"type": "Polygon", "coordinates": [[[-59.300914, -34.41233], [-59.297162, -34.410249], [-59.293847, -34.412854], [-59.289955, -34.410629], [-59.253006, -34.462584], [-59.261657, -34.46807], [-59.300914, -34.41233]]]}, "properties": {"n": 160, "tit": "SUCESIÓN JUAN ORMAECHEA Y VICTORIA REYES", "ed": "NO", "y": 1891, "ag": "KLAPPENBACH", "pc": 0, "ha": 677.5}}, {"type": "Feature", "geometry": {"type": "Polygon", "coordinates": [[[-59.553232, -34.450859], [-59.547069, -34.455666], [-59.535446, -34.445152], [-59.508542, -34.463904], [-59.504917, -34.46098], [-59.47323, -34.483658], [-59.474654, -34.486651], [-59.481498, -34.492621], [-59.485578, -34.497023], [-59.497764, -34.490608], [-59.519544, -34.474892], [-59.525109, -34.480603], [-59.529767, -34.480272], [-59.528675, -34.473409], [-59.556738, -34.470775], [-59.553232, -34.450859]]]}, "properties": {"n": 159, "tit": "TESTAMENTARIA MERCEDES DE LA TORRE DE BUTTERFILL", "ed": "SI", "y": 1891, "ag": "ORLANDINI", "pc": 0, "ha": 1733.9}}, {"type": "Feature", "geometry": {"type": "Polygon", "coordinates": [[[-59.429722, -34.548614], [-59.407098, -34.537263], [-59.403664, -34.541618], [-59.410656, -34.545661], [-59.427158, -34.552213], [-59.429722, -34.548614]]]}, "properties": {"n": 158, "tit": "LUIS VERNET", "ed": "SI", "y": 1891, "ag": "MONTEVERDE", "pc": 0, "ha": 137.5}}, {"type": "Feature", "geometry": {"type": "Polygon", "coordinates": [[[-59.382906, -34.492426], [-59.362505, -34.519465], [-59.36848, -34.522494], [-59.388558, -34.495336], [-59.382906, -34.492426]]]}, "properties": {"n": 157, "tit": "DIONISIO ACUÑA", "ed": "SI", "y": 1890, "ag": "ARANGUREN", "pc": 0, "ha": 221.7}}, {"type": "Feature", "geometry": {"type": "Polygon", "coordinates": [[[-59.658551, -34.477914], [-59.636921, -34.495341], [-59.648717, -34.505339], [-59.670224, -34.487913], [-59.658551, -34.477914]]]}, "properties": {"n": 156, "tit": "OOSTENDORP Y CIA.", "ed": "NO", "y": 1890, "ag": "MUÑIZ", "pc": 0, "ha": 428.1}}, {"type": "Feature", "geometry": {"type": "Polygon", "coordinates": [[[-59.3921, -34.268805], [-59.361244, -34.286966], [-59.372292, -34.292989], [-59.393966, -34.279479], [-59.393513, -34.277013], [-59.393305, -34.275124], [-59.392573, -34.270038], [-59.3921, -34.268805]]]}, "properties": {"n": 155, "tit": "SILVIO SOSA", "ed": "NO", "y": 1890, "ag": "VARANGOT", "pc": 0, "ha": 329.5}}, {"type": "Feature", "geometry": {"type": "Polygon", "coordinates": [[[-59.372746, -34.407542], [-59.366241, -34.401886], [-59.33974, -34.4227], [-59.337352, -34.420901], [-59.328356, -34.427896], [-59.340596, -34.434163], [-59.363217, -34.416491], [-59.362246, -34.415442], [-59.372746, -34.407542]]]}, "properties": {"n": 154, "tit": "TESTAMENTARIA MAURICIO DUARTE DE RODRIGUEZ", "ed": "NO", "y": 1890, "ag": "ORLANDINI", "pc": 0, "ha": 438.4}}, {"type": "Feature", "geometry": {"type": "Polygon", "coordinates": [[[-59.562804, -34.506634], [-59.564327, -34.513861], [-59.531601, -34.517483], [-59.561568, -34.533532], [-59.579431, -34.520024], [-59.562804, -34.506634]]]}, "properties": {"n": 153, "tit": "HEREDEROS PATRICIO KELLY", "ed": "SI", "y": 1889, "ag": "ARANGUREN", "pc": 0, "ha": 533.6}}, {"type": "Feature", "geometry": {"type": "Polygon", "coordinates": [[[-59.733811, -34.435042], [-59.719252, -34.427223], [-59.704117, -34.43841], [-59.71322, -34.446989], [-59.69148, -34.462616], [-59.710111, -34.479362], [-59.722857, -34.469807], [-59.724909, -34.471556], [-59.730883, -34.467235], [-59.712978, -34.450245], [-59.733811, -34.435042]]]}, "properties": {"n": 152, "tit": "PETRONA GUTIERREZ DE MOLINA", "ed": "NO", "y": 1889, "ag": "MUÑIZ", "pc": 0, "ha": 934.6}}, {"type": "Feature", "geometry": {"type": "Polygon", "coordinates": [[[-59.25661, -34.324254], [-59.193661, -34.371086], [-59.197801, -34.374229], [-59.20137, -34.379423], [-59.205892, -34.384671], [-59.207632, -34.387929], [-59.208945, -34.389659], [-59.211933, -34.389954], [-59.21472, -34.394035], [-59.218026, -34.397648], [-59.22057, -34.399451], [-59.225412, -34.400599], [-59.230938, -34.407271], [-59.235489, -34.410994], [-59.236642, -34.409304], [-59.241019, -34.411594], [-59.239635, -34.413722], [-59.24164, -34.418385], [-59.247778, -34.42741], [-59.267863, -34.398811], [-59.263886, -34.396838], [-59.253635, -34.391082], [-59.293137, -34.359609], [-59.2862, -34.35388], [-59.288597, -34.351955], [-59.263788, -34.329698], [-59.25661, -34.324254]]]}, "properties": {"n": 151, "tit": "EDUARDO Y MARÍA TORMEY", "ed": "SI", "y": 1885, "ag": "GLADE", "pc": 0, "ha": 4820.2}}, {"type": "Feature", "geometry": {"type": "Polygon", "coordinates": [[[-59.375868, -34.239243], [-59.300917, -34.264903], [-59.308432, -34.285573], [-59.323786, -34.301307], [-59.392378, -34.255839], [-59.390356, -34.252594], [-59.386337, -34.249216], [-59.383843, -34.247299], [-59.380776, -34.244728], [-59.377835, -34.244651], [-59.375571, -34.24083], [-59.375868, -34.239243]]]}, "properties": {"n": 150, "tit": "GERONIMA SOSA DE LACARRA", "ed": "SI", "y": 1888, "ag": "MEINEKE", "pc": 471, "ha": 2753.2}}, {"type": "Feature", "geometry": {"type": "Polygon", "coordinates": [[[-59.301594, -34.385432], [-59.290266, -34.375642], [-59.278754, -34.384894], [-59.290479, -34.394481], [-59.301594, -34.385432]]]}, "properties": {"n": 149, "tit": "MARCELINA MONSALVO", "ed": "NO", "y": 1887, "ag": "DILLON", "pc": 0, "ha": 219.4}}, {"type": "Feature", "geometry": {"type": "Polygon", "coordinates": [[[-59.462694, -34.366566], [-59.460271, -34.364524], [-59.447592, -34.373924], [-59.444144, -34.371178], [-59.428636, -34.383037], [-59.431401, -34.385589], [-59.415968, -34.397463], [-59.416483, -34.398161], [-59.417383, -34.398847], [-59.418843, -34.399042], [-59.448447, -34.377016], [-59.462694, -34.366566]]]}, "properties": {"n": 148, "tit": "FORTUNATA PORCEL DE PONCE Y HIJOS GAYETANO Y GUAD.", "ed": "SI", "y": 1886, "ag": "PALACIOS", "pc": 0, "ha": 255.6}}, {"type": "Feature", "geometry": {"type": "Polygon", "coordinates": [[[-59.398012, -34.373476], [-59.337352, -34.420901], [-59.33974, -34.4227], [-59.399134, -34.376554], [-59.398012, -34.373476]]]}, "properties": {"n": 147, "tit": "MELITON Y TORIBIO RODRIGUEZ", "ed": "SI", "y": 1886, "ag": "ORLANDINI", "pc": 0, "ha": 233.1}}, {"type": "Feature", "geometry": {"type": "Polygon", "coordinates": [[[-59.33974, -34.4227], [-59.330482, -34.428985], [-59.340596, -34.434163], [-59.363217, -34.416491], [-59.362246, -34.415442], [-59.378633, -34.403112], [-59.371911, -34.39743], [-59.33974, -34.4227]]]}, "properties": {"n": 146, "tit": "BERNARDINO RODRIGUEZ", "ed": "SI", "y": 1886, "ag": "ORLANDINI", "pc": 0, "ha": 473.1}}, {"type": "Feature", "geometry": {"type": "Polygon", "coordinates": [[[-59.37587, -34.420185], [-59.383997, -34.426776], [-59.408587, -34.408277], [-59.417634, -34.416078], [-59.430739, -34.406649], [-59.429174, -34.404931], [-59.428008, -34.402954], [-59.426002, -34.401479], [-59.423336, -34.400478], [-59.420788, -34.400159], [-59.419189, -34.399333], [-59.417383, -34.398847], [-59.407563, -34.406009], [-59.40196, -34.40083], [-59.37587, -34.420185]]]}, "properties": {"n": 144, "tit": "FERNANDO PELÁEZ", "ed": "SI", "y": 1886, "ag": "ORLANDINI", "pc": 0, "ha": 555.1}}, {"type": "Feature", "geometry": {"type": "MultiPolygon", "coordinates": [[[[-59.276763, -34.386494], [-59.288511, -34.396083], [-59.290479, -34.394481], [-59.278768, -34.384882], [-59.276763, -34.386494]]], [[[-59.27011, -34.37796], [-59.278768, -34.384882], [-59.285847, -34.379194], [-59.277639, -34.371961], [-59.27011, -34.37796]]]]}, "properties": {"n": 143, "tit": "MARCELINO J. ORTIZ", "ed": "NO", "y": 1886, "ag": "ALMEIRA", "pc": 0, "ha": 141.7}}, {"type": "Feature", "geometry": {"type": "Polygon", "coordinates": [[[-59.299088, -34.449681], [-59.278887, -34.477022], [-59.286556, -34.480919], [-59.306288, -34.45364], [-59.299088, -34.449681]]]}, "properties": {"n": 142, "tit": "BENJAMIN A SILVA", "ed": "SI", "y": 1885, "ag": "PALACIOS", "pc": 0, "ha": 286.9}}, {"type": "Feature", "geometry": {"type": "Polygon", "coordinates": [[[-59.469285, -34.532934], [-59.452102, -34.523839], [-59.44871, -34.528159], [-59.446898, -34.524566], [-59.426428, -34.551843], [-59.447146, -34.562403], [-59.469285, -34.532934]]]}, "properties": {"n": 141, "tit": "TOMÁS GAYNOR", "ed": "SI", "y": 1885, "ag": "CASTRO", "pc": 30, "ha": 848.3}}, {"type": "Feature", "geometry": {"type": "Polygon", "coordinates": [[[-59.701445, -34.561721], [-59.681227, -34.543412], [-59.671454, -34.551105], [-59.692083, -34.569069], [-59.701445, -34.561721]]]}, "properties": {"n": 140, "tit": "TOMÁS GAYNOR", "ed": "SI", "y": 1885, "ag": "CASTRO", "pc": 0, "ha": 333.0}}, {"type": "Feature", "geometry": {"type": "Polygon", "coordinates": [[[-59.429538, -34.548522], [-59.41092, -34.539178], [-59.40745, -34.543619], [-59.427492, -34.551815], [-59.429538, -34.548522]]]}, "properties": {"n": 139, "tit": "DENUNCIADO SOBRANTE POR JUAN ABADIE", "ed": "SI", "y": 1885, "ag": "CASTRO", "pc": 0, "ha": 100.8}}, {"type": "Feature", "geometry": {"type": "Polygon", "coordinates": [[[-59.407641, -34.470159], [-59.401944, -34.467252], [-59.390024, -34.483016], [-59.385881, -34.481009], [-59.369946, -34.502063], [-59.374048, -34.504131], [-59.384012, -34.490963], [-59.389689, -34.493844], [-59.407641, -34.470159]]]}, "properties": {"n": 138, "tit": "PEDRO B NINET", "ed": "NO", "y": 1884, "ag": "ORLANDINI", "pc": 0, "ha": 312.0}}, {"type": "Feature", "geometry": {"type": "Polygon", "coordinates": [[[-59.346821, -34.49497], [-59.340086, -34.491493], [-59.331454, -34.503716], [-59.338081, -34.507079], [-59.346821, -34.49497]]]}, "properties": {"n": 138, "tit": "PEDRO B NINET", "ed": "NO", "y": 1884, "ag": "ORLANDINI", "pc": 0, "ha": 113.1}}, {"type": "Feature", "geometry": {"type": "Polygon", "coordinates": [[[-59.378421, -34.453516], [-59.370828, -34.449633], [-59.357706, -34.467507], [-59.36485, -34.471326], [-59.378421, -34.453516]]]}, "properties": {"n": 138, "tit": "PEDRO B NINET", "ed": "NO", "y": 1884, "ag": "ORLANDINI", "pc": 0, "ha": 186.4}}, {"type": "Feature", "geometry": {"type": "Polygon", "coordinates": [[[-59.652748, -34.599922], [-59.646778, -34.595177], [-59.628373, -34.61072], [-59.628309, -34.611084], [-59.633508, -34.610944], [-59.633473, -34.611643], [-59.637979, -34.611496], [-59.652748, -34.599922]]]}, "properties": {"n": 136, "tit": "MANUEL BELGRANO", "ed": "NO", "y": 1884, "ag": "VIDELA", "pc": 0, "ha": 155.7}}, {"type": "Feature", "geometry": {"type": "Polygon", "coordinates": [[[-59.288597, -34.351955], [-59.309535, -34.335647], [-59.284045, -34.313142], [-59.263788, -34.329698], [-59.288597, -34.351955]]]}, "properties": {"n": 135, "tit": "EUGENIA R. Y JUAN O´BRIEN", "ed": "SI", "y": 1884, "ag": "IPARRAGUIRRE", "pc": 0, "ha": 893.1}}, {"type": "Feature", "geometry": {"type": "Polygon", "coordinates": [[[-59.620387, -34.481322], [-59.576317, -34.517517], [-59.6051, -34.540685], [-59.648717, -34.505339], [-59.620387, -34.481322]]]}, "properties": {"n": 134, "tit": "JOSE MARIA ECHEVERRIA", "ed": "SI", "y": 1862, "ag": "SAUBIDET", "pc": 0, "ha": 2094.2}}, {"type": "Feature", "geometry": {"type": "Polygon", "coordinates": [[[-59.393966, -34.279479], [-59.372292, -34.292989], [-59.362423, -34.287609], [-59.33179, -34.309782], [-59.323786, -34.301307], [-59.324577, -34.300817], [-59.312617, -34.289649], [-59.279024, -34.309065], [-59.295032, -34.323358], [-59.309535, -34.335647], [-59.2862, -34.35388], [-59.293137, -34.359609], [-59.328767, -34.332862], [-59.340828, -34.323202], [-59.345118, -34.326668], [-59.351717, -34.3214], [-59.363254, -34.326802], [-59.389763, -34.295474], [-59.390466, -34.289967], [-59.393261, -34.283318], [-59.393966, -34.279479]]]}, "properties": {"n": 133, "tit": "BRIGIDA KEARNEY DE SCULLY", "ed": "SI", "y": 1883, "ag": "IPARRAGUIRRE", "pc": 0, "ha": 3343.5}}, {"type": "Feature", "geometry": {"type": "Polygon", "coordinates": [[[-59.365199, -34.336744], [-59.355309, -34.328601], [-59.344923, -34.336323], [-59.354208, -34.345054], [-59.365199, -34.336744]]]}, "properties": {"n": 132, "tit": "ANTONIO TORTORELLA", "ed": "NO", "y": 1883, "ag": "ALMEIRA", "pc": 0, "ha": 170.5}}, {"type": "Feature", "geometry": {"type": "Polygon", "coordinates": [[[-59.4125, -34.26818], [-59.408352, -34.267541], [-59.405358, -34.267527], [-59.398241, -34.278262], [-59.402084, -34.280338], [-59.4125, -34.26818]]]}, "properties": {"n": 131, "tit": "JOSÉ V APAOLAZA", "ed": "NO", "y": 1883, "ag": "ALMEIRA", "pc": 0, "ha": 77.4}}, {"type": "Feature", "geometry": {"type": "Polygon", "coordinates": [[[-59.639204, -34.539299], [-59.633044, -34.534029], [-59.604459, -34.557932], [-59.61034, -34.56339], [-59.639204, -34.539299]]]}, "properties": {"n": 130, "tit": "MANUEL LIMA", "ed": "SI", "y": 1883, "ag": "CASTELLANOS", "pc": 0, "ha": 304.0}}, {"type": "Feature", "geometry": {"type": "Polygon", "coordinates": [[[-59.648752, -34.531324], [-59.629664, -34.547263], [-59.635378, -34.552026], [-59.654656, -34.53647], [-59.648752, -34.531324]]]}, "properties": {"n": 129, "tit": "CELEDONIO LIMA", "ed": "SI", "y": 1883, "ag": "CASTELLANOS", "pc": 0, "ha": 189.9}}, {"type": "Feature", "geometry": {"type": "Polygon", "coordinates": [[[-59.693475, -34.516573], [-59.665177, -34.491779], [-59.657977, -34.497698], [-59.686006, -34.522715], [-59.693475, -34.516573]]]}, "properties": {"n": 128, "tit": "PETRONA, FELIPA, REMIGIO, CIPRIANO Y PEDRO CASADO", "ed": "SI", "y": 1883, "ag": "SCHUSTER", "pc": 0, "ha": 359.1}}, {"type": "Feature", "geometry": {"type": "Polygon", "coordinates": [[[-59.4125, -34.26818], [-59.406888, -34.268678], [-59.404255, -34.267111], [-59.403599, -34.265686], [-59.401913, -34.263721], [-59.399611, -34.262352], [-59.398112, -34.261567], [-59.397051, -34.260347], [-59.396113, -34.259463], [-59.394141, -34.258619], [-59.394735, -34.262426], [-59.391955, -34.266248], [-59.392146, -34.268777], [-59.393028, -34.273416], [-59.394091, -34.280378], [-59.392944, -34.28407], [-59.390466, -34.289967], [-59.389946, -34.294036], [-59.4125, -34.26818]]]}, "properties": {"n": 126, "tit": "JOSEFA COTS DE LA SOTA", "ed": "SI", "y": 1882, "ag": "IPARRAGUIRRE", "pc": 0, "ha": 301.6}}, {"type": "Feature", "geometry": {"type": "Polygon", "coordinates": [[[-59.648752, -34.531324], [-59.633252, -34.517811], [-59.59349, -34.550159], [-59.597991, -34.553945], [-59.598751, -34.553316], [-59.604459, -34.557932], [-59.633044, -34.534029], [-59.639204, -34.539299], [-59.648752, -34.531324]]]}, "properties": {"n": 0, "tit": "", "ed": "", "y": 0, "ag": "", "pc": 0, "ha": 751.3}}, {"type": "Feature", "geometry": {"type": "Polygon", "coordinates": [[[-59.733811, -34.435042], [-59.677957, -34.40503], [-59.677096, -34.400906], [-59.6733, -34.39926], [-59.644607, -34.420445], [-59.694429, -34.465267], [-59.733811, -34.435042]]]}, "properties": {"n": 123, "tit": "VICTORINA GUTIERREZ", "ed": "SI", "y": 1899, "ag": "SCHUSTER", "pc": 0, "ha": 2759.0}}, {"type": "Feature", "geometry": {"type": "Polygon", "coordinates": [[[-59.363721, -34.375214], [-59.309357, -34.416795], [-59.320785, -34.423845], [-59.372243, -34.382762], [-59.363721, -34.375214]]]}, "properties": {"n": 0, "tit": "", "ed": "", "y": 0, "ag": "", "pc": 0, "ha": 814.5}}, {"type": "Feature", "geometry": {"type": "Polygon", "coordinates": [[[-59.287324, -34.409125], [-59.250343, -34.461237], [-59.253006, -34.462584], [-59.289955, -34.410629], [-59.287324, -34.409125]]]}, "properties": {"n": 121, "tit": "MELITON RODRIGUEZ", "ed": "SI", "y": 1882, "ag": "FEDERICO MEYRELLES", "pc": 0, "ha": 194.2}}, {"type": "Feature", "geometry": {"type": "Polygon", "coordinates": [[[-59.4141, -34.473455], [-59.409077, -34.470892], [-59.398187, -34.484855], [-59.403555, -34.487501], [-59.4141, -34.473455]]]}, "properties": {"n": 120, "tit": "TORIBIO GONZALEZ", "ed": "NO", "y": 1882, "ag": "FELIX DABADIE", "pc": 0, "ha": 102.6}}, {"type": "Feature", "geometry": {"type": "Polygon", "coordinates": [[[-59.375018, -34.329319], [-59.370835, -34.326663], [-59.368676, -34.328047], [-59.364242, -34.325894], [-59.363254, -34.326802], [-59.34781, -34.319677], [-59.346707, -34.31841], [-59.253635, -34.391082], [-59.278609, -34.404142], [-59.323887, -34.367963], [-59.375018, -34.329319]]]}, "properties": {"n": 119, "tit": "ANTONIO MONSALVO Y ANTONIO  ZARATE", "ed": "SI", "y": 1882, "ag": "MANUEL ALMEIRA", "pc": 0, "ha": 3085.2}}, {"type": "Feature", "geometry": {"type": "Polygon", "coordinates": [[[-59.561568, -34.533532], [-59.531601, -34.517483], [-59.518184, -34.519047], [-59.513617, -34.524608], [-59.54829, -34.543568], [-59.561568, -34.533532]]]}, "properties": {"n": 118, "tit": "JOSE BIANCHI", "ed": "SI", "y": 0, "ag": "VENTURA COLL", "pc": 0, "ha": 595.5}}, {"type": "Feature", "geometry": {"type": "Polygon", "coordinates": [[[-59.664476, -34.545026], [-59.654656, -34.53647], [-59.635378, -34.552026], [-59.629664, -34.547263], [-59.605282, -34.567609], [-59.61253, -34.573793], [-59.598038, -34.585799], [-59.606155, -34.592731], [-59.664476, -34.545026]]]}, "properties": {"n": 117, "tit": "JOSÉ MARÍA RODRIGUEZ", "ed": "SI", "y": 1881, "ag": "SCHUSTER", "pc": 0, "ha": 1181.8}}, {"type": "Feature", "geometry": {"type": "Polygon", "coordinates": [[[-59.457333, -34.448365], [-59.420792, -34.476869], [-59.433009, -34.4831], [-59.462422, -34.460995], [-59.460113, -34.455974], [-59.458376, -34.453057], [-59.458198, -34.45039], [-59.457333, -34.448365]]]}, "properties": {"n": 116, "tit": "EMILIA LOPEZ DE CUCULLU", "ed": "SI", "y": 1881, "ag": "SCHUSTER", "pc": 469, "ha": 536.6}}, {"type": "Feature", "geometry": {"type": "Polygon", "coordinates": [[[-59.433009, -34.4831], [-59.420792, -34.476869], [-59.380672, -34.528673], [-59.393574, -34.53521], [-59.433009, -34.4831]]]}, "properties": {"n": 115, "tit": "ROMUALDA GALEANO DE CASAS", "ed": "NO", "y": 1881, "ag": "AGUSTIN RODRIGUEZ", "pc": 0, "ha": 923.5}}, {"type": "Feature", "geometry": {"type": "Polygon", "coordinates": [[[-59.433354, -34.483275], [-59.420539, -34.47674], [-59.38116, -34.52892], [-59.394193, -34.535523], [-59.433354, -34.483275]]]}, "properties": {"n": 114, "tit": "JULIO SARAVI", "ed": "NO", "y": 1881, "ag": "AGUSTIN RODRIGUEZ", "pc": 0, "ha": 950.3}}, {"type": "Feature", "geometry": {"type": "Polygon", "coordinates": [[[-59.417474, -34.512261], [-59.412894, -34.510228], [-59.394037, -34.535444], [-59.399035, -34.537975], [-59.417474, -34.512261]]]}, "properties": {"n": 113, "tit": "JUSTO RIVAS Y DIONISIO ACUÑA", "ed": "NO", "y": 1881, "ag": "SCHUSTER", "pc": 0, "ha": 167.6}}, {"type": "Feature", "geometry": {"type": "Polygon", "coordinates": [[[-59.532826, -34.345037], [-59.510537, -34.33171], [-59.491909, -34.345306], [-59.500445, -34.352664], [-59.506136, -34.348534], [-59.516624, -34.357866], [-59.532826, -34.345037]]]}, "properties": {"n": 112, "tit": "JORGE Y EDUARDO MORGAN", "ed": "SI", "y": 1881, "ag": "GERMAN KURH", "pc": 0, "ha": 535.9}}, {"type": "Feature", "geometry": {"type": "Polygon", "coordinates": [[[-59.630693, -34.405072], [-59.622023, -34.397561], [-59.590484, -34.421666], [-59.607725, -34.436829], [-59.623861, -34.425072], [-59.622959, -34.423129], [-59.62452, -34.418305], [-59.625589, -34.41415], [-59.625745, -34.410854], [-59.629008, -34.407954], [-59.630693, -34.405072]]]}, "properties": {"n": 111, "tit": "PETRONA BUSTOS DE RODRIGUEZ", "ed": "SI", "y": 1881, "ag": "SALAS", "pc": 0, "ha": 775.6}}, {"type": "Feature", "geometry": {"type": "Polygon", "coordinates": [[[-59.477884, -34.388782], [-59.475293, -34.386066], [-59.465538, -34.392914], [-59.456686, -34.3845], [-59.46082, -34.381522], [-59.454441, -34.372634], [-59.41878, -34.39899], [-59.422144, -34.400302], [-59.426002, -34.401479], [-59.430739, -34.406649], [-59.433717, -34.410243], [-59.43477, -34.412805], [-59.438923, -34.418267], [-59.477884, -34.388782]]]}, "properties": {"n": 110, "tit": "BENITO DAMASO VAZQUEZ", "ed": "SI", "y": 1877, "ag": "CASCALLARES", "pc": 0, "ha": 1099.2}}, {"type": "Feature", "geometry": {"type": "Polygon", "coordinates": [[[-59.420539, -34.47674], [-59.4141, -34.473455], [-59.374816, -34.525705], [-59.382, -34.529346], [-59.420539, -34.47674]]]}, "properties": {"n": 109, "tit": "PASCULA LESCANO", "ed": "SI", "y": 1880, "ag": "SCHUSTER", "pc": 0, "ha": 501.1}}, {"type": "Feature", "geometry": {"type": "Polygon", "coordinates": [[[-59.487068, -34.53069], [-59.475584, -34.524961], [-59.45646, -34.549159], [-59.468487, -34.554839], [-59.487068, -34.53069]]]}, "properties": {"n": 108, "tit": "MARTIN DOWLING", "ed": "SI", "y": 1880, "ag": "TOMAS DODDS", "pc": 0, "ha": 398.9}}, {"type": "Feature", "geometry": {"type": "Polygon", "coordinates": [[[-59.33462, -34.431104], [-59.326204, -34.426744], [-59.285981, -34.480627], [-59.294449, -34.484929], [-59.33462, -34.431104]]]}, "properties": {"n": 106, "tit": "LAUREANO CASTRO", "ed": "SI", "y": 1880, "ag": "ALMEIRA", "pc": 0, "ha": 640.9}}, {"type": "Feature", "geometry": {"type": "Polygon", "coordinates": [[[-59.419848, -34.423977], [-59.418905, -34.420287], [-59.375777, -34.452164], [-59.379576, -34.454107], [-59.419848, -34.423977]]]}, "properties": {"n": 105, "tit": "JUAN FRANCISCO SILVA", "ed": "SI", "y": 0, "ag": "SCHUSTER", "pc": 0, "ha": 194.7}}, {"type": "Feature", "geometry": {"type": "Polygon", "coordinates": [[[-59.243847, -34.42163], [-59.24164, -34.418385], [-59.239635, -34.413722], [-59.218282, -34.44501], [-59.225038, -34.448431], [-59.243847, -34.42163]]]}, "properties": {"n": 104, "tit": "NICOLAS ORMAECHEA", "ed": "SI", "y": 1880, "ag": "MUÑIZ", "pc": 0, "ha": 276.5}}, {"type": "Feature", "geometry": {"type": "Polygon", "coordinates": [[[-59.242961, -34.422894], [-59.225038, -34.448431], [-59.237498, -34.454738], [-59.251462, -34.434647], [-59.250084, -34.432394], [-59.247072, -34.428469], [-59.242961, -34.422894]]]}, "properties": {"n": 103, "tit": "JOSE MANUEL DOBARRO", "ed": "SI", "y": 1880, "ag": "MUÑIZ", "pc": 0, "ha": 391.8}}, {"type": "Feature", "geometry": {"type": "Polygon", "coordinates": [[[-59.562804, -34.506634], [-59.579247, -34.493095], [-59.574736, -34.473768], [-59.554391, -34.456893], [-59.562804, -34.506634]]]}, "properties": {"n": 102, "tit": "AVELINA BUSTOS", "ed": "NO", "y": 1880, "ag": "SCHUSTER", "pc": 0, "ha": 636.4}}, {"type": "Feature", "geometry": {"type": "Polygon", "coordinates": [[[-59.333288, -34.381928], [-59.320542, -34.37049], [-59.278609, -34.404142], [-59.293847, -34.412854], [-59.333288, -34.381928]]]}, "properties": {"n": 101, "tit": "FRANCISCO MALDONADO", "ed": "SI", "y": 1880, "ag": "CHAPEAUROUGE", "pc": 0, "ha": 879.1}}, {"type": "Feature", "geometry": {"type": "Polygon", "coordinates": [[[-59.605377, -34.434764], [-59.590484, -34.421666], [-59.55702, -34.447904], [-59.571548, -34.460541], [-59.605377, -34.434764]]]}, "properties": {"n": 100, "tit": "PABLO BUSTOS", "ed": "SI", "y": 1879, "ag": "SCHUSTER", "pc": 0, "ha": 831.5}}, {"type": "Feature", "geometry": {"type": "Polygon", "coordinates": [[[-59.556738, -34.470775], [-59.547271, -34.471665], [-59.55459, -34.514995], [-59.564327, -34.513861], [-59.556738, -34.470775]]]}, "properties": {"n": 100, "tit": "PABLO BUSTOS", "ed": "SI", "y": 1879, "ag": "SCHUSTER", "pc": 0, "ha": 430.4}}]}