{"type": "FeatureCollection", "features": [{"type": "Feature", "geometry": {"type": "Polygon", "coordinates": [[[-59.76844, -34.45363], [-59.67808, -34.4051], [-59.6771, -34.40091], [-59.6733, -34.39926], [-59.64674, -34.41883], [-59.62202, -34.39756], [-59.60757, -34.40802], [-59.54338, -34.35134], [-59.51054, -34.33171], [-59.49137, -34.32242], [-59.49127, -34.322], [-59.4928, -34.32014], [-59.48124, -34.31443], [-59.4788, -34.31602], [-59.46898, -34.31144], [-59.4667, -34.31428], [-59.4389, -34.29996], [-59.43207, -34.30853], [-59.42336, -34.30418], [-59.4277, -34.29783], [-59.416, -34.2926], [-59.42276, -34.28432], [-59.4111, -34.27824], [-59.41483, -34.2737], [-59.41486, -34.2699], [-59.4125, -34.26818], [-59.40666, -34.2687], [-59.40459, -34.26774], [-59.40339, -34.26524], [-59.40191, -34.26372], [-59.39718, -34.26113], [-59.3968, -34.25984], [-59.39403, -34.25843], [-59.39036, -34.25259], [-59.38529, -34.24782], [-59.38386, -34.24729], [-59.38078, -34.24473], [-59.3778, -34.24457], [-59.37532, -34.24054], [-59.37587, -34.23924], [-59.30092, -34.2649], [-59.30843, -34.28557], [-59.31234, -34.28979], [-59.27919, -34.30897], [-59.2754, -34.30586], [-59.25387, -34.32217], [-59.25631, -34.32403], [-59.25629, -34.32449], [-59.19366, -34.37109], [-59.19638, -34.37379], [-59.19774, -34.37395], [-59.19801, -34.37489], [-59.20049, -34.37771], [-59.20282, -34.38206], [-59.20646, -34.38534], [-59.20895, -34.38966], [-59.212, -34.39005], [-59.21615, -34.39663], [-59.22057, -34.39945], [-59.22365, -34.39981], [-59.22541, -34.4006], [-59.23157, -34.40795], [-59.23538, -34.41097], [-59.21397, -34.44283], [-59.25299, -34.46258], [-59.26321, -34.46905], [-59.47757, -34.57791], [-59.47947, -34.56859], [-59.50657, -34.5819], [-59.52467, -34.5974], [-59.57048, -34.56227], [-59.63285, -34.61552], [-59.76782, -34.50956], [-59.73431, -34.47942], [-59.76844, -34.45363]]]}, "properties": {}}]}